{"type": "FeatureCollection", "features": [{"type": "Feature", "geometry": {"type": "Point", "coordinates": [56.266760799999986, 25.6716585]}, "properties": {"type": "convex_hull"}}, {"type": "Feature", "geometry": {"type": "Polygon", "coordinates": [[[56.269541521286165, 25.657678870061396], [56.25884197574997, 25.659807141993888], [56.25278117006138, 25.66887777871382], [56.254909441993874, 25.67957732425002], [56.26398007871381, 25.685638129938603], [56.274679624250005, 25.68350985800611], [56.28074042993859, 25.67443922128618], [56.2786121580061, 25.66373967574998], [56.269541521286165, 25.657678870061396]]]}, "properties": {"type": "buffer_union_envelope", "buffer_m": 1500.0, "simplify_m": 300.0}}]}