{"type": "FeatureCollection", "features": [{"type": "Feature", "geometry": {"type": "Polygon", "coordinates": [[[58.41359885269168, 23.535695281072712], [58.396180450453215, 23.54568939208648], [58.39441973617724, 23.54688044791742], [58.370286587921385, 23.563801905443274], [58.35558416934606, 23.57997187105409], [58.35617133352565, 23.61215648305173], [58.37194438734886, 23.62926812001672], [58.379271337718876, 23.636357140646158], [58.391717446273844, 23.641894375896126], [58.42216969174993, 23.638583924022562], [58.478048837172906, 23.60680392418558], [58.48617785481727, 23.60080392306705], [58.446303494395664, 23.55293188239199], [58.42454006198639, 23.53608211455069], [58.41359885269168, 23.535695281072712]]]}, "properties": {"type": "convex_hull"}}, {"type": "Feature", "geometry": {"type": "Polygon", "coordinates": [[[58.408191414963696, 23.522640571572126], [58.360294945840955, 23.553810263362845], [58.35632683168737, 23.565878039974844], [58.34559252726563, 23.569980228973662], [58.34145385360554, 23.57997187105409], [58.349805038110624, 23.592850782618225], [58.34264946443692, 23.608054668907492], [58.343116624025065, 23.617563920779716], [58.35573128988602, 23.626265180834473], [58.361021505572126, 23.638232297425617], [58.372610352988474, 23.648818966569678], [58.390332433133004, 23.655956650304145], [58.403406675631416, 23.65304209331989], [58.4105071910421, 23.646550840747427], [58.42627150589417, 23.652105793111296], [58.43463151767345, 23.645244908752964], [58.435286682188256, 23.633350549854857], [58.44590732818784, 23.624841798965253], [58.47623296636181, 23.6229919227282], [58.498639680740794, 23.607464907797453], [58.49710073659401, 23.591839745658156], [58.48134233402108, 23.57955757405765], [58.47290842905736, 23.578014666154786], [58.4572263761724, 23.543967704983096], [58.431201046716794, 23.52362028862717], [58.408191414963696, 23.522640571572126]]]}, "properties": {"type": "buffer_union_envelope", "buffer_m": 1500.0, "simplify_m": 300.0}}]}