{"type": "FeatureCollection", "features": [{"type": "Feature", "properties": {"plant_id": "osm:way/386838289", "plant_id_safe": "osm_way_386838289", "name": "Ghubrah Power & Desalination Plant", "lat": 23.6018997, "lon": 58.4137212, "box_km": 20.0}, "geometry": {"type": "Polygon", "coordinates": [[[58.31568969356934, 23.51146252670429], [58.31568969356934, 23.692336873295712], [58.511752706430656, 23.692336873295712], [58.511752706430656, 23.51146252670429], [58.31568969356934, 23.51146252670429]]]}}]}