{"type": "FeatureCollection", "features": [{"type": "Feature", "geometry": {"type": "Polygon", "coordinates": [[[58.871265, 22.527717], [58.877407, 22.527717], [58.877407, 22.533568], [58.871265, 22.533568], [58.871265, 22.527717]]]}, "properties": {"chip_id": "S2A_MSIL2A_20250106T063241_R077_T40QGK_20250106T094852_0000", "month_key": "2025-01", "datetime": "2025-01-06 06:32:41.024000+00:00", "tile": "S2A_MSIL2A_20250106T063241_R077_T40QGK_20250106T094852_0000.jpg", "scene_id": "S2A_MSIL2A_20250106T063241_R077_T40QGK_20250106T094852", "hab_prob": 0.2577166443477538, "p_frcnn_r50_med": 0.9581437706947328, "p_frcnn_mb_med": 0.1057899221777916, "p_ssd_mb_med": 0.4817197024822235}}, {"type": "Feature", "geometry": {"type": "Polygon", "coordinates": [[[58.871879, 22.528302], [58.876793, 22.528302], [58.876793, 22.532983], [58.871879, 22.532983], [58.871879, 22.528302]]]}, "properties": {"chip_id": "S2A_MSIL2A_20250106T063241_R077_T40QGK_20250106T094852_0001", "month_key": "2025-01", "datetime": "2025-01-06 06:32:41.024000+00:00", "tile": "S2A_MSIL2A_20250106T063241_R077_T40QGK_20250106T094852_0001.jpg", "scene_id": "S2A_MSIL2A_20250106T063241_R077_T40QGK_20250106T094852", "hab_prob": 0.2577364921783039, "p_frcnn_r50_med": 0.9286158084869384, "p_frcnn_mb_med": 0.1041611060500145, "p_ssd_mb_med": 0.4470816850662231}}, {"type": "Feature", "geometry": {"type": "Polygon", "coordinates": [[[58.871265, 22.527717], [58.877407, 22.527717], [58.877407, 22.533568], [58.871265, 22.533568], [58.871265, 22.527717]]]}, "properties": {"chip_id": "S2B_MSIL2A_20250111T063139_R077_T40QGK_20250111T082311_0000", "month_key": "2025-01", "datetime": "2025-01-11 06:31:39.024000+00:00", "tile": "S2B_MSIL2A_20250111T063139_R077_T40QGK_20250111T082311_0000.jpg", "scene_id": "S2B_MSIL2A_20250111T063139_R077_T40QGK_20250111T082311", "hab_prob": 0.2513618377168737, "p_frcnn_r50_med": 0.9134832620620728, "p_frcnn_mb_med": 0.0784331932663917, "p_ssd_mb_med": 0.4306545257568359}}, {"type": "Feature", "geometry": {"type": "Polygon", "coordinates": [[[58.871879, 22.528302], [58.876793, 22.528302], [58.876793, 22.532983], [58.871879, 22.532983], [58.871879, 22.528302]]]}, "properties": {"chip_id": "S2B_MSIL2A_20250111T063139_R077_T40QGK_20250111T082311_0001", "month_key": "2025-01", "datetime": "2025-01-11 06:31:39.024000+00:00", "tile": "S2B_MSIL2A_20250111T063139_R077_T40QGK_20250111T082311_0001.jpg", "scene_id": "S2B_MSIL2A_20250111T063139_R077_T40QGK_20250111T082311", "hab_prob": 0.2513618377168737, "p_frcnn_r50_med": 0.9158093929290771, "p_frcnn_mb_med": 0.0620237663388252, "p_ssd_mb_med": 0.4278846085071563}}, {"type": "Feature", "geometry": {"type": "Polygon", "coordinates": [[[58.871265, 22.527717], [58.877407, 22.527717], [58.877407, 22.533568], [58.871265, 22.533568], [58.871265, 22.527717]]]}, "properties": {"chip_id": "S2B_MSIL2A_20250121T063059_R077_T40QGK_20250121T091004_0000", "month_key": "2025-01", "datetime": "2025-01-21 06:30:59.024000+00:00", "tile": "S2B_MSIL2A_20250121T063059_R077_T40QGK_20250121T091004_0000.jpg", "scene_id": "S2B_MSIL2A_20250121T063059_R077_T40QGK_20250121T091004", "hab_prob": 0.5645312744907992, "p_frcnn_r50_med": 0.7775938510894775, "p_frcnn_mb_med": 0.2492347061634063, "p_ssd_mb_med": 0.4385190606117248}}, {"type": "Feature", "geometry": {"type": "Polygon", "coordinates": [[[58.871879, 22.528302], [58.876793, 22.528302], [58.876793, 22.532983], [58.871879, 22.532983], [58.871879, 22.528302]]]}, "properties": {"chip_id": "S2B_MSIL2A_20250121T063059_R077_T40QGK_20250121T091004_0001", "month_key": "2025-01", "datetime": "2025-01-21 06:30:59.024000+00:00", "tile": "S2B_MSIL2A_20250121T063059_R077_T40QGK_20250121T091004_0001.jpg", "scene_id": "S2B_MSIL2A_20250121T063059_R077_T40QGK_20250121T091004", "hab_prob": 0.5645312744907992, "p_frcnn_r50_med": 0.7650701403617859, "p_frcnn_mb_med": 0.293905109167099, "p_ssd_mb_med": 0.453021377325058}}, {"type": "Feature", "geometry": {"type": "Polygon", "coordinates": [[[58.871265, 22.527717], [58.877407, 22.527717], [58.877407, 22.533568], [58.871265, 22.533568], [58.871265, 22.527717]]]}, "properties": {"chip_id": "S2C_MSIL2A_20250126T063201_R077_T40QGK_20250126T092410_0000", "month_key": "2025-01", "datetime": "2025-01-26 06:32:01.025000+00:00", "tile": "S2C_MSIL2A_20250126T063201_R077_T40QGK_20250126T092410_0000.jpg", "scene_id": "S2C_MSIL2A_20250126T063201_R077_T40QGK_20250126T092410", "hab_prob": 0.276247151598972, "p_frcnn_r50_med": 0.9155895113945008, "p_frcnn_mb_med": 0.1436055302619934, "p_ssd_mb_med": 0.5762399435043335}}, {"type": "Feature", "geometry": {"type": "Polygon", "coordinates": [[[58.871879, 22.528302], [58.876793, 22.528302], [58.876793, 22.532983], [58.871879, 22.532983], [58.871879, 22.528302]]]}, "properties": {"chip_id": "S2C_MSIL2A_20250126T063201_R077_T40QGK_20250126T092410_0001", "month_key": "2025-01", "datetime": "2025-01-26 06:32:01.025000+00:00", "tile": "S2C_MSIL2A_20250126T063201_R077_T40QGK_20250126T092410_0001.jpg", "scene_id": "S2C_MSIL2A_20250126T063201_R077_T40QGK_20250126T092410", "hab_prob": 0.2753510495273644, "p_frcnn_r50_med": 0.972226083278656, "p_frcnn_mb_med": 0.0626269876956939, "p_ssd_mb_med": 0.4468156099319458}}]}