{"type": "FeatureCollection", "features": [{"type": "Feature", "geometry": {"type": "Polygon", "coordinates": [[[58.871265, 22.527717], [58.877407, 22.527717], [58.877407, 22.533568], [58.871265, 22.533568], [58.871265, 22.527717]]]}, "properties": {"chip_id": "S2C_MSIL2A_20250406T062651_R077_T40QGK_20250406T111317_0000", "month_key": "2025-04", "datetime": "2025-04-06 06:26:51.024000+00:00", "tile": "S2C_MSIL2A_20250406T062651_R077_T40QGK_20250406T111317_0000.jpg", "scene_id": "S2C_MSIL2A_20250406T062651_R077_T40QGK_20250406T111317", "hab_prob": 0.3401585441540654, "p_frcnn_r50_med": 0.9362748861312866, "p_frcnn_mb_med": 0.097538836300373, "p_ssd_mb_med": 0.4370636641979217}}, {"type": "Feature", "geometry": {"type": "Polygon", "coordinates": [[[58.871879, 22.528302], [58.876793, 22.528302], [58.876793, 22.532983], [58.871879, 22.532983], [58.871879, 22.528302]]]}, "properties": {"chip_id": "S2C_MSIL2A_20250406T062651_R077_T40QGK_20250406T111317_0001", "month_key": "2025-04", "datetime": "2025-04-06 06:26:51.024000+00:00", "tile": "S2C_MSIL2A_20250406T062651_R077_T40QGK_20250406T111317_0001.jpg", "scene_id": "S2C_MSIL2A_20250406T062651_R077_T40QGK_20250406T111317", "hab_prob": 0.3401585441540654, "p_frcnn_r50_med": 0.9049163460731506, "p_frcnn_mb_med": 0.1054069623351097, "p_ssd_mb_med": 0.4269889295101166}}, {"type": "Feature", "geometry": {"type": "Polygon", "coordinates": [[[58.871265, 22.527717], [58.877407, 22.527717], [58.877407, 22.533568], [58.871265, 22.533568], [58.871265, 22.527717]]]}, "properties": {"chip_id": "S2C_MSIL2A_20250416T062651_R077_T40QGK_20250416T113912_0000", "month_key": "2025-04", "datetime": "2025-04-16 06:26:51.025000+00:00", "tile": "S2C_MSIL2A_20250416T062651_R077_T40QGK_20250416T113912_0000.jpg", "scene_id": "S2C_MSIL2A_20250416T062651_R077_T40QGK_20250416T113912", "hab_prob": 0.3769230302409567, "p_frcnn_r50_med": 0.8850632309913635, "p_frcnn_mb_med": 0.0896569713950157, "p_ssd_mb_med": 0.4375137686729431}}, {"type": "Feature", "geometry": {"type": "Polygon", "coordinates": [[[58.871879, 22.528302], [58.876793, 22.528302], [58.876793, 22.532983], [58.871879, 22.532983], [58.871879, 22.528302]]]}, "properties": {"chip_id": "S2C_MSIL2A_20250416T062651_R077_T40QGK_20250416T113912_0001", "month_key": "2025-04", "datetime": "2025-04-16 06:26:51.025000+00:00", "tile": "S2C_MSIL2A_20250416T062651_R077_T40QGK_20250416T113912_0001.jpg", "scene_id": "S2C_MSIL2A_20250416T062651_R077_T40QGK_20250416T113912", "hab_prob": 0.3769230302409567, "p_frcnn_r50_med": 0.9638264775276184, "p_frcnn_mb_med": 0.0811951085925102, "p_ssd_mb_med": 0.4303544759750366}}, {"type": "Feature", "geometry": {"type": "Polygon", "coordinates": [[[58.871265, 22.527717], [58.877407, 22.527717], [58.877407, 22.533568], [58.871265, 22.533568], [58.871265, 22.527717]]]}, "properties": {"chip_id": "S2B_MSIL2A_20250421T062629_R077_T40QGK_20250421T081920_0000", "month_key": "2025-04", "datetime": "2025-04-21 06:26:29.024000+00:00", "tile": "S2B_MSIL2A_20250421T062629_R077_T40QGK_20250421T081920_0000.jpg", "scene_id": "S2B_MSIL2A_20250421T062629_R077_T40QGK_20250421T081920", "hab_prob": 0.3938337979992408, "p_frcnn_r50_med": 0.953779399394989, "p_frcnn_mb_med": 0.1022592112421989, "p_ssd_mb_med": 0.417075514793396}}, {"type": "Feature", "geometry": {"type": "Polygon", "coordinates": [[[58.871879, 22.528302], [58.876793, 22.528302], [58.876793, 22.532983], [58.871879, 22.532983], [58.871879, 22.528302]]]}, "properties": {"chip_id": "S2B_MSIL2A_20250421T062629_R077_T40QGK_20250421T081920_0001", "month_key": "2025-04", "datetime": "2025-04-21 06:26:29.024000+00:00", "tile": "S2B_MSIL2A_20250421T062629_R077_T40QGK_20250421T081920_0001.jpg", "scene_id": "S2B_MSIL2A_20250421T062629_R077_T40QGK_20250421T081920", "hab_prob": 0.366682406956746, "p_frcnn_r50_med": 0.9297292828559875, "p_frcnn_mb_med": 0.1403327882289886, "p_ssd_mb_med": 0.3644635379314422}}, {"type": "Feature", "geometry": {"type": "Polygon", "coordinates": [[[58.871265, 22.527717], [58.877407, 22.527717], [58.877407, 22.533568], [58.871265, 22.533568], [58.871265, 22.527717]]]}, "properties": {"chip_id": "S2A_MSIL2A_20250428T063321_R077_T40QGK_20250428T113258_0000", "month_key": "2025-04", "datetime": "2025-04-28 06:33:21.024000+00:00", "tile": "S2A_MSIL2A_20250428T063321_R077_T40QGK_20250428T113258_0000.jpg", "scene_id": "S2A_MSIL2A_20250428T063321_R077_T40QGK_20250428T113258", "hab_prob": 0.3355731790114648, "p_frcnn_r50_med": 0.8360434770584106, "p_frcnn_mb_med": 0.0510944835841655, "p_ssd_mb_med": 0.3988078534603119}}, {"type": "Feature", "geometry": {"type": "Polygon", "coordinates": [[[58.871879, 22.528302], [58.876793, 22.528302], [58.876793, 22.532983], [58.871879, 22.532983], [58.871879, 22.528302]]]}, "properties": {"chip_id": "S2A_MSIL2A_20250428T063321_R077_T40QGK_20250428T113258_0001", "month_key": "2025-04", "datetime": "2025-04-28 06:33:21.024000+00:00", "tile": "S2A_MSIL2A_20250428T063321_R077_T40QGK_20250428T113258_0001.jpg", "scene_id": "S2A_MSIL2A_20250428T063321_R077_T40QGK_20250428T113258", "hab_prob": 0.3611090586011776, "p_frcnn_r50_med": 0.9033805131912231, "p_frcnn_mb_med": 0.1304631233215332, "p_ssd_mb_med": 0.465797871351242}}]}