{"type": "FeatureCollection", "features": [{"type": "Feature", "geometry": {"type": "Polygon", "coordinates": [[[58.871265, 22.527717], [58.877407, 22.527717], [58.877407, 22.533568], [58.871265, 22.533568], [58.871265, 22.527717]]]}, "properties": {"chip_id": "S2C_MSIL2A_20251202T063241_R077_T40QGK_20251202T103810_0000", "month_key": "2025-12", "datetime": "2025-12-02 06:32:41.025000+00:00", "tile": "S2C_MSIL2A_20251202T063241_R077_T40QGK_20251202T103810_0000.jpg", "scene_id": "S2C_MSIL2A_20251202T063241_R077_T40QGK_20251202T103810", "hab_prob": 0.2512634938699235, "p_frcnn_r50_med": 0.9532192945480348, "p_frcnn_mb_med": 0.1191187500953674, "p_ssd_mb_med": 0.416679322719574}}, {"type": "Feature", "geometry": {"type": "Polygon", "coordinates": [[[58.871879, 22.528302], [58.876793, 22.528302], [58.876793, 22.532983], [58.871879, 22.532983], [58.871879, 22.528302]]]}, "properties": {"chip_id": "S2C_MSIL2A_20251202T063241_R077_T40QGK_20251202T103810_0001", "month_key": "2025-12", "datetime": "2025-12-02 06:32:41.025000+00:00", "tile": "S2C_MSIL2A_20251202T063241_R077_T40QGK_20251202T103810_0001.jpg", "scene_id": "S2C_MSIL2A_20251202T063241_R077_T40QGK_20251202T103810", "hab_prob": 0.2501530656486919, "p_frcnn_r50_med": 0.9580100178718568, "p_frcnn_mb_med": 0.0619597695767879, "p_ssd_mb_med": 0.4693800210952759}}, {"type": "Feature", "geometry": {"type": "Polygon", "coordinates": [[[58.871265, 22.527717], [58.877407, 22.527717], [58.877407, 22.533568], [58.871265, 22.533568], [58.871265, 22.527717]]]}, "properties": {"chip_id": "S2C_MSIL2A_20251212T063301_R077_T40QGK_20251212T101209_0000", "month_key": "2025-12", "datetime": "2025-12-12 06:33:01.025000+00:00", "tile": "S2C_MSIL2A_20251212T063301_R077_T40QGK_20251212T101209_0000.jpg", "scene_id": "S2C_MSIL2A_20251212T063301_R077_T40QGK_20251212T101209", "hab_prob": 0.2487983762946755, "p_frcnn_r50_med": 0.8909103870391846, "p_frcnn_mb_med": 0.1483213752508163, "p_ssd_mb_med": 0.435544341802597}}, {"type": "Feature", "geometry": {"type": "Polygon", "coordinates": [[[58.871879, 22.528302], [58.876793, 22.528302], [58.876793, 22.532983], [58.871879, 22.532983], [58.871879, 22.528302]]]}, "properties": {"chip_id": "S2C_MSIL2A_20251212T063301_R077_T40QGK_20251212T101209_0001", "month_key": "2025-12", "datetime": "2025-12-12 06:33:01.025000+00:00", "tile": "S2C_MSIL2A_20251212T063301_R077_T40QGK_20251212T101209_0001.jpg", "scene_id": "S2C_MSIL2A_20251212T063301_R077_T40QGK_20251212T101209", "hab_prob": 0.2477145719388723, "p_frcnn_r50_med": 0.9440574049949646, "p_frcnn_mb_med": 0.0931629538536071, "p_ssd_mb_med": 0.4460012018680572}}, {"type": "Feature", "geometry": {"type": "Polygon", "coordinates": [[[58.871265, 22.527717], [58.877407, 22.527717], [58.877407, 22.533568], [58.871265, 22.533568], [58.871265, 22.527717]]]}, "properties": {"chip_id": "S2C_MSIL2A_20251222T063311_R077_T40QGK_20251222T101518_0000", "month_key": "2025-12", "datetime": "2025-12-22 06:33:11.024000+00:00", "tile": "S2C_MSIL2A_20251222T063311_R077_T40QGK_20251222T101518_0000.jpg", "scene_id": "S2C_MSIL2A_20251222T063311_R077_T40QGK_20251222T101518", "hab_prob": 0.5449148628887455, "p_frcnn_r50_med": 0.8068949580192566, "p_frcnn_mb_med": 0.4165535569190979, "p_ssd_mb_med": 0.4522583484649658}}, {"type": "Feature", "geometry": {"type": "Polygon", "coordinates": [[[58.871879, 22.528302], [58.876793, 22.528302], [58.876793, 22.532983], [58.871879, 22.532983], [58.871879, 22.528302]]]}, "properties": {"chip_id": "S2C_MSIL2A_20251222T063311_R077_T40QGK_20251222T101518_0001", "month_key": "2025-12", "datetime": "2025-12-22 06:33:11.024000+00:00", "tile": "S2C_MSIL2A_20251222T063311_R077_T40QGK_20251222T101518_0001.jpg", "scene_id": "S2C_MSIL2A_20251222T063311_R077_T40QGK_20251222T101518", "hab_prob": 0.5593223248928298, "p_frcnn_r50_med": 0.9087916016578674, "p_frcnn_mb_med": 0.4023503959178924, "p_ssd_mb_med": 0.4263211786746979}}, {"type": "Feature", "geometry": {"type": "Polygon", "coordinates": [[[58.871265, 22.527717], [58.877407, 22.527717], [58.877407, 22.533568], [58.871265, 22.533568], [58.871265, 22.527717]]]}, "properties": {"chip_id": "S2B_MSIL2A_20251227T063159_R077_T40QGK_20251227T083938_0000", "month_key": "2025-12", "datetime": "2025-12-27 06:31:59.024000+00:00", "tile": "S2B_MSIL2A_20251227T063159_R077_T40QGK_20251227T083938_0000.jpg", "scene_id": "S2B_MSIL2A_20251227T063159_R077_T40QGK_20251227T083938", "hab_prob": 0.5441859996576168, "p_frcnn_r50_med": 0.8146706819534302, "p_frcnn_mb_med": 0.0954795479774475, "p_ssd_mb_med": 0.4913373589515686}}, {"type": "Feature", "geometry": {"type": "Polygon", "coordinates": [[[58.871879, 22.528302], [58.876793, 22.528302], [58.876793, 22.532983], [58.871879, 22.532983], [58.871879, 22.528302]]]}, "properties": {"chip_id": "S2B_MSIL2A_20251227T063159_R077_T40QGK_20251227T083938_0001", "month_key": "2025-12", "datetime": "2025-12-27 06:31:59.024000+00:00", "tile": "S2B_MSIL2A_20251227T063159_R077_T40QGK_20251227T083938_0001.jpg", "scene_id": "S2B_MSIL2A_20251227T063159_R077_T40QGK_20251227T083938", "hab_prob": 0.5555136388732159, "p_frcnn_r50_med": 0.8926194310188293, "p_frcnn_mb_med": 0.1455347388982772, "p_ssd_mb_med": 0.4169795215129852}}]}