{"type": "FeatureCollection", "features": [{"type": "Feature", "geometry": {"type": "Polygon", "coordinates": [[[58.871265, 22.527717], [58.877407, 22.527717], [58.877407, 22.533568], [58.871265, 22.533568], [58.871265, 22.527717]]]}, "properties": {"chip_id": "S2B_MSIL2A_20250501T062629_R077_T40QGK_20250501T083615_0000", "month_key": "2025-05", "datetime": "2025-05-01 06:26:29.024000+00:00", "tile": "S2B_MSIL2A_20250501T062629_R077_T40QGK_20250501T083615_0000.jpg", "scene_id": "S2B_MSIL2A_20250501T062629_R077_T40QGK_20250501T083615", "hab_prob": 0.5306139786774611, "p_frcnn_r50_med": 0.9019692540168762, "p_frcnn_mb_med": 0.0972285717725753, "p_ssd_mb_med": 0.4116861820220947}}, {"type": "Feature", "geometry": {"type": "Polygon", "coordinates": [[[58.871879, 22.528302], [58.876793, 22.528302], [58.876793, 22.532983], [58.871879, 22.532983], [58.871879, 22.528302]]]}, "properties": {"chip_id": "S2B_MSIL2A_20250501T062629_R077_T40QGK_20250501T083615_0001", "month_key": "2025-05", "datetime": "2025-05-01 06:26:29.024000+00:00", "tile": "S2B_MSIL2A_20250501T062629_R077_T40QGK_20250501T083615_0001.jpg", "scene_id": "S2B_MSIL2A_20250501T062629_R077_T40QGK_20250501T083615", "hab_prob": 0.5291673202987459, "p_frcnn_r50_med": 0.939003586769104, "p_frcnn_mb_med": 0.0, "p_ssd_mb_med": 0.4473592936992645}}, {"type": "Feature", "geometry": {"type": "Polygon", "coordinates": [[[58.871265, 22.527717], [58.877407, 22.527717], [58.877407, 22.533568], [58.871265, 22.533568], [58.871265, 22.527717]]]}, "properties": {"chip_id": "S2B_MSIL2A_20250511T062629_R077_T40QGK_20250511T083545_0000", "month_key": "2025-05", "datetime": "2025-05-11 06:26:29.024000+00:00", "tile": "S2B_MSIL2A_20250511T062629_R077_T40QGK_20250511T083545_0000.jpg", "scene_id": "S2B_MSIL2A_20250511T062629_R077_T40QGK_20250511T083545", "hab_prob": 0.4498287895789355, "p_frcnn_r50_med": 0.887653112411499, "p_frcnn_mb_med": 0.0690179467201232, "p_ssd_mb_med": 0.4357935786247253}}, {"type": "Feature", "geometry": {"type": "Polygon", "coordinates": [[[58.871879, 22.528302], [58.876793, 22.528302], [58.876793, 22.532983], [58.871879, 22.532983], [58.871879, 22.528302]]]}, "properties": {"chip_id": "S2B_MSIL2A_20250511T062629_R077_T40QGK_20250511T083545_0001", "month_key": "2025-05", "datetime": "2025-05-11 06:26:29.024000+00:00", "tile": "S2B_MSIL2A_20250511T062629_R077_T40QGK_20250511T083545_0001.jpg", "scene_id": "S2B_MSIL2A_20250511T062629_R077_T40QGK_20250511T083545", "hab_prob": 0.4498287895789355, "p_frcnn_r50_med": 0.9099012613296508, "p_frcnn_mb_med": 0.055615659803152, "p_ssd_mb_med": 0.4331752061843872}}, {"type": "Feature", "geometry": {"type": "Polygon", "coordinates": [[[58.871265, 22.527717], [58.877407, 22.527717], [58.877407, 22.533568], [58.871265, 22.533568], [58.871265, 22.527717]]]}, "properties": {"chip_id": "S2A_MSIL2A_20250518T063321_R077_T40QGK_20250518T091616_0000", "month_key": "2025-05", "datetime": "2025-05-18 06:33:21.024000+00:00", "tile": "S2A_MSIL2A_20250518T063321_R077_T40QGK_20250518T091616_0000.jpg", "scene_id": "S2A_MSIL2A_20250518T063321_R077_T40QGK_20250518T091616", "hab_prob": 0.373153216953627, "p_frcnn_r50_med": 0.946460783481598, "p_frcnn_mb_med": 0.0921667143702507, "p_ssd_mb_med": 0.4651617407798767}}, {"type": "Feature", "geometry": {"type": "Polygon", "coordinates": [[[58.871879, 22.528302], [58.876793, 22.528302], [58.876793, 22.532983], [58.871879, 22.532983], [58.871879, 22.528302]]]}, "properties": {"chip_id": "S2A_MSIL2A_20250518T063321_R077_T40QGK_20250518T091616_0001", "month_key": "2025-05", "datetime": "2025-05-18 06:33:21.024000+00:00", "tile": "S2A_MSIL2A_20250518T063321_R077_T40QGK_20250518T091616_0001.jpg", "scene_id": "S2A_MSIL2A_20250518T063321_R077_T40QGK_20250518T091616", "hab_prob": 0.3769194941081318, "p_frcnn_r50_med": 0.95901358127594, "p_frcnn_mb_med": 0.0635871365666389, "p_ssd_mb_med": 0.4228036999702453}}, {"type": "Feature", "geometry": {"type": "Polygon", "coordinates": [[[58.871265, 22.527717], [58.877407, 22.527717], [58.877407, 22.533568], [58.871265, 22.533568], [58.871265, 22.527717]]]}, "properties": {"chip_id": "S2B_MSIL2A_20250531T062629_R077_T40QGK_20250531T083521_0000", "month_key": "2025-05", "datetime": "2025-05-31 06:26:29.024000+00:00", "tile": "S2B_MSIL2A_20250531T062629_R077_T40QGK_20250531T083521_0000.jpg", "scene_id": "S2B_MSIL2A_20250531T062629_R077_T40QGK_20250531T083521", "hab_prob": 0.2963029293439261, "p_frcnn_r50_med": 0.9229196906089784, "p_frcnn_mb_med": 0.0850559547543525, "p_ssd_mb_med": 0.414297878742218}}, {"type": "Feature", "geometry": {"type": "Polygon", "coordinates": [[[58.871879, 22.528302], [58.876793, 22.528302], [58.876793, 22.532983], [58.871879, 22.532983], [58.871879, 22.528302]]]}, "properties": {"chip_id": "S2B_MSIL2A_20250531T062629_R077_T40QGK_20250531T083521_0001", "month_key": "2025-05", "datetime": "2025-05-31 06:26:29.024000+00:00", "tile": "S2B_MSIL2A_20250531T062629_R077_T40QGK_20250531T083521_0001.jpg", "scene_id": "S2B_MSIL2A_20250531T062629_R077_T40QGK_20250531T083521", "hab_prob": 0.2963029293439261, "p_frcnn_r50_med": 0.9109039902687072, "p_frcnn_mb_med": 0.0930570811033248, "p_ssd_mb_med": 0.4090188145637512}}]}