{"type": "FeatureCollection", "features": [{"type": "Feature", "geometry": {"type": "Polygon", "coordinates": [[[58.871265, 22.527717], [58.877407, 22.527717], [58.877407, 22.533568], [58.871265, 22.533568], [58.871265, 22.527717]]]}, "properties": {"chip_id": "S2C_MSIL2A_20250605T062651_R077_T40QGK_20250605T094113_0000", "month_key": "2025-06", "datetime": "2025-06-05 06:26:51.025000+00:00", "tile": "S2C_MSIL2A_20250605T062651_R077_T40QGK_20250605T094113_0000.jpg", "scene_id": "S2C_MSIL2A_20250605T062651_R077_T40QGK_20250605T094113", "hab_prob": 0.3645525069548852, "p_frcnn_r50_med": 0.7948269248008728, "p_frcnn_mb_med": 0.0910094678401947, "p_ssd_mb_med": 0.4368436634540558}}, {"type": "Feature", "geometry": {"type": "Polygon", "coordinates": [[[58.871879, 22.528302], [58.876793, 22.528302], [58.876793, 22.532983], [58.871879, 22.532983], [58.871879, 22.528302]]]}, "properties": {"chip_id": "S2C_MSIL2A_20250605T062651_R077_T40QGK_20250605T094113_0001", "month_key": "2025-06", "datetime": "2025-06-05 06:26:51.025000+00:00", "tile": "S2C_MSIL2A_20250605T062651_R077_T40QGK_20250605T094113_0001.jpg", "scene_id": "S2C_MSIL2A_20250605T062651_R077_T40QGK_20250605T094113", "hab_prob": 0.3602296066110595, "p_frcnn_r50_med": 0.9346694946289062, "p_frcnn_mb_med": 0.1142672598361969, "p_ssd_mb_med": 0.4546109437942505}}, {"type": "Feature", "geometry": {"type": "Polygon", "coordinates": [[[58.871265, 22.527717], [58.877407, 22.527717], [58.877407, 22.533568], [58.871265, 22.533568], [58.871265, 22.527717]]]}, "properties": {"chip_id": "S2B_MSIL2A_20250610T062629_R077_T40QGK_20250610T083203_0000", "month_key": "2025-06", "datetime": "2025-06-10 06:26:29.024000+00:00", "tile": "S2B_MSIL2A_20250610T062629_R077_T40QGK_20250610T083203_0000.jpg", "scene_id": "S2B_MSIL2A_20250610T062629_R077_T40QGK_20250610T083203", "hab_prob": 0.2951325433060578, "p_frcnn_r50_med": 0.8537085652351379, "p_frcnn_mb_med": 0.1108602210879325, "p_ssd_mb_med": 0.4271253645420074}}, {"type": "Feature", "geometry": {"type": "Polygon", "coordinates": [[[58.871879, 22.528302], [58.876793, 22.528302], [58.876793, 22.532983], [58.871879, 22.532983], [58.871879, 22.528302]]]}, "properties": {"chip_id": "S2B_MSIL2A_20250610T062629_R077_T40QGK_20250610T083203_0001", "month_key": "2025-06", "datetime": "2025-06-10 06:26:29.024000+00:00", "tile": "S2B_MSIL2A_20250610T062629_R077_T40QGK_20250610T083203_0001.jpg", "scene_id": "S2B_MSIL2A_20250610T062629_R077_T40QGK_20250610T083203", "hab_prob": 0.3074010811967456, "p_frcnn_r50_med": 0.8665769696235657, "p_frcnn_mb_med": 0.0552668720483779, "p_ssd_mb_med": 0.4875082373619079}}, {"type": "Feature", "geometry": {"type": "Polygon", "coordinates": [[[58.871265, 22.527717], [58.877407, 22.527717], [58.877407, 22.533568], [58.871265, 22.533568], [58.871265, 22.527717]]]}, "properties": {"chip_id": "S2B_MSIL2A_20250620T062629_R077_T40QGK_20250620T083331_0000", "month_key": "2025-06", "datetime": "2025-06-20 06:26:29.024000+00:00", "tile": "S2B_MSIL2A_20250620T062629_R077_T40QGK_20250620T083331_0000.jpg", "scene_id": "S2B_MSIL2A_20250620T062629_R077_T40QGK_20250620T083331", "hab_prob": 0.2685939178730571, "p_frcnn_r50_med": 0.8861044049263, "p_frcnn_mb_med": 0.1442458480596542, "p_ssd_mb_med": 0.4158721566200256}}, {"type": "Feature", "geometry": {"type": "Polygon", "coordinates": [[[58.871879, 22.528302], [58.876793, 22.528302], [58.876793, 22.532983], [58.871879, 22.532983], [58.871879, 22.528302]]]}, "properties": {"chip_id": "S2B_MSIL2A_20250620T062629_R077_T40QGK_20250620T083331_0001", "month_key": "2025-06", "datetime": "2025-06-20 06:26:29.024000+00:00", "tile": "S2B_MSIL2A_20250620T062629_R077_T40QGK_20250620T083331_0001.jpg", "scene_id": "S2B_MSIL2A_20250620T062629_R077_T40QGK_20250620T083331", "hab_prob": 0.2830603104305667, "p_frcnn_r50_med": 0.9581359028816224, "p_frcnn_mb_med": 0.0, "p_ssd_mb_med": 0.3935078084468841}}, {"type": "Feature", "geometry": {"type": "Polygon", "coordinates": [[[58.871265, 22.527717], [58.877407, 22.527717], [58.877407, 22.533568], [58.871265, 22.533568], [58.871265, 22.527717]]]}, "properties": {"chip_id": "S2C_MSIL2A_20250625T062651_R077_T40QGK_20250625T104601_0000", "month_key": "2025-06", "datetime": "2025-06-25 06:26:51.025000+00:00", "tile": "S2C_MSIL2A_20250625T062651_R077_T40QGK_20250625T104601_0000.jpg", "scene_id": "S2C_MSIL2A_20250625T062651_R077_T40QGK_20250625T104601", "hab_prob": 0.2637939203771076, "p_frcnn_r50_med": 0.8805699944496155, "p_frcnn_mb_med": 0.117606796324253, "p_ssd_mb_med": 0.4576860666275024}}]}