{"type": "FeatureCollection", "features": [{"type": "Feature", "geometry": {"type": "Polygon", "coordinates": [[[58.871265, 22.527717], [58.877407, 22.527717], [58.877407, 22.533568], [58.871265, 22.533568], [58.871265, 22.527717]]]}, "properties": {"chip_id": "S2A_MSIL2A_20251104T063321_R077_T40QGK_20251104T090411_0000", "month_key": "2025-11", "datetime": "2025-11-04 06:33:21.024000+00:00", "tile": "S2A_MSIL2A_20251104T063321_R077_T40QGK_20251104T090411_0000.jpg", "scene_id": "S2A_MSIL2A_20251104T063321_R077_T40QGK_20251104T090411", "hab_prob": 0.302661152456949, "p_frcnn_r50_med": 0.96342533826828, "p_frcnn_mb_med": 0.1728585809469223, "p_ssd_mb_med": 0.4336745142936706}}, {"type": "Feature", "geometry": {"type": "Polygon", "coordinates": [[[58.871879, 22.528302], [58.876793, 22.528302], [58.876793, 22.532983], [58.871879, 22.532983], [58.871879, 22.528302]]]}, "properties": {"chip_id": "S2A_MSIL2A_20251104T063321_R077_T40QGK_20251104T090411_0001", "month_key": "2025-11", "datetime": "2025-11-04 06:33:21.024000+00:00", "tile": "S2A_MSIL2A_20251104T063321_R077_T40QGK_20251104T090411_0001.jpg", "scene_id": "S2A_MSIL2A_20251104T063321_R077_T40QGK_20251104T090411", "hab_prob": 0.3055860099178195, "p_frcnn_r50_med": 0.9176613688468932, "p_frcnn_mb_med": 0.0608741044998168, "p_ssd_mb_med": 0.4153761267662048}}, {"type": "Feature", "geometry": {"type": "Polygon", "coordinates": [[[58.871265, 22.527717], [58.877407, 22.527717], [58.877407, 22.533568], [58.871265, 22.533568], [58.871265, 22.527717]]]}, "properties": {"chip_id": "S2C_MSIL2A_20251112T063131_R077_T40QGK_20251112T092007_0000", "month_key": "2025-11", "datetime": "2025-11-12 06:31:31.025000+00:00", "tile": "S2C_MSIL2A_20251112T063131_R077_T40QGK_20251112T092007_0000.jpg", "scene_id": "S2C_MSIL2A_20251112T063131_R077_T40QGK_20251112T092007", "hab_prob": 0.2845575498320911, "p_frcnn_r50_med": 0.9059452414512634, "p_frcnn_mb_med": 0.1491384357213974, "p_ssd_mb_med": 0.4287739992141723}}, {"type": "Feature", "geometry": {"type": "Polygon", "coordinates": [[[58.871879, 22.528302], [58.876793, 22.528302], [58.876793, 22.532983], [58.871879, 22.532983], [58.871879, 22.528302]]]}, "properties": {"chip_id": "S2C_MSIL2A_20251112T063131_R077_T40QGK_20251112T092007_0001", "month_key": "2025-11", "datetime": "2025-11-12 06:31:31.025000+00:00", "tile": "S2C_MSIL2A_20251112T063131_R077_T40QGK_20251112T092007_0001.jpg", "scene_id": "S2C_MSIL2A_20251112T063131_R077_T40QGK_20251112T092007", "hab_prob": 0.2833767352253477, "p_frcnn_r50_med": 0.9254012703895568, "p_frcnn_mb_med": 0.0729935243725776, "p_ssd_mb_med": 0.4440456032752991}}, {"type": "Feature", "geometry": {"type": "Polygon", "coordinates": [[[58.871265, 22.527717], [58.877407, 22.527717], [58.877407, 22.533568], [58.871265, 22.533568], [58.871265, 22.527717]]]}, "properties": {"chip_id": "S2C_MSIL2A_20251122T063211_R077_T40QGK_20251122T090818_0000", "month_key": "2025-11", "datetime": "2025-11-22 06:32:11.025000+00:00", "tile": "S2C_MSIL2A_20251122T063211_R077_T40QGK_20251122T090818_0000.jpg", "scene_id": "S2C_MSIL2A_20251122T063211_R077_T40QGK_20251122T090818", "hab_prob": 0.2650008031967877, "p_frcnn_r50_med": 0.8756307363510132, "p_frcnn_mb_med": 0.1004711762070655, "p_ssd_mb_med": 0.4357031285762787}}, {"type": "Feature", "geometry": {"type": "Polygon", "coordinates": [[[58.871879, 22.528302], [58.876793, 22.528302], [58.876793, 22.532983], [58.871879, 22.532983], [58.871879, 22.528302]]]}, "properties": {"chip_id": "S2C_MSIL2A_20251122T063211_R077_T40QGK_20251122T090818_0001", "month_key": "2025-11", "datetime": "2025-11-22 06:32:11.025000+00:00", "tile": "S2C_MSIL2A_20251122T063211_R077_T40QGK_20251122T090818_0001.jpg", "scene_id": "S2C_MSIL2A_20251122T063211_R077_T40QGK_20251122T090818", "hab_prob": 0.263871210973385, "p_frcnn_r50_med": 0.9376713633537292, "p_frcnn_mb_med": 0.0, "p_ssd_mb_med": 0.4554232954978943}}, {"type": "Feature", "geometry": {"type": "Polygon", "coordinates": [[[58.871265, 22.527717], [58.877407, 22.527717], [58.877407, 22.533568], [58.871265, 22.533568], [58.871265, 22.527717]]]}, "properties": {"chip_id": "S2B_MSIL2A_20251127T063119_R077_T40QGK_20251127T071948_0000", "month_key": "2025-11", "datetime": "2025-11-27 06:31:19.025000+00:00", "tile": "S2B_MSIL2A_20251127T063119_R077_T40QGK_20251127T071948_0000.jpg", "scene_id": "S2B_MSIL2A_20251127T063119_R077_T40QGK_20251127T071948", "hab_prob": 0.2522939236559069, "p_frcnn_r50_med": 0.8573486804962158, "p_frcnn_mb_med": 0.1211552545428276, "p_ssd_mb_med": 0.4332509040832519}}, {"type": "Feature", "geometry": {"type": "Polygon", "coordinates": [[[58.871879, 22.528302], [58.876793, 22.528302], [58.876793, 22.532983], [58.871879, 22.532983], [58.871879, 22.528302]]]}, "properties": {"chip_id": "S2B_MSIL2A_20251127T063119_R077_T40QGK_20251127T071948_0001", "month_key": "2025-11", "datetime": "2025-11-27 06:31:19.025000+00:00", "tile": "S2B_MSIL2A_20251127T063119_R077_T40QGK_20251127T071948_0001.jpg", "scene_id": "S2B_MSIL2A_20251127T063119_R077_T40QGK_20251127T071948", "hab_prob": 0.2511999840737672, "p_frcnn_r50_med": 0.8786988258361816, "p_frcnn_mb_med": 0.0564087741076946, "p_ssd_mb_med": 0.4395650327205658}}]}