{"type": "FeatureCollection", "features": [{"type": "Feature", "geometry": {"type": "Polygon", "coordinates": [[[58.871265, 22.527717], [58.877407, 22.527717], [58.877407, 22.533568], [58.871265, 22.533568], [58.871265, 22.527717]]]}, "properties": {"chip_id": "S2C_MSIL2A_20250205T063111_R077_T40QGK_20250205T094513_0000", "month_key": "2025-02", "datetime": "2025-02-05 06:31:11.025000+00:00", "tile": "S2C_MSIL2A_20250205T063111_R077_T40QGK_20250205T094513_0000.jpg", "scene_id": "S2C_MSIL2A_20250205T063111_R077_T40QGK_20250205T094513", "hab_prob": 0.3265033674287115, "p_frcnn_r50_med": 0.8471966981887817, "p_frcnn_mb_med": 0.1070829480886459, "p_ssd_mb_med": 0.4216424822807312}}, {"type": "Feature", "geometry": {"type": "Polygon", "coordinates": [[[58.871879, 22.528302], [58.876793, 22.528302], [58.876793, 22.532983], [58.871879, 22.532983], [58.871879, 22.528302]]]}, "properties": {"chip_id": "S2C_MSIL2A_20250205T063111_R077_T40QGK_20250205T094513_0001", "month_key": "2025-02", "datetime": "2025-02-05 06:31:11.025000+00:00", "tile": "S2C_MSIL2A_20250205T063111_R077_T40QGK_20250205T094513_0001.jpg", "scene_id": "S2C_MSIL2A_20250205T063111_R077_T40QGK_20250205T094513", "hab_prob": 0.3254293450026073, "p_frcnn_r50_med": 0.934115469455719, "p_frcnn_mb_med": 0.0996546074748039, "p_ssd_mb_med": 0.4103133082389831}}, {"type": "Feature", "geometry": {"type": "Polygon", "coordinates": [[[58.871265, 22.527717], [58.877407, 22.527717], [58.877407, 22.533568], [58.871265, 22.533568], [58.871265, 22.527717]]]}, "properties": {"chip_id": "S2B_MSIL2A_20250210T062919_R077_T40QGK_20250210T081854_0000", "month_key": "2025-02", "datetime": "2025-02-10 06:29:19.024000+00:00", "tile": "S2B_MSIL2A_20250210T062919_R077_T40QGK_20250210T081854_0000.jpg", "scene_id": "S2B_MSIL2A_20250210T062919_R077_T40QGK_20250210T081854", "hab_prob": 0.5775613714150694, "p_frcnn_r50_med": 0.9575968980789183, "p_frcnn_mb_med": 0.1154720336198806, "p_ssd_mb_med": 0.411196619272232}}, {"type": "Feature", "geometry": {"type": "Polygon", "coordinates": [[[58.871879, 22.528302], [58.876793, 22.528302], [58.876793, 22.532983], [58.871879, 22.532983], [58.871879, 22.528302]]]}, "properties": {"chip_id": "S2B_MSIL2A_20250210T062919_R077_T40QGK_20250210T081854_0001", "month_key": "2025-02", "datetime": "2025-02-10 06:29:19.024000+00:00", "tile": "S2B_MSIL2A_20250210T062919_R077_T40QGK_20250210T081854_0001.jpg", "scene_id": "S2B_MSIL2A_20250210T062919_R077_T40QGK_20250210T081854", "hab_prob": 0.5722150358090142, "p_frcnn_r50_med": 0.952341854572296, "p_frcnn_mb_med": 0.0569140426814556, "p_ssd_mb_med": 0.4616081714630127}}, {"type": "Feature", "geometry": {"type": "Polygon", "coordinates": [[[58.871265, 22.527717], [58.877407, 22.527717], [58.877407, 22.533568], [58.871265, 22.533568], [58.871265, 22.527717]]]}, "properties": {"chip_id": "S2B_MSIL2A_20250220T062819_R077_T40QGK_20250220T083409_0000", "month_key": "2025-02", "datetime": "2025-02-20 06:28:19.024000+00:00", "tile": "S2B_MSIL2A_20250220T062819_R077_T40QGK_20250220T083409_0000.jpg", "scene_id": "S2B_MSIL2A_20250220T062819_R077_T40QGK_20250220T083409", "hab_prob": 0.2507837583886653, "p_frcnn_r50_med": 0.9148851037025452, "p_frcnn_mb_med": 0.1126502379775047, "p_ssd_mb_med": 0.4565862417221069}}, {"type": "Feature", "geometry": {"type": "Polygon", "coordinates": [[[58.871879, 22.528302], [58.876793, 22.528302], [58.876793, 22.532983], [58.871879, 22.532983], [58.871879, 22.528302]]]}, "properties": {"chip_id": "S2B_MSIL2A_20250220T062819_R077_T40QGK_20250220T083409_0001", "month_key": "2025-02", "datetime": "2025-02-20 06:28:19.024000+00:00", "tile": "S2B_MSIL2A_20250220T062819_R077_T40QGK_20250220T083409_0001.jpg", "scene_id": "S2B_MSIL2A_20250220T062819_R077_T40QGK_20250220T083409", "hab_prob": 0.2507837583886653, "p_frcnn_r50_med": 0.8793891072273254, "p_frcnn_mb_med": 0.1015729084610939, "p_ssd_mb_med": 0.4219460189342499}}, {"type": "Feature", "geometry": {"type": "Polygon", "coordinates": [[[58.871265, 22.527717], [58.877407, 22.527717], [58.877407, 22.533568], [58.871265, 22.533568], [58.871265, 22.527717]]]}, "properties": {"chip_id": "S2C_MSIL2A_20250225T062901_R077_T40QGK_20250225T092708_0000", "month_key": "2025-02", "datetime": "2025-02-25 06:29:01.025000+00:00", "tile": "S2C_MSIL2A_20250225T062901_R077_T40QGK_20250225T092708_0000.jpg", "scene_id": "S2C_MSIL2A_20250225T062901_R077_T40QGK_20250225T092708", "hab_prob": 0.2973541331737596, "p_frcnn_r50_med": 0.9383985996246338, "p_frcnn_mb_med": 0.1110535711050033, "p_ssd_mb_med": 0.4610834419727325}}, {"type": "Feature", "geometry": {"type": "Polygon", "coordinates": [[[58.871879, 22.528302], [58.876793, 22.528302], [58.876793, 22.532983], [58.871879, 22.532983], [58.871879, 22.528302]]]}, "properties": {"chip_id": "S2C_MSIL2A_20250225T062901_R077_T40QGK_20250225T092708_0001", "month_key": "2025-02", "datetime": "2025-02-25 06:29:01.025000+00:00", "tile": "S2C_MSIL2A_20250225T062901_R077_T40QGK_20250225T092708_0001.jpg", "scene_id": "S2C_MSIL2A_20250225T062901_R077_T40QGK_20250225T092708", "hab_prob": 0.3007223847963796, "p_frcnn_r50_med": 0.9476444125175476, "p_frcnn_mb_med": 0.1477709412574768, "p_ssd_mb_med": 0.4459902942180633}}]}