{"type": "FeatureCollection", "features": [{"type": "Feature", "geometry": {"type": "Polygon", "coordinates": [[[58.871265, 22.527717], [58.877407, 22.527717], [58.877407, 22.533568], [58.871265, 22.533568], [58.871265, 22.527717]]]}, "properties": {"chip_id": "S2C_MSIL2A_20250307T062751_R077_T40QGK_20250307T094002_0000", "month_key": "2025-03", "datetime": "2025-03-07 06:27:51.025000+00:00", "tile": "S2C_MSIL2A_20250307T062751_R077_T40QGK_20250307T094002_0000.jpg", "scene_id": "S2C_MSIL2A_20250307T062751_R077_T40QGK_20250307T094002", "hab_prob": 0.2255147891135993, "p_frcnn_r50_med": 0.9441328644752502, "p_frcnn_mb_med": 0.0, "p_ssd_mb_med": 0.4380136132240295}}, {"type": "Feature", "geometry": {"type": "Polygon", "coordinates": [[[58.871879, 22.528302], [58.876793, 22.528302], [58.876793, 22.532983], [58.871879, 22.532983], [58.871879, 22.528302]]]}, "properties": {"chip_id": "S2C_MSIL2A_20250307T062751_R077_T40QGK_20250307T094002_0001", "month_key": "2025-03", "datetime": "2025-03-07 06:27:51.025000+00:00", "tile": "S2C_MSIL2A_20250307T062751_R077_T40QGK_20250307T094002_0001.jpg", "scene_id": "S2C_MSIL2A_20250307T062751_R077_T40QGK_20250307T094002", "hab_prob": 0.2255147891135993, "p_frcnn_r50_med": 0.9319271445274352, "p_frcnn_mb_med": 0.0781179890036583, "p_ssd_mb_med": 0.4221744537353515}}, {"type": "Feature", "geometry": {"type": "Polygon", "coordinates": [[[58.871265, 22.527717], [58.877407, 22.527717], [58.877407, 22.533568], [58.871265, 22.533568], [58.871265, 22.527717]]]}, "properties": {"chip_id": "S2B_MSIL2A_20250312T062629_R077_T40QGK_20250312T083652_0000", "month_key": "2025-03", "datetime": "2025-03-12 06:26:29.024000+00:00", "tile": "S2B_MSIL2A_20250312T062629_R077_T40QGK_20250312T083652_0000.jpg", "scene_id": "S2B_MSIL2A_20250312T062629_R077_T40QGK_20250312T083652", "hab_prob": 0.2027750436668755, "p_frcnn_r50_med": 0.850483238697052, "p_frcnn_mb_med": 0.115440621972084, "p_ssd_mb_med": 0.4068014323711395}}, {"type": "Feature", "geometry": {"type": "Polygon", "coordinates": [[[58.871879, 22.528302], [58.876793, 22.528302], [58.876793, 22.532983], [58.871879, 22.532983], [58.871879, 22.528302]]]}, "properties": {"chip_id": "S2B_MSIL2A_20250312T062629_R077_T40QGK_20250312T083652_0001", "month_key": "2025-03", "datetime": "2025-03-12 06:26:29.024000+00:00", "tile": "S2B_MSIL2A_20250312T062629_R077_T40QGK_20250312T083652_0001.jpg", "scene_id": "S2B_MSIL2A_20250312T062629_R077_T40QGK_20250312T083652", "hab_prob": 0.2042228371752003, "p_frcnn_r50_med": 0.927296221256256, "p_frcnn_mb_med": 0.0853009223937988, "p_ssd_mb_med": 0.4526464939117431}}, {"type": "Feature", "geometry": {"type": "Polygon", "coordinates": [[[58.871265, 22.527717], [58.877407, 22.527717], [58.877407, 22.533568], [58.871265, 22.533568], [58.871265, 22.527717]]]}, "properties": {"chip_id": "S2B_MSIL2A_20250322T062629_R077_T40QGK_20250322T083211_0000", "month_key": "2025-03", "datetime": "2025-03-22 06:26:29.024000+00:00", "tile": "S2B_MSIL2A_20250322T062629_R077_T40QGK_20250322T083211_0000.jpg", "scene_id": "S2B_MSIL2A_20250322T062629_R077_T40QGK_20250322T083211", "hab_prob": 0.2235049829119841, "p_frcnn_r50_med": 0.9269243478775024, "p_frcnn_mb_med": 0.0802004486322403, "p_ssd_mb_med": 0.4436391592025757}}, {"type": "Feature", "geometry": {"type": "Polygon", "coordinates": [[[58.871879, 22.528302], [58.876793, 22.528302], [58.876793, 22.532983], [58.871879, 22.532983], [58.871879, 22.528302]]]}, "properties": {"chip_id": "S2B_MSIL2A_20250322T062629_R077_T40QGK_20250322T083211_0001", "month_key": "2025-03", "datetime": "2025-03-22 06:26:29.024000+00:00", "tile": "S2B_MSIL2A_20250322T062629_R077_T40QGK_20250322T083211_0001.jpg", "scene_id": "S2B_MSIL2A_20250322T062629_R077_T40QGK_20250322T083211", "hab_prob": 0.2235049829119841, "p_frcnn_r50_med": 0.9357963800430298, "p_frcnn_mb_med": 0.0623064450919628, "p_ssd_mb_med": 0.4413478076457977}}, {"type": "Feature", "geometry": {"type": "Polygon", "coordinates": [[[58.871265, 22.527717], [58.877407, 22.527717], [58.877407, 22.533568], [58.871265, 22.533568], [58.871265, 22.527717]]]}, "properties": {"chip_id": "S2C_MSIL2A_20250327T062651_R077_T40QGK_20250327T115859_0000", "month_key": "2025-03", "datetime": "2025-03-27 06:26:51.024000+00:00", "tile": "S2C_MSIL2A_20250327T062651_R077_T40QGK_20250327T115859_0000.jpg", "scene_id": "S2C_MSIL2A_20250327T062651_R077_T40QGK_20250327T115859", "hab_prob": 0.224514476869769, "p_frcnn_r50_med": 0.9526640176773072, "p_frcnn_mb_med": 0.0980803966522216, "p_ssd_mb_med": 0.4255454242229461}}, {"type": "Feature", "geometry": {"type": "Polygon", "coordinates": [[[58.871879, 22.528302], [58.876793, 22.528302], [58.876793, 22.532983], [58.871879, 22.532983], [58.871879, 22.528302]]]}, "properties": {"chip_id": "S2C_MSIL2A_20250327T062651_R077_T40QGK_20250327T115859_0001", "month_key": "2025-03", "datetime": "2025-03-27 06:26:51.024000+00:00", "tile": "S2C_MSIL2A_20250327T062651_R077_T40QGK_20250327T115859_0001.jpg", "scene_id": "S2C_MSIL2A_20250327T062651_R077_T40QGK_20250327T115859", "hab_prob": 0.2338423815535781, "p_frcnn_r50_med": 0.9512033462524414, "p_frcnn_mb_med": 0.0823353454470634, "p_ssd_mb_med": 0.3836084902286529}}]}