{"type": "FeatureCollection", "features": [{"type": "Feature", "geometry": {"type": "Polygon", "coordinates": [[[58.871265, 22.527717], [58.877407, 22.527717], [58.877407, 22.533568], [58.871265, 22.533568], [58.871265, 22.527717]]]}, "properties": {"chip_id": "S2C_MSIL2A_20251003T062731_R077_T40QGK_20251003T094319_0000", "month_key": "2025-10", "datetime": "2025-10-03 06:27:31.025000+00:00", "tile": "S2C_MSIL2A_20251003T062731_R077_T40QGK_20251003T094319_0000.jpg", "scene_id": "S2C_MSIL2A_20251003T062731_R077_T40QGK_20251003T094319", "hab_prob": 0.3154288788224817, "p_frcnn_r50_med": 0.9043279886245728, "p_frcnn_mb_med": 0.2003616243600845, "p_ssd_mb_med": 0.4406409859657287}}, {"type": "Feature", "geometry": {"type": "Polygon", "coordinates": [[[58.871879, 22.528302], [58.876793, 22.528302], [58.876793, 22.532983], [58.871879, 22.532983], [58.871879, 22.528302]]]}, "properties": {"chip_id": "S2C_MSIL2A_20251003T062731_R077_T40QGK_20251003T094319_0001", "month_key": "2025-10", "datetime": "2025-10-03 06:27:31.025000+00:00", "tile": "S2C_MSIL2A_20251003T062731_R077_T40QGK_20251003T094319_0001.jpg", "scene_id": "S2C_MSIL2A_20251003T062731_R077_T40QGK_20251003T094319", "hab_prob": 0.3184207807660771, "p_frcnn_r50_med": 0.9086670279502868, "p_frcnn_mb_med": 0.058345790952444, "p_ssd_mb_med": 0.4260827898979187}}, {"type": "Feature", "geometry": {"type": "Polygon", "coordinates": [[[58.871265, 22.527717], [58.877407, 22.527717], [58.877407, 22.533568], [58.871265, 22.533568], [58.871265, 22.527717]]]}, "properties": {"chip_id": "S2C_MSIL2A_20251013T062831_R077_T40QGK_20251013T100920_0000", "month_key": "2025-10", "datetime": "2025-10-13 06:28:31.024000+00:00", "tile": "S2C_MSIL2A_20251013T062831_R077_T40QGK_20251013T100920_0000.jpg", "scene_id": "S2C_MSIL2A_20251013T062831_R077_T40QGK_20251013T100920", "hab_prob": 0.2260478999461146, "p_frcnn_r50_med": 0.926514208316803, "p_frcnn_mb_med": 0.0838202387094497, "p_ssd_mb_med": 0.4459023475646972}}, {"type": "Feature", "geometry": {"type": "Polygon", "coordinates": [[[58.871879, 22.528302], [58.876793, 22.528302], [58.876793, 22.532983], [58.871879, 22.532983], [58.871879, 22.528302]]]}, "properties": {"chip_id": "S2C_MSIL2A_20251013T062831_R077_T40QGK_20251013T100920_0001", "month_key": "2025-10", "datetime": "2025-10-13 06:28:31.024000+00:00", "tile": "S2C_MSIL2A_20251013T062831_R077_T40QGK_20251013T100920_0001.jpg", "scene_id": "S2C_MSIL2A_20251013T062831_R077_T40QGK_20251013T100920", "hab_prob": 0.2260478999461146, "p_frcnn_r50_med": 0.9279999136924744, "p_frcnn_mb_med": 0.0706604197621345, "p_ssd_mb_med": 0.4413408041000366}}, {"type": "Feature", "geometry": {"type": "Polygon", "coordinates": [[[58.871265, 22.527717], [58.877407, 22.527717], [58.877407, 22.533568], [58.871265, 22.533568], [58.871265, 22.527717]]]}, "properties": {"chip_id": "S2B_MSIL2A_20251018T062759_R077_T40QGK_20251018T082231_0000", "month_key": "2025-10", "datetime": "2025-10-18 06:27:59.024000+00:00", "tile": "S2B_MSIL2A_20251018T062759_R077_T40QGK_20251018T082231_0000.jpg", "scene_id": "S2B_MSIL2A_20251018T062759_R077_T40QGK_20251018T082231", "hab_prob": 0.2207742199551649, "p_frcnn_r50_med": 0.8945609927177429, "p_frcnn_mb_med": 0.0919543430209159, "p_ssd_mb_med": 0.4203098714351654}}, {"type": "Feature", "geometry": {"type": "Polygon", "coordinates": [[[58.871879, 22.528302], [58.876793, 22.528302], [58.876793, 22.532983], [58.871879, 22.532983], [58.871879, 22.528302]]]}, "properties": {"chip_id": "S2B_MSIL2A_20251018T062759_R077_T40QGK_20251018T082231_0001", "month_key": "2025-10", "datetime": "2025-10-18 06:27:59.024000+00:00", "tile": "S2B_MSIL2A_20251018T062759_R077_T40QGK_20251018T082231_0001.jpg", "scene_id": "S2B_MSIL2A_20251018T062759_R077_T40QGK_20251018T082231", "hab_prob": 0.2269479741430335, "p_frcnn_r50_med": 0.9573375582695008, "p_frcnn_mb_med": 0.135892778635025, "p_ssd_mb_med": 0.4699265956878662}}, {"type": "Feature", "geometry": {"type": "Polygon", "coordinates": [[[58.871265, 22.527717], [58.877407, 22.527717], [58.877407, 22.533568], [58.871265, 22.533568], [58.871265, 22.527717]]]}, "properties": {"chip_id": "S2B_MSIL2A_20251028T062859_R077_T40QGK_20251028T083228_0000", "month_key": "2025-10", "datetime": "2025-10-28 06:28:59.024000+00:00", "tile": "S2B_MSIL2A_20251028T062859_R077_T40QGK_20251028T083228_0000.jpg", "scene_id": "S2B_MSIL2A_20251028T062859_R077_T40QGK_20251028T083228", "hab_prob": 0.249947854157899, "p_frcnn_r50_med": 0.8566890358924866, "p_frcnn_mb_med": 0.1415762901306152, "p_ssd_mb_med": 0.4597940444946289}}, {"type": "Feature", "geometry": {"type": "Polygon", "coordinates": [[[58.871879, 22.528302], [58.876793, 22.528302], [58.876793, 22.532983], [58.871879, 22.532983], [58.871879, 22.528302]]]}, "properties": {"chip_id": "S2B_MSIL2A_20251028T062859_R077_T40QGK_20251028T083228_0001", "month_key": "2025-10", "datetime": "2025-10-28 06:28:59.024000+00:00", "tile": "S2B_MSIL2A_20251028T062859_R077_T40QGK_20251028T083228_0001.jpg", "scene_id": "S2B_MSIL2A_20251028T062859_R077_T40QGK_20251028T083228", "hab_prob": 0.2555931222208865, "p_frcnn_r50_med": 0.9377126693725586, "p_frcnn_mb_med": 0.0837588831782341, "p_ssd_mb_med": 0.4510174989700317}}]}