{"type": "FeatureCollection", "features": [{"type": "Feature", "geometry": {"type": "Polygon", "coordinates": [[[58.871265, 22.527717], [58.877407, 22.527717], [58.877407, 22.533568], [58.871265, 22.533568], [58.871265, 22.527717]]]}, "properties": {"chip_id": "S2B_MSIL2A_20250710T062629_R077_T40QGK_20250710T085914_0000", "month_key": "2025-07", "datetime": "2025-07-10 06:26:29.024000+00:00", "tile": "S2B_MSIL2A_20250710T062629_R077_T40QGK_20250710T085914_0000.jpg", "scene_id": "S2B_MSIL2A_20250710T062629_R077_T40QGK_20250710T085914", "hab_prob": 0.4799675835231959, "p_frcnn_r50_med": 0.8712494969367981, "p_frcnn_mb_med": 0.0, "p_ssd_mb_med": 0.4539051651954651}}, {"type": "Feature", "geometry": {"type": "Polygon", "coordinates": [[[58.871879, 22.528302], [58.876793, 22.528302], [58.876793, 22.532983], [58.871879, 22.532983], [58.871879, 22.528302]]]}, "properties": {"chip_id": "S2B_MSIL2A_20250710T062629_R077_T40QGK_20250710T085914_0001", "month_key": "2025-07", "datetime": "2025-07-10 06:26:29.024000+00:00", "tile": "S2B_MSIL2A_20250710T062629_R077_T40QGK_20250710T085914_0001.jpg", "scene_id": "S2B_MSIL2A_20250710T062629_R077_T40QGK_20250710T085914", "hab_prob": 0.4946110395588581, "p_frcnn_r50_med": 0.8994821310043335, "p_frcnn_mb_med": 0.0721718892455101, "p_ssd_mb_med": 0.3975476622581482}}, {"type": "Feature", "geometry": {"type": "Polygon", "coordinates": [[[58.871265, 22.527717], [58.877407, 22.527717], [58.877407, 22.533568], [58.871265, 22.533568], [58.871265, 22.527717]]]}, "properties": {"chip_id": "S2A_MSIL2A_20250717T063331_R077_T40QGK_20250717T091809_0000", "month_key": "2025-07", "datetime": "2025-07-17 06:33:31.024000+00:00", "tile": "S2A_MSIL2A_20250717T063331_R077_T40QGK_20250717T091809_0000.jpg", "scene_id": "S2A_MSIL2A_20250717T063331_R077_T40QGK_20250717T091809", "hab_prob": 0.3074327955554858, "p_frcnn_r50_med": 0.922185242176056, "p_frcnn_mb_med": 0.1089429706335067, "p_ssd_mb_med": 0.4457511305809021}}, {"type": "Feature", "geometry": {"type": "Polygon", "coordinates": [[[58.871879, 22.528302], [58.876793, 22.528302], [58.876793, 22.532983], [58.871879, 22.532983], [58.871879, 22.528302]]]}, "properties": {"chip_id": "S2A_MSIL2A_20250717T063331_R077_T40QGK_20250717T091809_0001", "month_key": "2025-07", "datetime": "2025-07-17 06:33:31.024000+00:00", "tile": "S2A_MSIL2A_20250717T063331_R077_T40QGK_20250717T091809_0001.jpg", "scene_id": "S2A_MSIL2A_20250717T063331_R077_T40QGK_20250717T091809", "hab_prob": 0.3145874835491601, "p_frcnn_r50_med": 0.947271466255188, "p_frcnn_mb_med": 0.105516217648983, "p_ssd_mb_med": 0.4614126086235046}}, {"type": "Feature", "geometry": {"type": "Polygon", "coordinates": [[[58.871265, 22.527717], [58.877407, 22.527717], [58.877407, 22.533568], [58.871265, 22.533568], [58.871265, 22.527717]]]}, "properties": {"chip_id": "S2B_MSIL2A_20250730T062629_R077_T40QGK_20250730T083814_0000", "month_key": "2025-07", "datetime": "2025-07-30 06:26:29.024000+00:00", "tile": "S2B_MSIL2A_20250730T062629_R077_T40QGK_20250730T083814_0000.jpg", "scene_id": "S2B_MSIL2A_20250730T062629_R077_T40QGK_20250730T083814", "hab_prob": 0.4244724066345374, "p_frcnn_r50_med": 0.94713032245636, "p_frcnn_mb_med": 0.0665594413876533, "p_ssd_mb_med": 0.4224099218845367}}, {"type": "Feature", "geometry": {"type": "Polygon", "coordinates": [[[58.871879, 22.528302], [58.876793, 22.528302], [58.876793, 22.532983], [58.871879, 22.532983], [58.871879, 22.528302]]]}, "properties": {"chip_id": "S2B_MSIL2A_20250730T062629_R077_T40QGK_20250730T083814_0001", "month_key": "2025-07", "datetime": "2025-07-30 06:26:29.024000+00:00", "tile": "S2B_MSIL2A_20250730T062629_R077_T40QGK_20250730T083814_0001.jpg", "scene_id": "S2B_MSIL2A_20250730T062629_R077_T40QGK_20250730T083814", "hab_prob": 0.4244724066345374, "p_frcnn_r50_med": 0.9328226447105408, "p_frcnn_mb_med": 0.0, "p_ssd_mb_med": 0.4090187847614288}}]}