{"type": "FeatureCollection", "features": [{"type": "Feature", "geometry": {"type": "Polygon", "coordinates": [[[58.871265, 22.527717], [58.877407, 22.527717], [58.877407, 22.533568], [58.871265, 22.533568], [58.871265, 22.527717]]]}, "properties": {"chip_id": "S2C_MSIL2A_20250903T062651_R077_T40QGK_20250903T094400_0000", "month_key": "2025-09", "datetime": "2025-09-03 06:26:51.025000+00:00", "tile": "S2C_MSIL2A_20250903T062651_R077_T40QGK_20250903T094400_0000.jpg", "scene_id": "S2C_MSIL2A_20250903T062651_R077_T40QGK_20250903T094400", "hab_prob": 0.4357006478437568, "p_frcnn_r50_med": 0.9663296341896056, "p_frcnn_mb_med": 0.1011245250701904, "p_ssd_mb_med": 0.4236226081848144}}, {"type": "Feature", "geometry": {"type": "Polygon", "coordinates": [[[58.871879, 22.528302], [58.876793, 22.528302], [58.876793, 22.532983], [58.871879, 22.532983], [58.871879, 22.528302]]]}, "properties": {"chip_id": "S2C_MSIL2A_20250903T062651_R077_T40QGK_20250903T094400_0001", "month_key": "2025-09", "datetime": "2025-09-03 06:26:51.025000+00:00", "tile": "S2C_MSIL2A_20250903T062651_R077_T40QGK_20250903T094400_0001.jpg", "scene_id": "S2C_MSIL2A_20250903T062651_R077_T40QGK_20250903T094400", "hab_prob": 0.4357006478437568, "p_frcnn_r50_med": 0.9706211686134338, "p_frcnn_mb_med": 0.1000992208719253, "p_ssd_mb_med": 0.4094462692737579}}, {"type": "Feature", "geometry": {"type": "Polygon", "coordinates": [[[58.871265, 22.527717], [58.877407, 22.527717], [58.877407, 22.533568], [58.871265, 22.533568], [58.871265, 22.527717]]]}, "properties": {"chip_id": "S2A_MSIL2A_20250915T063321_R077_T40QGK_20250915T091514_0000", "month_key": "2025-09", "datetime": "2025-09-15 06:33:21.024000+00:00", "tile": "S2A_MSIL2A_20250915T063321_R077_T40QGK_20250915T091514_0000.jpg", "scene_id": "S2A_MSIL2A_20250915T063321_R077_T40QGK_20250915T091514", "hab_prob": 0.3048252843022686, "p_frcnn_r50_med": 0.8647192120552063, "p_frcnn_mb_med": 0.0808173418045044, "p_ssd_mb_med": 0.4090042114257812}}, {"type": "Feature", "geometry": {"type": "Polygon", "coordinates": [[[58.871879, 22.528302], [58.876793, 22.528302], [58.876793, 22.532983], [58.871879, 22.532983], [58.871879, 22.528302]]]}, "properties": {"chip_id": "S2A_MSIL2A_20250915T063321_R077_T40QGK_20250915T091514_0001", "month_key": "2025-09", "datetime": "2025-09-15 06:33:21.024000+00:00", "tile": "S2A_MSIL2A_20250915T063321_R077_T40QGK_20250915T091514_0001.jpg", "scene_id": "S2A_MSIL2A_20250915T063321_R077_T40QGK_20250915T091514", "hab_prob": 0.3019045424202927, "p_frcnn_r50_med": 0.9020012617111206, "p_frcnn_mb_med": 0.1061317548155784, "p_ssd_mb_med": 0.4374656081199646}}, {"type": "Feature", "geometry": {"type": "Polygon", "coordinates": [[[58.871265, 22.527717], [58.877407, 22.527717], [58.877407, 22.533568], [58.871265, 22.533568], [58.871265, 22.527717]]]}, "properties": {"chip_id": "S2B_MSIL2A_20250918T062629_R077_T40QGK_20250918T084507_0000", "month_key": "2025-09", "datetime": "2025-09-18 06:26:29.024000+00:00", "tile": "S2B_MSIL2A_20250918T062629_R077_T40QGK_20250918T084507_0000.jpg", "scene_id": "S2B_MSIL2A_20250918T062629_R077_T40QGK_20250918T084507", "hab_prob": 0.3116999587644943, "p_frcnn_r50_med": 0.9524298906326294, "p_frcnn_mb_med": 0.0926001742482185, "p_ssd_mb_med": 0.4290984272956848}}, {"type": "Feature", "geometry": {"type": "Polygon", "coordinates": [[[58.871879, 22.528302], [58.876793, 22.528302], [58.876793, 22.532983], [58.871879, 22.532983], [58.871879, 22.528302]]]}, "properties": {"chip_id": "S2B_MSIL2A_20250918T062629_R077_T40QGK_20250918T084507_0001", "month_key": "2025-09", "datetime": "2025-09-18 06:26:29.024000+00:00", "tile": "S2B_MSIL2A_20250918T062629_R077_T40QGK_20250918T084507_0001.jpg", "scene_id": "S2B_MSIL2A_20250918T062629_R077_T40QGK_20250918T084507", "hab_prob": 0.3116999587644943, "p_frcnn_r50_med": 0.939685583114624, "p_frcnn_mb_med": 0.0940965935587883, "p_ssd_mb_med": 0.4452888965606689}}, {"type": "Feature", "geometry": {"type": "Polygon", "coordinates": [[[58.871265, 22.527717], [58.877407, 22.527717], [58.877407, 22.533568], [58.871265, 22.533568], [58.871265, 22.527717]]]}, "properties": {"chip_id": "S2B_MSIL2A_20250928T062629_R077_T40QGK_20250928T090405_0000", "month_key": "2025-09", "datetime": "2025-09-28 06:26:29.024000+00:00", "tile": "S2B_MSIL2A_20250928T062629_R077_T40QGK_20250928T090405_0000.jpg", "scene_id": "S2B_MSIL2A_20250928T062629_R077_T40QGK_20250928T090405", "hab_prob": 0.5913100826093448, "p_frcnn_r50_med": 0.7816495299339294, "p_frcnn_mb_med": 0.1288257390260696, "p_ssd_mb_med": 0.4237078428268432}}, {"type": "Feature", "geometry": {"type": "Polygon", "coordinates": [[[58.871879, 22.528302], [58.876793, 22.528302], [58.876793, 22.532983], [58.871879, 22.532983], [58.871879, 22.528302]]]}, "properties": {"chip_id": "S2B_MSIL2A_20250928T062629_R077_T40QGK_20250928T090405_0001", "month_key": "2025-09", "datetime": "2025-09-28 06:26:29.024000+00:00", "tile": "S2B_MSIL2A_20250928T062629_R077_T40QGK_20250928T090405_0001.jpg", "scene_id": "S2B_MSIL2A_20250928T062629_R077_T40QGK_20250928T090405", "hab_prob": 0.5973491406805103, "p_frcnn_r50_med": 0.8992409706115723, "p_frcnn_mb_med": 0.1173064559698104, "p_ssd_mb_med": 0.421700656414032}}]}