{"type": "FeatureCollection", "features": [{"type": "Feature", "geometry": {"type": "Polygon", "coordinates": [[[58.871265, 22.527717], [58.877407, 22.527717], [58.877407, 22.533568], [58.871265, 22.533568], [58.871265, 22.527717]]]}, "properties": {"chip_id": "S2A_MSIL2A_20250806T063321_R077_T40QGK_20250806T102613_0000", "month_key": "2025-08", "datetime": "2025-08-06 06:33:21.024000+00:00", "tile": "S2A_MSIL2A_20250806T063321_R077_T40QGK_20250806T102613_0000.jpg", "scene_id": "S2A_MSIL2A_20250806T063321_R077_T40QGK_20250806T102613", "hab_prob": 0.4174299853290661, "p_frcnn_r50_med": 0.9466813802719116, "p_frcnn_mb_med": 0.0700247883796691, "p_ssd_mb_med": 0.4340763092041015}}, {"type": "Feature", "geometry": {"type": "Polygon", "coordinates": [[[58.871879, 22.528302], [58.876793, 22.528302], [58.876793, 22.532983], [58.871879, 22.532983], [58.871879, 22.528302]]]}, "properties": {"chip_id": "S2A_MSIL2A_20250806T063321_R077_T40QGK_20250806T102613_0001", "month_key": "2025-08", "datetime": "2025-08-06 06:33:21.024000+00:00", "tile": "S2A_MSIL2A_20250806T063321_R077_T40QGK_20250806T102613_0001.jpg", "scene_id": "S2A_MSIL2A_20250806T063321_R077_T40QGK_20250806T102613", "hab_prob": 0.4317495353891046, "p_frcnn_r50_med": 0.9647948145866394, "p_frcnn_mb_med": 0.0674078837037086, "p_ssd_mb_med": 0.3291336894035339}}, {"type": "Feature", "geometry": {"type": "Polygon", "coordinates": [[[58.871265, 22.527717], [58.877407, 22.527717], [58.877407, 22.533568], [58.871265, 22.533568], [58.871265, 22.527717]]]}, "properties": {"chip_id": "S2C_MSIL2A_20250824T062651_R077_T40QGK_20250824T094213_0000", "month_key": "2025-08", "datetime": "2025-08-24 06:26:51.024000+00:00", "tile": "S2C_MSIL2A_20250824T062651_R077_T40QGK_20250824T094213_0000.jpg", "scene_id": "S2C_MSIL2A_20250824T062651_R077_T40QGK_20250824T094213", "hab_prob": 0.2600937975236379, "p_frcnn_r50_med": 0.9189915060997008, "p_frcnn_mb_med": 0.0826247707009315, "p_ssd_mb_med": 0.4598733484745025}}, {"type": "Feature", "geometry": {"type": "Polygon", "coordinates": [[[58.871879, 22.528302], [58.876793, 22.528302], [58.876793, 22.532983], [58.871879, 22.532983], [58.871879, 22.528302]]]}, "properties": {"chip_id": "S2C_MSIL2A_20250824T062651_R077_T40QGK_20250824T094213_0001", "month_key": "2025-08", "datetime": "2025-08-24 06:26:51.024000+00:00", "tile": "S2C_MSIL2A_20250824T062651_R077_T40QGK_20250824T094213_0001.jpg", "scene_id": "S2C_MSIL2A_20250824T062651_R077_T40QGK_20250824T094213", "hab_prob": 0.2511117451509303, "p_frcnn_r50_med": 0.9457576870918274, "p_frcnn_mb_med": 0.126234158873558, "p_ssd_mb_med": 0.4543978273868561}}, {"type": "Feature", "geometry": {"type": "Polygon", "coordinates": [[[58.871265, 22.527717], [58.877407, 22.527717], [58.877407, 22.533568], [58.871265, 22.533568], [58.871265, 22.527717]]]}, "properties": {"chip_id": "S2B_MSIL2A_20250829T062629_R077_T40QGK_20250829T083750_0000", "month_key": "2025-08", "datetime": "2025-08-29 06:26:29.024000+00:00", "tile": "S2B_MSIL2A_20250829T062629_R077_T40QGK_20250829T083750_0000.jpg", "scene_id": "S2B_MSIL2A_20250829T062629_R077_T40QGK_20250829T083750", "hab_prob": 0.427535193872674, "p_frcnn_r50_med": 0.9516794681549072, "p_frcnn_mb_med": 0.0980705842375755, "p_ssd_mb_med": 0.4536579549312591}}, {"type": "Feature", "geometry": {"type": "Polygon", "coordinates": [[[58.871879, 22.528302], [58.876793, 22.528302], [58.876793, 22.532983], [58.871879, 22.532983], [58.871879, 22.528302]]]}, "properties": {"chip_id": "S2B_MSIL2A_20250829T062629_R077_T40QGK_20250829T083750_0001", "month_key": "2025-08", "datetime": "2025-08-29 06:26:29.024000+00:00", "tile": "S2B_MSIL2A_20250829T062629_R077_T40QGK_20250829T083750_0001.jpg", "scene_id": "S2B_MSIL2A_20250829T062629_R077_T40QGK_20250829T083750", "hab_prob": 0.4309210922790841, "p_frcnn_r50_med": 0.9444445967674256, "p_frcnn_mb_med": 0.090972825884819, "p_ssd_mb_med": 0.408901184797287}}]}