{"type": "FeatureCollection", "features": [{"type": "Feature", "geometry": {"type": "Polygon", "coordinates": [[[55.969354, 26.158768], [55.975807, 26.158768], [55.975807, 26.164501], [55.969354, 26.164501], [55.969354, 26.158768]]]}, "properties": {"chip_id": "S2A_MSIL2A_20250901T065321_R020_T40RDP_20250901T092758_0000", "month_key": "2025-09", "datetime": "2025-09-01 06:53:21.024000+00:00", "tile": "S2A_MSIL2A_20250901T065321_R020_T40RDP_20250901T092758_0000.jpg", "scene_id": "S2A_MSIL2A_20250901T065321_R020_T40RDP_20250901T092758", "hab_prob": 0.5978028454425418, "p_frcnn_r50_med": 0.7786069512367249, "p_frcnn_mb_med": 0.0711633190512657, "p_ssd_mb_med": 0.4220342934131622}}, {"type": "Feature", "geometry": {"type": "Polygon", "coordinates": [[[55.969999, 26.159342], [55.975162, 26.159342], [55.975162, 26.163928], [55.969999, 26.163928], [55.969999, 26.159342]]]}, "properties": {"chip_id": "S2A_MSIL2A_20250901T065321_R020_T40RDP_20250901T092758_0001", "month_key": "2025-09", "datetime": "2025-09-01 06:53:21.024000+00:00", "tile": "S2A_MSIL2A_20250901T065321_R020_T40RDP_20250901T092758_0001.jpg", "scene_id": "S2A_MSIL2A_20250901T065321_R020_T40RDP_20250901T092758", "hab_prob": 0.5944754647538126, "p_frcnn_r50_med": 0.7940621376037598, "p_frcnn_mb_med": 0.1205556243658065, "p_ssd_mb_med": 0.4537162184715271}}, {"type": "Feature", "geometry": {"type": "Polygon", "coordinates": [[[55.969354, 26.158768], [55.975807, 26.158768], [55.975807, 26.164501], [55.969354, 26.164501], [55.969354, 26.158768]]]}, "properties": {"chip_id": "S2B_MSIL2A_20250914T064619_R020_T40RDP_20250914T090756_0000", "month_key": "2025-09", "datetime": "2025-09-14 06:46:19.024000+00:00", "tile": "S2B_MSIL2A_20250914T064619_R020_T40RDP_20250914T090756_0000.jpg", "scene_id": "S2B_MSIL2A_20250914T064619_R020_T40RDP_20250914T090756", "hab_prob": 0.20913641526129, "p_frcnn_r50_med": 0.4589320421218872, "p_frcnn_mb_med": 0.1557511687278747, "p_ssd_mb_med": 0.4226682484149933}}, {"type": "Feature", "geometry": {"type": "Polygon", "coordinates": [[[55.969999, 26.159342], [55.975162, 26.159342], [55.975162, 26.163928], [55.969999, 26.163928], [55.969999, 26.159342]]]}, "properties": {"chip_id": "S2B_MSIL2A_20250914T064619_R020_T40RDP_20250914T090756_0001", "month_key": "2025-09", "datetime": "2025-09-14 06:46:19.024000+00:00", "tile": "S2B_MSIL2A_20250914T064619_R020_T40RDP_20250914T090756_0001.jpg", "scene_id": "S2B_MSIL2A_20250914T064619_R020_T40RDP_20250914T090756", "hab_prob": 0.2147127225172821, "p_frcnn_r50_med": 0.524512529373169, "p_frcnn_mb_med": 0.1576981246471405, "p_ssd_mb_med": 0.4598513543605804}}, {"type": "Feature", "geometry": {"type": "Polygon", "coordinates": [[[55.969354, 26.158768], [55.975807, 26.158768], [55.975807, 26.164501], [55.969354, 26.164501], [55.969354, 26.158768]]]}, "properties": {"chip_id": "S2B_MSIL2A_20250924T064629_R020_T40RDP_20250924T092803_0000", "month_key": "2025-09", "datetime": "2025-09-24 06:46:29.024000+00:00", "tile": "S2B_MSIL2A_20250924T064629_R020_T40RDP_20250924T092803_0000.jpg", "scene_id": "S2B_MSIL2A_20250924T064629_R020_T40RDP_20250924T092803", "hab_prob": 0.3648488158710057, "p_frcnn_r50_med": 0.7450248003005981, "p_frcnn_mb_med": 0.0937748029828071, "p_ssd_mb_med": 0.4515757262706756}}, {"type": "Feature", "geometry": {"type": "Polygon", "coordinates": [[[55.969999, 26.159342], [55.975162, 26.159342], [55.975162, 26.163928], [55.969999, 26.163928], [55.969999, 26.159342]]]}, "properties": {"chip_id": "S2B_MSIL2A_20250924T064629_R020_T40RDP_20250924T092803_0001", "month_key": "2025-09", "datetime": "2025-09-24 06:46:29.024000+00:00", "tile": "S2B_MSIL2A_20250924T064629_R020_T40RDP_20250924T092803_0001.jpg", "scene_id": "S2B_MSIL2A_20250924T064629_R020_T40RDP_20250924T092803", "hab_prob": 0.3648488158710057, "p_frcnn_r50_med": 0.4852129518985748, "p_frcnn_mb_med": 0.0893907770514488, "p_ssd_mb_med": 0.4572860598564148}}, {"type": "Feature", "geometry": {"type": "Polygon", "coordinates": [[[55.969354, 26.158768], [55.975807, 26.158768], [55.975807, 26.164501], [55.969354, 26.164501], [55.969354, 26.158768]]]}, "properties": {"chip_id": "S2C_MSIL2A_20250929T064711_R020_T40RDP_20250929T124219_0000", "month_key": "2025-09", "datetime": "2025-09-29 06:47:11.025000+00:00", "tile": "S2C_MSIL2A_20250929T064711_R020_T40RDP_20250929T124219_0000.jpg", "scene_id": "S2C_MSIL2A_20250929T064711_R020_T40RDP_20250929T124219", "hab_prob": 0.3166284754661957, "p_frcnn_r50_med": 0.6931375861167908, "p_frcnn_mb_med": 0.1247589290142059, "p_ssd_mb_med": 0.4416563808917999}}, {"type": "Feature", "geometry": {"type": "Polygon", "coordinates": [[[55.969999, 26.159342], [55.975162, 26.159342], [55.975162, 26.163928], [55.969999, 26.163928], [55.969999, 26.159342]]]}, "properties": {"chip_id": "S2C_MSIL2A_20250929T064711_R020_T40RDP_20250929T124219_0001", "month_key": "2025-09", "datetime": "2025-09-29 06:47:11.025000+00:00", "tile": "S2C_MSIL2A_20250929T064711_R020_T40RDP_20250929T124219_0001.jpg", "scene_id": "S2C_MSIL2A_20250929T064711_R020_T40RDP_20250929T124219", "hab_prob": 0.3166284754661957, "p_frcnn_r50_med": 0.6700590252876282, "p_frcnn_mb_med": 0.1119918301701545, "p_ssd_mb_med": 0.4246729910373688}}]}