{"type": "FeatureCollection", "features": [{"type": "Feature", "geometry": {"type": "Polygon", "coordinates": [[[55.969354, 26.158768], [55.975807, 26.158768], [55.975807, 26.164501], [55.969354, 26.164501], [55.969354, 26.158768]]]}, "properties": {"chip_id": "S2A_MSIL2A_20250102T065301_R020_T40RDP_20250102T095747_0000", "month_key": "2025-01", "datetime": "2025-01-02 06:53:01.024000+00:00", "tile": "S2A_MSIL2A_20250102T065301_R020_T40RDP_20250102T095747_0000.jpg", "scene_id": "S2A_MSIL2A_20250102T065301_R020_T40RDP_20250102T095747", "hab_prob": 0.3343682541397675, "p_frcnn_r50_med": 0.8500239849090576, "p_frcnn_mb_med": 0.1558761298656463, "p_ssd_mb_med": 0.4656612873077392}}, {"type": "Feature", "geometry": {"type": "Polygon", "coordinates": [[[55.969999, 26.159342], [55.975162, 26.159342], [55.975162, 26.163928], [55.969999, 26.163928], [55.969999, 26.159342]]]}, "properties": {"chip_id": "S2A_MSIL2A_20250102T065301_R020_T40RDP_20250102T095747_0001", "month_key": "2025-01", "datetime": "2025-01-02 06:53:01.024000+00:00", "tile": "S2A_MSIL2A_20250102T065301_R020_T40RDP_20250102T095747_0001.jpg", "scene_id": "S2A_MSIL2A_20250102T065301_R020_T40RDP_20250102T095747", "hab_prob": 0.3269783051723427, "p_frcnn_r50_med": 0.6472431421279907, "p_frcnn_mb_med": 0.1474020779132843, "p_ssd_mb_med": 0.4170233309268951}}, {"type": "Feature", "geometry": {"type": "Polygon", "coordinates": [[[55.969354, 26.158768], [55.975807, 26.158768], [55.975807, 26.164501], [55.969354, 26.164501], [55.969354, 26.158768]]]}, "properties": {"chip_id": "S2A_MSIL2A_20250112T065241_R020_T40RDP_20250112T101851_0000", "month_key": "2025-01", "datetime": "2025-01-12 06:52:41.024000+00:00", "tile": "S2A_MSIL2A_20250112T065241_R020_T40RDP_20250112T101851_0000.jpg", "scene_id": "S2A_MSIL2A_20250112T065241_R020_T40RDP_20250112T101851", "hab_prob": 0.2581057422179913, "p_frcnn_r50_med": 0.8238963484764099, "p_frcnn_mb_med": 0.1231806278228759, "p_ssd_mb_med": 0.4044393897056579}}, {"type": "Feature", "geometry": {"type": "Polygon", "coordinates": [[[55.969999, 26.159342], [55.975162, 26.159342], [55.975162, 26.163928], [55.969999, 26.163928], [55.969999, 26.159342]]]}, "properties": {"chip_id": "S2A_MSIL2A_20250112T065241_R020_T40RDP_20250112T101851_0001", "month_key": "2025-01", "datetime": "2025-01-12 06:52:41.024000+00:00", "tile": "S2A_MSIL2A_20250112T065241_R020_T40RDP_20250112T101851_0001.jpg", "scene_id": "S2A_MSIL2A_20250112T065241_R020_T40RDP_20250112T101851", "hab_prob": 0.2694880653901521, "p_frcnn_r50_med": 0.5632233619689941, "p_frcnn_mb_med": 0.153952345252037, "p_ssd_mb_med": 0.3923507034778595}}, {"type": "Feature", "geometry": {"type": "Polygon", "coordinates": [[[55.969354, 26.158768], [55.975807, 26.158768], [55.975807, 26.164501], [55.969354, 26.164501], [55.969354, 26.158768]]]}, "properties": {"chip_id": "S2B_MSIL2A_20250127T065039_R020_T40RDP_20250127T090420_0000", "month_key": "2025-01", "datetime": "2025-01-27 06:50:39.024000+00:00", "tile": "S2B_MSIL2A_20250127T065039_R020_T40RDP_20250127T090420_0000.jpg", "scene_id": "S2B_MSIL2A_20250127T065039_R020_T40RDP_20250127T090420", "hab_prob": 0.2521746267497087, "p_frcnn_r50_med": 0.8534862399101257, "p_frcnn_mb_med": 0.1156888231635093, "p_ssd_mb_med": 0.4350106418132782}}, {"type": "Feature", "geometry": {"type": "Polygon", "coordinates": [[[55.969999, 26.159342], [55.975162, 26.159342], [55.975162, 26.163928], [55.969999, 26.163928], [55.969999, 26.159342]]]}, "properties": {"chip_id": "S2B_MSIL2A_20250127T065039_R020_T40RDP_20250127T090420_0001", "month_key": "2025-01", "datetime": "2025-01-27 06:50:39.024000+00:00", "tile": "S2B_MSIL2A_20250127T065039_R020_T40RDP_20250127T090420_0001.jpg", "scene_id": "S2B_MSIL2A_20250127T065039_R020_T40RDP_20250127T090420", "hab_prob": 0.2521746267497087, "p_frcnn_r50_med": 0.6614351272583008, "p_frcnn_mb_med": 0.1431702971458435, "p_ssd_mb_med": 0.4244773685932159}}]}