{"type": "FeatureCollection", "features": [{"type": "Feature", "geometry": {"type": "Polygon", "coordinates": [[[55.969354, 26.158768], [55.975807, 26.158768], [55.975807, 26.164501], [55.969354, 26.164501], [55.969354, 26.158768]]]}, "properties": {"chip_id": "S2B_MSIL2A_20251203T065149_R020_T40RDP_20251203T084904_0000", "month_key": "2025-12", "datetime": "2025-12-03 06:51:49.024000+00:00", "tile": "S2B_MSIL2A_20251203T065149_R020_T40RDP_20251203T084904_0000.jpg", "scene_id": "S2B_MSIL2A_20251203T065149_R020_T40RDP_20251203T084904", "hab_prob": 0.2448383005235813, "p_frcnn_r50_med": 0.7597252130508423, "p_frcnn_mb_med": 0.1470944434404373, "p_ssd_mb_med": 0.3833514451980591}}, {"type": "Feature", "geometry": {"type": "Polygon", "coordinates": [[[55.969999, 26.159342], [55.975162, 26.159342], [55.975162, 26.163928], [55.969999, 26.163928], [55.969999, 26.159342]]]}, "properties": {"chip_id": "S2B_MSIL2A_20251203T065149_R020_T40RDP_20251203T084904_0001", "month_key": "2025-12", "datetime": "2025-12-03 06:51:49.024000+00:00", "tile": "S2B_MSIL2A_20251203T065149_R020_T40RDP_20251203T084904_0001.jpg", "scene_id": "S2B_MSIL2A_20251203T065149_R020_T40RDP_20251203T084904", "hab_prob": 0.2448383005235813, "p_frcnn_r50_med": 0.5294716358184814, "p_frcnn_mb_med": 0.1179500222206115, "p_ssd_mb_med": 0.3988120555877685}}, {"type": "Feature", "geometry": {"type": "Polygon", "coordinates": [[[55.969354, 26.158768], [55.975807, 26.158768], [55.975807, 26.164501], [55.969354, 26.164501], [55.969354, 26.158768]]]}, "properties": {"chip_id": "S2A_MSIL2A_20251210T065321_R020_T40RDP_20251210T094916_0000", "month_key": "2025-12", "datetime": "2025-12-10 06:53:21.024000+00:00", "tile": "S2A_MSIL2A_20251210T065321_R020_T40RDP_20251210T094916_0000.jpg", "scene_id": "S2A_MSIL2A_20251210T065321_R020_T40RDP_20251210T094916", "hab_prob": 0.2196146635281508, "p_frcnn_r50_med": 0.8013925552368164, "p_frcnn_mb_med": 0.1339814364910125, "p_ssd_mb_med": 0.4339184165000915}}, {"type": "Feature", "geometry": {"type": "Polygon", "coordinates": [[[55.969999, 26.159342], [55.975162, 26.159342], [55.975162, 26.163928], [55.969999, 26.163928], [55.969999, 26.159342]]]}, "properties": {"chip_id": "S2A_MSIL2A_20251210T065321_R020_T40RDP_20251210T094916_0001", "month_key": "2025-12", "datetime": "2025-12-10 06:53:21.024000+00:00", "tile": "S2A_MSIL2A_20251210T065321_R020_T40RDP_20251210T094916_0001.jpg", "scene_id": "S2A_MSIL2A_20251210T065321_R020_T40RDP_20251210T094916", "hab_prob": 0.2005013214314466, "p_frcnn_r50_med": 0.5916169881820679, "p_frcnn_mb_med": 0.1912999749183654, "p_ssd_mb_med": 0.356908917427063}}, {"type": "Feature", "geometry": {"type": "Polygon", "coordinates": [[[55.969354, 26.158768], [55.975807, 26.158768], [55.975807, 26.164501], [55.969354, 26.164501], [55.969354, 26.158768]]]}, "properties": {"chip_id": "S2B_MSIL2A_20251223T065209_R020_T40RDP_20251223T092210_0000", "month_key": "2025-12", "datetime": "2025-12-23 06:52:09.024000+00:00", "tile": "S2B_MSIL2A_20251223T065209_R020_T40RDP_20251223T092210_0000.jpg", "scene_id": "S2B_MSIL2A_20251223T065209_R020_T40RDP_20251223T092210", "hab_prob": 0.537122317399883, "p_frcnn_r50_med": 0.8302215337753296, "p_frcnn_mb_med": 0.1679605394601822, "p_ssd_mb_med": 0.4704588949680328}}, {"type": "Feature", "geometry": {"type": "Polygon", "coordinates": [[[55.969999, 26.159342], [55.975162, 26.159342], [55.975162, 26.163928], [55.969999, 26.163928], [55.969999, 26.159342]]]}, "properties": {"chip_id": "S2B_MSIL2A_20251223T065209_R020_T40RDP_20251223T092210_0001", "month_key": "2025-12", "datetime": "2025-12-23 06:52:09.024000+00:00", "tile": "S2B_MSIL2A_20251223T065209_R020_T40RDP_20251223T092210_0001.jpg", "scene_id": "S2B_MSIL2A_20251223T065209_R020_T40RDP_20251223T092210", "hab_prob": 0.5248314882799899, "p_frcnn_r50_med": 0.6048410534858704, "p_frcnn_mb_med": 0.2117873281240463, "p_ssd_mb_med": 0.4107238352298736}}, {"type": "Feature", "geometry": {"type": "Polygon", "coordinates": [[[55.969354, 26.158768], [55.975807, 26.158768], [55.975807, 26.164501], [55.969354, 26.164501], [55.969354, 26.158768]]]}, "properties": {"chip_id": "S2A_MSIL2A_20251230T065331_R020_T40RDP_20251230T094613_0000", "month_key": "2025-12", "datetime": "2025-12-30 06:53:31.024000+00:00", "tile": "S2A_MSIL2A_20251230T065331_R020_T40RDP_20251230T094613_0000.jpg", "scene_id": "S2A_MSIL2A_20251230T065331_R020_T40RDP_20251230T094613", "hab_prob": 0.5335774218625671, "p_frcnn_r50_med": 0.8655586242675781, "p_frcnn_mb_med": 0.1167718991637229, "p_ssd_mb_med": 0.4669977724552154}}, {"type": "Feature", "geometry": {"type": "Polygon", "coordinates": [[[55.969999, 26.159342], [55.975162, 26.159342], [55.975162, 26.163928], [55.969999, 26.163928], [55.969999, 26.159342]]]}, "properties": {"chip_id": "S2A_MSIL2A_20251230T065331_R020_T40RDP_20251230T094613_0001", "month_key": "2025-12", "datetime": "2025-12-30 06:53:31.024000+00:00", "tile": "S2A_MSIL2A_20251230T065331_R020_T40RDP_20251230T094613_0001.jpg", "scene_id": "S2A_MSIL2A_20251230T065331_R020_T40RDP_20251230T094613", "hab_prob": 0.4819089457639365, "p_frcnn_r50_med": 0.7058820128440857, "p_frcnn_mb_med": 0.1606552749872207, "p_ssd_mb_med": 0.3965595066547394}}]}