{"type": "FeatureCollection", "features": [{"type": "Feature", "geometry": {"type": "Polygon", "coordinates": [[[55.969354, 26.158768], [55.975807, 26.158768], [55.975807, 26.164501], [55.969354, 26.164501], [55.969354, 26.158768]]]}, "properties": {"chip_id": "S2C_MSIL2A_20250303T064821_R020_T40RDP_20250303T121710_0000", "month_key": "2025-03", "datetime": "2025-03-03 06:48:21.025000+00:00", "tile": "S2C_MSIL2A_20250303T064821_R020_T40RDP_20250303T121710_0000.jpg", "scene_id": "S2C_MSIL2A_20250303T064821_R020_T40RDP_20250303T121710", "hab_prob": 0.2759653095059043, "p_frcnn_r50_med": 0.8119135499000549, "p_frcnn_mb_med": 0.104836881160736, "p_ssd_mb_med": 0.4412741363048553}}, {"type": "Feature", "geometry": {"type": "Polygon", "coordinates": [[[55.969999, 26.159342], [55.975162, 26.159342], [55.975162, 26.163928], [55.969999, 26.163928], [55.969999, 26.159342]]]}, "properties": {"chip_id": "S2C_MSIL2A_20250303T064821_R020_T40RDP_20250303T121710_0001", "month_key": "2025-03", "datetime": "2025-03-03 06:48:21.025000+00:00", "tile": "S2C_MSIL2A_20250303T064821_R020_T40RDP_20250303T121710_0001.jpg", "scene_id": "S2C_MSIL2A_20250303T064821_R020_T40RDP_20250303T121710", "hab_prob": 0.2535410574841791, "p_frcnn_r50_med": 0.7235254049301147, "p_frcnn_mb_med": 0.1101082041859626, "p_ssd_mb_med": 0.4019180536270141}}, {"type": "Feature", "geometry": {"type": "Polygon", "coordinates": [[[55.969354, 26.158768], [55.975807, 26.158768], [55.975807, 26.164501], [55.969354, 26.164501], [55.969354, 26.158768]]]}, "properties": {"chip_id": "S2B_MSIL2A_20250318T064629_R020_T40RDP_20250318T092100_0000", "month_key": "2025-03", "datetime": "2025-03-18 06:46:29.024000+00:00", "tile": "S2B_MSIL2A_20250318T064629_R020_T40RDP_20250318T092100_0000.jpg", "scene_id": "S2B_MSIL2A_20250318T064629_R020_T40RDP_20250318T092100", "hab_prob": 0.3145720400125062, "p_frcnn_r50_med": 0.821681559085846, "p_frcnn_mb_med": 0.1153357848525047, "p_ssd_mb_med": 0.4262290596961975}}, {"type": "Feature", "geometry": {"type": "Polygon", "coordinates": [[[55.969999, 26.159342], [55.975162, 26.159342], [55.975162, 26.163928], [55.969999, 26.163928], [55.969999, 26.159342]]]}, "properties": {"chip_id": "S2B_MSIL2A_20250318T064629_R020_T40RDP_20250318T092100_0001", "month_key": "2025-03", "datetime": "2025-03-18 06:46:29.024000+00:00", "tile": "S2B_MSIL2A_20250318T064629_R020_T40RDP_20250318T092100_0001.jpg", "scene_id": "S2B_MSIL2A_20250318T064629_R020_T40RDP_20250318T092100", "hab_prob": 0.3145720400125062, "p_frcnn_r50_med": 0.7848653793334961, "p_frcnn_mb_med": 0.1022840365767479, "p_ssd_mb_med": 0.4481939077377319}}, {"type": "Feature", "geometry": {"type": "Polygon", "coordinates": [[[55.969354, 26.158768], [55.975807, 26.158768], [55.975807, 26.164501], [55.969354, 26.164501], [55.969354, 26.158768]]]}, "properties": {"chip_id": "S2A_MSIL2A_20250325T065311_R020_T40RDP_20250326T112915_0000", "month_key": "2025-03", "datetime": "2025-03-25 06:53:11.024000+00:00", "tile": "S2A_MSIL2A_20250325T065311_R020_T40RDP_20250326T112915_0000.jpg", "scene_id": "S2A_MSIL2A_20250325T065311_R020_T40RDP_20250326T112915", "hab_prob": 0.2659173125637228, "p_frcnn_r50_med": 0.8247770667076111, "p_frcnn_mb_med": 0.0856475830078125, "p_ssd_mb_med": 0.4590993523597717}}, {"type": "Feature", "geometry": {"type": "Polygon", "coordinates": [[[55.969999, 26.159342], [55.975162, 26.159342], [55.975162, 26.163928], [55.969999, 26.163928], [55.969999, 26.159342]]]}, "properties": {"chip_id": "S2A_MSIL2A_20250325T065311_R020_T40RDP_20250326T112915_0001", "month_key": "2025-03", "datetime": "2025-03-25 06:53:11.024000+00:00", "tile": "S2A_MSIL2A_20250325T065311_R020_T40RDP_20250326T112915_0001.jpg", "scene_id": "S2A_MSIL2A_20250325T065311_R020_T40RDP_20250326T112915", "hab_prob": 0.2594505334906649, "p_frcnn_r50_med": 0.7562178373336792, "p_frcnn_mb_med": 0.0960172340273857, "p_ssd_mb_med": 0.4069875180721283}}]}