{"type": "FeatureCollection", "features": [{"type": "Feature", "geometry": {"type": "Polygon", "coordinates": [[[55.969354, 26.158768], [55.975807, 26.158768], [55.975807, 26.164501], [55.969354, 26.164501], [55.969354, 26.158768]]]}, "properties": {"chip_id": "S2C_MSIL2A_20250601T064641_R020_T40RDP_20250601T110112_0000", "month_key": "2025-06", "datetime": "2025-06-01 06:46:41.025000+00:00", "tile": "S2C_MSIL2A_20250601T064641_R020_T40RDP_20250601T110112_0000.jpg", "scene_id": "S2C_MSIL2A_20250601T064641_R020_T40RDP_20250601T110112", "hab_prob": 0.3078491382771022, "p_frcnn_r50_med": 0.8097873330116272, "p_frcnn_mb_med": 0.080900028347969, "p_ssd_mb_med": 0.3916890919208526}}, {"type": "Feature", "geometry": {"type": "Polygon", "coordinates": [[[55.969999, 26.159342], [55.975162, 26.159342], [55.975162, 26.163928], [55.969999, 26.163928], [55.969999, 26.159342]]]}, "properties": {"chip_id": "S2C_MSIL2A_20250601T064641_R020_T40RDP_20250601T110112_0001", "month_key": "2025-06", "datetime": "2025-06-01 06:46:41.025000+00:00", "tile": "S2C_MSIL2A_20250601T064641_R020_T40RDP_20250601T110112_0001.jpg", "scene_id": "S2C_MSIL2A_20250601T064641_R020_T40RDP_20250601T110112", "hab_prob": 0.3342253038189129, "p_frcnn_r50_med": 0.8122180700302124, "p_frcnn_mb_med": 0.1026173904538154, "p_ssd_mb_med": 0.4505975842475891}}, {"type": "Feature", "geometry": {"type": "Polygon", "coordinates": [[[55.969354, 26.158768], [55.975807, 26.158768], [55.975807, 26.164501], [55.969354, 26.164501], [55.969354, 26.158768]]]}, "properties": {"chip_id": "S2A_MSIL2A_20250613T065321_R020_T40RDP_20250613T094016_0000", "month_key": "2025-06", "datetime": "2025-06-13 06:53:21.024000+00:00", "tile": "S2A_MSIL2A_20250613T065321_R020_T40RDP_20250613T094016_0000.jpg", "scene_id": "S2A_MSIL2A_20250613T065321_R020_T40RDP_20250613T094016", "hab_prob": 0.457837624774548, "p_frcnn_r50_med": 0.8382424116134644, "p_frcnn_mb_med": 0.0600698813796043, "p_ssd_mb_med": 0.4485422074794769}}, {"type": "Feature", "geometry": {"type": "Polygon", "coordinates": [[[55.969999, 26.159342], [55.975162, 26.159342], [55.975162, 26.163928], [55.969999, 26.163928], [55.969999, 26.159342]]]}, "properties": {"chip_id": "S2A_MSIL2A_20250613T065321_R020_T40RDP_20250613T094016_0001", "month_key": "2025-06", "datetime": "2025-06-13 06:53:21.024000+00:00", "tile": "S2A_MSIL2A_20250613T065321_R020_T40RDP_20250613T094016_0001.jpg", "scene_id": "S2A_MSIL2A_20250613T065321_R020_T40RDP_20250613T094016", "hab_prob": 0.4544091104511426, "p_frcnn_r50_med": 0.8547380566596985, "p_frcnn_mb_med": 0.1112697795033454, "p_ssd_mb_med": 0.4569582939147949}}, {"type": "Feature", "geometry": {"type": "Polygon", "coordinates": [[[55.969354, 26.158768], [55.975807, 26.158768], [55.975807, 26.164501], [55.969354, 26.164501], [55.969354, 26.158768]]]}, "properties": {"chip_id": "S2C_MSIL2A_20250621T064641_R020_T40RDP_20250621T104221_0000", "month_key": "2025-06", "datetime": "2025-06-21 06:46:41.025000+00:00", "tile": "S2C_MSIL2A_20250621T064641_R020_T40RDP_20250621T104221_0000.jpg", "scene_id": "S2C_MSIL2A_20250621T064641_R020_T40RDP_20250621T104221", "hab_prob": 0.3483564465992941, "p_frcnn_r50_med": 0.8961207866668701, "p_frcnn_mb_med": 0.0959888026118278, "p_ssd_mb_med": 0.4435907900333404}}, {"type": "Feature", "geometry": {"type": "Polygon", "coordinates": [[[55.969999, 26.159342], [55.975162, 26.159342], [55.975162, 26.163928], [55.969999, 26.163928], [55.969999, 26.159342]]]}, "properties": {"chip_id": "S2C_MSIL2A_20250621T064641_R020_T40RDP_20250621T104221_0001", "month_key": "2025-06", "datetime": "2025-06-21 06:46:41.025000+00:00", "tile": "S2C_MSIL2A_20250621T064641_R020_T40RDP_20250621T104221_0001.jpg", "scene_id": "S2C_MSIL2A_20250621T064641_R020_T40RDP_20250621T104221", "hab_prob": 0.3597181167133137, "p_frcnn_r50_med": 0.8397900462150574, "p_frcnn_mb_med": 0.1120840460062027, "p_ssd_mb_med": 0.3409359157085418}}, {"type": "Feature", "geometry": {"type": "Polygon", "coordinates": [[[55.969354, 26.158768], [55.975807, 26.158768], [55.975807, 26.164501], [55.969354, 26.164501], [55.969354, 26.158768]]]}, "properties": {"chip_id": "S2B_MSIL2A_20250626T064629_R020_T40RDP_20250626T090740_0000", "month_key": "2025-06", "datetime": "2025-06-26 06:46:29.024000+00:00", "tile": "S2B_MSIL2A_20250626T064629_R020_T40RDP_20250626T090740_0000.jpg", "scene_id": "S2B_MSIL2A_20250626T064629_R020_T40RDP_20250626T090740", "hab_prob": 0.4621707677334967, "p_frcnn_r50_med": 0.9371532797813416, "p_frcnn_mb_med": 0.0816323608160018, "p_ssd_mb_med": 0.4154795110225677}}, {"type": "Feature", "geometry": {"type": "Polygon", "coordinates": [[[55.969999, 26.159342], [55.975162, 26.159342], [55.975162, 26.163928], [55.969999, 26.163928], [55.969999, 26.159342]]]}, "properties": {"chip_id": "S2B_MSIL2A_20250626T064629_R020_T40RDP_20250626T090740_0001", "month_key": "2025-06", "datetime": "2025-06-26 06:46:29.024000+00:00", "tile": "S2B_MSIL2A_20250626T064629_R020_T40RDP_20250626T090740_0001.jpg", "scene_id": "S2B_MSIL2A_20250626T064629_R020_T40RDP_20250626T090740", "hab_prob": 0.4599512589648377, "p_frcnn_r50_med": 0.8087068796157837, "p_frcnn_mb_med": 0.0993669554591178, "p_ssd_mb_med": 0.4565061032772064}}]}