{"type": "FeatureCollection", "features": [{"type": "Feature", "geometry": {"type": "Polygon", "coordinates": [[[55.969354, 26.158768], [55.975807, 26.158768], [55.975807, 26.164501], [55.969354, 26.164501], [55.969354, 26.158768]]]}, "properties": {"chip_id": "S2C_MSIL2A_20250402T064651_R020_T40RDP_20250402T120013_0000", "month_key": "2025-04", "datetime": "2025-04-02 06:46:51.025000+00:00", "tile": "S2C_MSIL2A_20250402T064651_R020_T40RDP_20250402T120013_0000.jpg", "scene_id": "S2C_MSIL2A_20250402T064651_R020_T40RDP_20250402T120013", "hab_prob": 0.4853098006380216, "p_frcnn_r50_med": 0.793229341506958, "p_frcnn_mb_med": 0.1074640154838562, "p_ssd_mb_med": 0.4517308175563812}}, {"type": "Feature", "geometry": {"type": "Polygon", "coordinates": [[[55.969999, 26.159342], [55.975162, 26.159342], [55.975162, 26.163928], [55.969999, 26.163928], [55.969999, 26.159342]]]}, "properties": {"chip_id": "S2C_MSIL2A_20250402T064651_R020_T40RDP_20250402T120013_0001", "month_key": "2025-04", "datetime": "2025-04-02 06:46:51.025000+00:00", "tile": "S2C_MSIL2A_20250402T064651_R020_T40RDP_20250402T120013_0001.jpg", "scene_id": "S2C_MSIL2A_20250402T064651_R020_T40RDP_20250402T120013", "hab_prob": 0.4985077042605957, "p_frcnn_r50_med": 0.73753422498703, "p_frcnn_mb_med": 0.0840071439743042, "p_ssd_mb_med": 0.3968402445316314}}, {"type": "Feature", "geometry": {"type": "Polygon", "coordinates": [[[55.969354, 26.158768], [55.975807, 26.158768], [55.975807, 26.164501], [55.969354, 26.164501], [55.969354, 26.158768]]]}, "properties": {"chip_id": "S2C_MSIL2A_20250412T064651_R020_T40RDP_20250412T121419_0000", "month_key": "2025-04", "datetime": "2025-04-12 06:46:51.025000+00:00", "tile": "S2C_MSIL2A_20250412T064651_R020_T40RDP_20250412T121419_0000.jpg", "scene_id": "S2C_MSIL2A_20250412T064651_R020_T40RDP_20250412T121419", "hab_prob": 0.4128322196819904, "p_frcnn_r50_med": 0.7926740646362305, "p_frcnn_mb_med": 0.0892172679305076, "p_ssd_mb_med": 0.4326312243938446}}, {"type": "Feature", "geometry": {"type": "Polygon", "coordinates": [[[55.969999, 26.159342], [55.975162, 26.159342], [55.975162, 26.163928], [55.969999, 26.163928], [55.969999, 26.159342]]]}, "properties": {"chip_id": "S2C_MSIL2A_20250412T064651_R020_T40RDP_20250412T121419_0001", "month_key": "2025-04", "datetime": "2025-04-12 06:46:51.025000+00:00", "tile": "S2C_MSIL2A_20250412T064651_R020_T40RDP_20250412T121419_0001.jpg", "scene_id": "S2C_MSIL2A_20250412T064651_R020_T40RDP_20250412T121419", "hab_prob": 0.4128322196819904, "p_frcnn_r50_med": 0.7923052310943604, "p_frcnn_mb_med": 0.0806831121444702, "p_ssd_mb_med": 0.4195589423179626}}, {"type": "Feature", "geometry": {"type": "Polygon", "coordinates": [[[55.969354, 26.158768], [55.975807, 26.158768], [55.975807, 26.164501], [55.969354, 26.164501], [55.969354, 26.158768]]]}, "properties": {"chip_id": "S2B_MSIL2A_20250417T064629_R020_T40RDP_20250417T092304_0000", "month_key": "2025-04", "datetime": "2025-04-17 06:46:29.024000+00:00", "tile": "S2B_MSIL2A_20250417T064629_R020_T40RDP_20250417T092304_0000.jpg", "scene_id": "S2B_MSIL2A_20250417T064629_R020_T40RDP_20250417T092304", "hab_prob": 0.382630778273982, "p_frcnn_r50_med": 0.8379735350608826, "p_frcnn_mb_med": 0.123117484152317, "p_ssd_mb_med": 0.4282390773296356}}, {"type": "Feature", "geometry": {"type": "Polygon", "coordinates": [[[55.969999, 26.159342], [55.975162, 26.159342], [55.975162, 26.163928], [55.969999, 26.163928], [55.969999, 26.159342]]]}, "properties": {"chip_id": "S2B_MSIL2A_20250417T064629_R020_T40RDP_20250417T092304_0001", "month_key": "2025-04", "datetime": "2025-04-17 06:46:29.024000+00:00", "tile": "S2B_MSIL2A_20250417T064629_R020_T40RDP_20250417T092304_0001.jpg", "scene_id": "S2B_MSIL2A_20250417T064629_R020_T40RDP_20250417T092304", "hab_prob": 0.3812598684541605, "p_frcnn_r50_med": 0.7831640243530273, "p_frcnn_mb_med": 0.0871491506695747, "p_ssd_mb_med": 0.410278707742691}}]}