{"type": "FeatureCollection", "features": [{"type": "Feature", "geometry": {"type": "Polygon", "coordinates": [[[55.969354, 26.158768], [55.975807, 26.158768], [55.975807, 26.164501], [55.969354, 26.164501], [55.969354, 26.158768]]]}, "properties": {"chip_id": "S2C_MSIL2A_20250201T065141_R020_T40RDP_20250201T104612_0000", "month_key": "2025-02", "datetime": "2025-02-01 06:51:41.025000+00:00", "tile": "S2C_MSIL2A_20250201T065141_R020_T40RDP_20250201T104612_0000.jpg", "scene_id": "S2C_MSIL2A_20250201T065141_R020_T40RDP_20250201T104612", "hab_prob": 0.2623515616411492, "p_frcnn_r50_med": 0.8351905345916748, "p_frcnn_mb_med": 0.1065414920449256, "p_ssd_mb_med": 0.4284688830375671}}, {"type": "Feature", "geometry": {"type": "Polygon", "coordinates": [[[55.969999, 26.159342], [55.975162, 26.159342], [55.975162, 26.163928], [55.969999, 26.163928], [55.969999, 26.159342]]]}, "properties": {"chip_id": "S2C_MSIL2A_20250201T065141_R020_T40RDP_20250201T104612_0001", "month_key": "2025-02", "datetime": "2025-02-01 06:51:41.025000+00:00", "tile": "S2C_MSIL2A_20250201T065141_R020_T40RDP_20250201T104612_0001.jpg", "scene_id": "S2C_MSIL2A_20250201T065141_R020_T40RDP_20250201T104612", "hab_prob": 0.2738520087229867, "p_frcnn_r50_med": 0.7459294199943542, "p_frcnn_mb_med": 0.121549904346466, "p_ssd_mb_med": 0.3894159197807312}}, {"type": "Feature", "geometry": {"type": "Polygon", "coordinates": [[[55.969354, 26.158768], [55.975807, 26.158768], [55.975807, 26.164501], [55.969354, 26.164501], [55.969354, 26.158768]]]}, "properties": {"chip_id": "S2C_MSIL2A_20250221T064931_R020_T40RDP_20250221T122212_0000", "month_key": "2025-02", "datetime": "2025-02-21 06:49:31.024000+00:00", "tile": "S2C_MSIL2A_20250221T064931_R020_T40RDP_20250221T122212_0000.jpg", "scene_id": "S2C_MSIL2A_20250221T064931_R020_T40RDP_20250221T122212", "hab_prob": 0.2611030916307349, "p_frcnn_r50_med": 0.8366737961769104, "p_frcnn_mb_med": 0.0743821412324905, "p_ssd_mb_med": 0.4413799047470093}}, {"type": "Feature", "geometry": {"type": "Polygon", "coordinates": [[[55.969999, 26.159342], [55.975162, 26.159342], [55.975162, 26.163928], [55.969999, 26.163928], [55.969999, 26.159342]]]}, "properties": {"chip_id": "S2C_MSIL2A_20250221T064931_R020_T40RDP_20250221T122212_0001", "month_key": "2025-02", "datetime": "2025-02-21 06:49:31.024000+00:00", "tile": "S2C_MSIL2A_20250221T064931_R020_T40RDP_20250221T122212_0001.jpg", "scene_id": "S2C_MSIL2A_20250221T064931_R020_T40RDP_20250221T122212", "hab_prob": 0.2698373932214426, "p_frcnn_r50_med": 0.7220441699028015, "p_frcnn_mb_med": 0.1179720982909202, "p_ssd_mb_med": 0.4019984006881714}}]}