{"type": "FeatureCollection", "features": [{"type": "Feature", "geometry": {"type": "Polygon", "coordinates": [[[55.969354, 26.158768], [55.975807, 26.158768], [55.975807, 26.164501], [55.969354, 26.164501], [55.969354, 26.158768]]]}, "properties": {"chip_id": "S2C_MSIL2A_20250502T064651_R020_T40RDP_20250502T113729_0000", "month_key": "2025-05", "datetime": "2025-05-02 06:46:51.025000+00:00", "tile": "S2C_MSIL2A_20250502T064651_R020_T40RDP_20250502T113729_0000.jpg", "scene_id": "S2C_MSIL2A_20250502T064651_R020_T40RDP_20250502T113729", "hab_prob": 0.3419732996514361, "p_frcnn_r50_med": 0.7935872673988342, "p_frcnn_mb_med": 0.1054239571094513, "p_ssd_mb_med": 0.4546486139297485}}, {"type": "Feature", "geometry": {"type": "Polygon", "coordinates": [[[55.969999, 26.159342], [55.975162, 26.159342], [55.975162, 26.163928], [55.969999, 26.163928], [55.969999, 26.159342]]]}, "properties": {"chip_id": "S2C_MSIL2A_20250502T064651_R020_T40RDP_20250502T113729_0001", "month_key": "2025-05", "datetime": "2025-05-02 06:46:51.025000+00:00", "tile": "S2C_MSIL2A_20250502T064651_R020_T40RDP_20250502T113729_0001.jpg", "scene_id": "S2C_MSIL2A_20250502T064651_R020_T40RDP_20250502T113729", "hab_prob": 0.3152752335119924, "p_frcnn_r50_med": 0.8373280167579651, "p_frcnn_mb_med": 0.0929986983537674, "p_ssd_mb_med": 0.3967410624027252}}, {"type": "Feature", "geometry": {"type": "Polygon", "coordinates": [[[55.969354, 26.158768], [55.975807, 26.158768], [55.975807, 26.164501], [55.969354, 26.164501], [55.969354, 26.158768]]]}, "properties": {"chip_id": "S2C_MSIL2A_20250512T064641_R020_T40RDP_20250512T122920_0000", "month_key": "2025-05", "datetime": "2025-05-12 06:46:41.025000+00:00", "tile": "S2C_MSIL2A_20250512T064641_R020_T40RDP_20250512T122920_0000.jpg", "scene_id": "S2C_MSIL2A_20250512T064641_R020_T40RDP_20250512T122920", "hab_prob": 0.3057098985378815, "p_frcnn_r50_med": 0.9161302447319032, "p_frcnn_mb_med": 0.0793648734688758, "p_ssd_mb_med": 0.4170091152191162}}, {"type": "Feature", "geometry": {"type": "Polygon", "coordinates": [[[55.969999, 26.159342], [55.975162, 26.159342], [55.975162, 26.163928], [55.969999, 26.163928], [55.969999, 26.159342]]]}, "properties": {"chip_id": "S2C_MSIL2A_20250512T064641_R020_T40RDP_20250512T122920_0001", "month_key": "2025-05", "datetime": "2025-05-12 06:46:41.025000+00:00", "tile": "S2C_MSIL2A_20250512T064641_R020_T40RDP_20250512T122920_0001.jpg", "scene_id": "S2C_MSIL2A_20250512T064641_R020_T40RDP_20250512T122920", "hab_prob": 0.3041114971058951, "p_frcnn_r50_med": 0.8110393285751343, "p_frcnn_mb_med": 0.0816456899046897, "p_ssd_mb_med": 0.4134288728237152}}, {"type": "Feature", "geometry": {"type": "Polygon", "coordinates": [[[55.969354, 26.158768], [55.975807, 26.158768], [55.975807, 26.164501], [55.969354, 26.164501], [55.969354, 26.158768]]]}, "properties": {"chip_id": "S2B_MSIL2A_20250517T064629_R020_T40RDP_20250517T092848_0000", "month_key": "2025-05", "datetime": "2025-05-17 06:46:29.024000+00:00", "tile": "S2B_MSIL2A_20250517T064629_R020_T40RDP_20250517T092848_0000.jpg", "scene_id": "S2B_MSIL2A_20250517T064629_R020_T40RDP_20250517T092848", "hab_prob": 0.3167660309518895, "p_frcnn_r50_med": 0.839702844619751, "p_frcnn_mb_med": 0.0968529731035232, "p_ssd_mb_med": 0.4390164017677307}}, {"type": "Feature", "geometry": {"type": "Polygon", "coordinates": [[[55.969999, 26.159342], [55.975162, 26.159342], [55.975162, 26.163928], [55.969999, 26.163928], [55.969999, 26.159342]]]}, "properties": {"chip_id": "S2B_MSIL2A_20250517T064629_R020_T40RDP_20250517T092848_0001", "month_key": "2025-05", "datetime": "2025-05-17 06:46:29.024000+00:00", "tile": "S2B_MSIL2A_20250517T064629_R020_T40RDP_20250517T092848_0001.jpg", "scene_id": "S2B_MSIL2A_20250517T064629_R020_T40RDP_20250517T092848", "hab_prob": 0.3167660309518895, "p_frcnn_r50_med": 0.8121209740638733, "p_frcnn_mb_med": 0.097263678908348, "p_ssd_mb_med": 0.4197789430618286}}, {"type": "Feature", "geometry": {"type": "Polygon", "coordinates": [[[55.969354, 26.158768], [55.975807, 26.158768], [55.975807, 26.164501], [55.969354, 26.164501], [55.969354, 26.158768]]]}, "properties": {"chip_id": "S2B_MSIL2A_20250527T064629_R020_T40RDP_20250527T104922_0000", "month_key": "2025-05", "datetime": "2025-05-27 06:46:29.024000+00:00", "tile": "S2B_MSIL2A_20250527T064629_R020_T40RDP_20250527T104922_0000.jpg", "scene_id": "S2B_MSIL2A_20250527T064629_R020_T40RDP_20250527T104922", "hab_prob": 0.2861978563149692, "p_frcnn_r50_med": 0.8869011998176575, "p_frcnn_mb_med": 0.066564179956913, "p_ssd_mb_med": 0.3876774311065674}}, {"type": "Feature", "geometry": {"type": "Polygon", "coordinates": [[[55.969999, 26.159342], [55.975162, 26.159342], [55.975162, 26.163928], [55.969999, 26.163928], [55.969999, 26.159342]]]}, "properties": {"chip_id": "S2B_MSIL2A_20250527T064629_R020_T40RDP_20250527T104922_0001", "month_key": "2025-05", "datetime": "2025-05-27 06:46:29.024000+00:00", "tile": "S2B_MSIL2A_20250527T064629_R020_T40RDP_20250527T104922_0001.jpg", "scene_id": "S2B_MSIL2A_20250527T064629_R020_T40RDP_20250527T104922", "hab_prob": 0.2873857121116343, "p_frcnn_r50_med": 0.8681935667991638, "p_frcnn_mb_med": 0.1348719298839569, "p_ssd_mb_med": 0.3686173856258392}}]}