{"type": "FeatureCollection", "features": [{"type": "Feature", "geometry": {"type": "Polygon", "coordinates": [[[55.969354, 26.158768], [55.975807, 26.158768], [55.975807, 26.164501], [55.969354, 26.164501], [55.969354, 26.158768]]]}, "properties": {"chip_id": "S2C_MSIL2A_20251108T065121_R020_T40RDP_20251108T102412_0000", "month_key": "2025-11", "datetime": "2025-11-08 06:51:21.025000+00:00", "tile": "S2C_MSIL2A_20251108T065121_R020_T40RDP_20251108T102412_0000.jpg", "scene_id": "S2C_MSIL2A_20251108T065121_R020_T40RDP_20251108T102412", "hab_prob": 0.2771441399635994, "p_frcnn_r50_med": 0.7453706860542297, "p_frcnn_mb_med": 0.1685536056756973, "p_ssd_mb_med": 0.4580251574516296}}, {"type": "Feature", "geometry": {"type": "Polygon", "coordinates": [[[55.969999, 26.159342], [55.975162, 26.159342], [55.975162, 26.163928], [55.969999, 26.163928], [55.969999, 26.159342]]]}, "properties": {"chip_id": "S2C_MSIL2A_20251108T065121_R020_T40RDP_20251108T102412_0001", "month_key": "2025-11", "datetime": "2025-11-08 06:51:21.025000+00:00", "tile": "S2C_MSIL2A_20251108T065121_R020_T40RDP_20251108T102412_0001.jpg", "scene_id": "S2C_MSIL2A_20251108T065121_R020_T40RDP_20251108T102412", "hab_prob": 0.2771441399635994, "p_frcnn_r50_med": 0.5951516628265381, "p_frcnn_mb_med": 0.1090224981307983, "p_ssd_mb_med": 0.4367586672306061}}, {"type": "Feature", "geometry": {"type": "Polygon", "coordinates": [[[55.969354, 26.158768], [55.975807, 26.158768], [55.975807, 26.164501], [55.969354, 26.164501], [55.969354, 26.158768]]]}, "properties": {"chip_id": "S2B_MSIL2A_20251113T065029_R020_T40RDP_20251113T085315_0000", "month_key": "2025-11", "datetime": "2025-11-13 06:50:29.024000+00:00", "tile": "S2B_MSIL2A_20251113T065029_R020_T40RDP_20251113T085315_0000.jpg", "scene_id": "S2B_MSIL2A_20251113T065029_R020_T40RDP_20251113T085315", "hab_prob": 0.2725407705989365, "p_frcnn_r50_med": 0.741644561290741, "p_frcnn_mb_med": 0.1963624060153961, "p_ssd_mb_med": 0.4157824516296386}}, {"type": "Feature", "geometry": {"type": "Polygon", "coordinates": [[[55.969999, 26.159342], [55.975162, 26.159342], [55.975162, 26.163928], [55.969999, 26.163928], [55.969999, 26.159342]]]}, "properties": {"chip_id": "S2B_MSIL2A_20251113T065029_R020_T40RDP_20251113T085315_0001", "month_key": "2025-11", "datetime": "2025-11-13 06:50:29.024000+00:00", "tile": "S2B_MSIL2A_20251113T065029_R020_T40RDP_20251113T085315_0001.jpg", "scene_id": "S2B_MSIL2A_20251113T065029_R020_T40RDP_20251113T085315", "hab_prob": 0.2725407705989365, "p_frcnn_r50_med": 0.675487220287323, "p_frcnn_mb_med": 0.1205581203103065, "p_ssd_mb_med": 0.4170127511024475}}, {"type": "Feature", "geometry": {"type": "Polygon", "coordinates": [[[55.969354, 26.158768], [55.975807, 26.158768], [55.975807, 26.164501], [55.969354, 26.164501], [55.969354, 26.158768]]]}, "properties": {"chip_id": "S2B_MSIL2A_20251123T065109_R020_T40RDP_20251123T084351_0000", "month_key": "2025-11", "datetime": "2025-11-23 06:51:09.024000+00:00", "tile": "S2B_MSIL2A_20251123T065109_R020_T40RDP_20251123T084351_0000.jpg", "scene_id": "S2B_MSIL2A_20251123T065109_R020_T40RDP_20251123T084351", "hab_prob": 0.260374706956225, "p_frcnn_r50_med": 0.8051071166992188, "p_frcnn_mb_med": 0.1776278614997863, "p_ssd_mb_med": 0.4462695121765136}}, {"type": "Feature", "geometry": {"type": "Polygon", "coordinates": [[[55.969999, 26.159342], [55.975162, 26.159342], [55.975162, 26.163928], [55.969999, 26.163928], [55.969999, 26.159342]]]}, "properties": {"chip_id": "S2B_MSIL2A_20251123T065109_R020_T40RDP_20251123T084351_0001", "month_key": "2025-11", "datetime": "2025-11-23 06:51:09.024000+00:00", "tile": "S2B_MSIL2A_20251123T065109_R020_T40RDP_20251123T084351_0001.jpg", "scene_id": "S2B_MSIL2A_20251123T065109_R020_T40RDP_20251123T084351", "hab_prob": 0.260374706956225, "p_frcnn_r50_med": 0.5773414373397827, "p_frcnn_mb_med": 0.1328695863485336, "p_ssd_mb_med": 0.4497594237327575}}, {"type": "Feature", "geometry": {"type": "Polygon", "coordinates": [[[55.969354, 26.158768], [55.975807, 26.158768], [55.975807, 26.164501], [55.969354, 26.164501], [55.969354, 26.158768]]]}, "properties": {"chip_id": "S2C_MSIL2A_20251128T065241_R020_T40RDP_20251128T102011_0000", "month_key": "2025-11", "datetime": "2025-11-28 06:52:41.025000+00:00", "tile": "S2C_MSIL2A_20251128T065241_R020_T40RDP_20251128T102011_0000.jpg", "scene_id": "S2C_MSIL2A_20251128T065241_R020_T40RDP_20251128T102011", "hab_prob": 0.2721965483126475, "p_frcnn_r50_med": 0.74417644739151, "p_frcnn_mb_med": 0.1199588924646377, "p_ssd_mb_med": 0.447752445936203}}, {"type": "Feature", "geometry": {"type": "Polygon", "coordinates": [[[55.969999, 26.159342], [55.975162, 26.159342], [55.975162, 26.163928], [55.969999, 26.163928], [55.969999, 26.159342]]]}, "properties": {"chip_id": "S2C_MSIL2A_20251128T065241_R020_T40RDP_20251128T102011_0001", "month_key": "2025-11", "datetime": "2025-11-28 06:52:41.025000+00:00", "tile": "S2C_MSIL2A_20251128T065241_R020_T40RDP_20251128T102011_0001.jpg", "scene_id": "S2C_MSIL2A_20251128T065241_R020_T40RDP_20251128T102011", "hab_prob": 0.2721965483126475, "p_frcnn_r50_med": 0.5427170991897583, "p_frcnn_mb_med": 0.1639186441898346, "p_ssd_mb_med": 0.4323205649852752}}]}