{"type": "FeatureCollection", "features": [{"type": "Feature", "geometry": {"type": "Polygon", "coordinates": [[[55.969354, 26.158768], [55.975807, 26.158768], [55.975807, 26.164501], [55.969354, 26.164501], [55.969354, 26.158768]]]}, "properties": {"chip_id": "S2B_MSIL2A_20251004T064629_R020_T40RDP_20251004T101955_0000", "month_key": "2025-10", "datetime": "2025-10-04 06:46:29.024000+00:00", "tile": "S2B_MSIL2A_20251004T064629_R020_T40RDP_20251004T101955_0000.jpg", "scene_id": "S2B_MSIL2A_20251004T064629_R020_T40RDP_20251004T101955", "hab_prob": 0.710536649422702, "p_frcnn_r50_med": 0.6914975643157959, "p_frcnn_mb_med": 0.1383008062839508, "p_ssd_mb_med": 0.3703650236129761}}, {"type": "Feature", "geometry": {"type": "Polygon", "coordinates": [[[55.969999, 26.159342], [55.975162, 26.159342], [55.975162, 26.163928], [55.969999, 26.163928], [55.969999, 26.159342]]]}, "properties": {"chip_id": "S2B_MSIL2A_20251004T064629_R020_T40RDP_20251004T101955_0001", "month_key": "2025-10", "datetime": "2025-10-04 06:46:29.024000+00:00", "tile": "S2B_MSIL2A_20251004T064629_R020_T40RDP_20251004T101955_0001.jpg", "scene_id": "S2B_MSIL2A_20251004T064629_R020_T40RDP_20251004T101955", "hab_prob": 0.6983337634020499, "p_frcnn_r50_med": 0.6916540265083313, "p_frcnn_mb_med": 0.1224367320537567, "p_ssd_mb_med": 0.4239026010036468}}, {"type": "Feature", "geometry": {"type": "Polygon", "coordinates": [[[55.969354, 26.158768], [55.975807, 26.158768], [55.975807, 26.164501], [55.969354, 26.164501], [55.969354, 26.158768]]]}, "properties": {"chip_id": "S2B_MSIL2A_20251014T064739_R020_T40RDP_20251014T090606_0000", "month_key": "2025-10", "datetime": "2025-10-14 06:47:39.024000+00:00", "tile": "S2B_MSIL2A_20251014T064739_R020_T40RDP_20251014T090606_0000.jpg", "scene_id": "S2B_MSIL2A_20251014T064739_R020_T40RDP_20251014T090606", "hab_prob": 0.2613764163779585, "p_frcnn_r50_med": 0.7784910202026367, "p_frcnn_mb_med": 0.1132615730166435, "p_ssd_mb_med": 0.36590775847435}}, {"type": "Feature", "geometry": {"type": "Polygon", "coordinates": [[[55.969999, 26.159342], [55.975162, 26.159342], [55.975162, 26.163928], [55.969999, 26.163928], [55.969999, 26.159342]]]}, "properties": {"chip_id": "S2B_MSIL2A_20251014T064739_R020_T40RDP_20251014T090606_0001", "month_key": "2025-10", "datetime": "2025-10-14 06:47:39.024000+00:00", "tile": "S2B_MSIL2A_20251014T064739_R020_T40RDP_20251014T090606_0001.jpg", "scene_id": "S2B_MSIL2A_20251014T064739_R020_T40RDP_20251014T090606", "hab_prob": 0.2595925259728475, "p_frcnn_r50_med": 0.7483723759651184, "p_frcnn_mb_med": 0.1107044368982315, "p_ssd_mb_med": 0.4694646596908569}}, {"type": "Feature", "geometry": {"type": "Polygon", "coordinates": [[[55.969354, 26.158768], [55.975807, 26.158768], [55.975807, 26.164501], [55.969354, 26.164501], [55.969354, 26.158768]]]}, "properties": {"chip_id": "S2B_MSIL2A_20251024T064849_R020_T40RDP_20251024T090047_0000", "month_key": "2025-10", "datetime": "2025-10-24 06:48:49.024000+00:00", "tile": "S2B_MSIL2A_20251024T064849_R020_T40RDP_20251024T090047_0000.jpg", "scene_id": "S2B_MSIL2A_20251024T064849_R020_T40RDP_20251024T090047", "hab_prob": 0.2665558983266109, "p_frcnn_r50_med": 0.7146517038345337, "p_frcnn_mb_med": 0.13311068713665, "p_ssd_mb_med": 0.4307143092155456}}, {"type": "Feature", "geometry": {"type": "Polygon", "coordinates": [[[55.969999, 26.159342], [55.975162, 26.159342], [55.975162, 26.163928], [55.969999, 26.163928], [55.969999, 26.159342]]]}, "properties": {"chip_id": "S2B_MSIL2A_20251024T064849_R020_T40RDP_20251024T090047_0001", "month_key": "2025-10", "datetime": "2025-10-24 06:48:49.024000+00:00", "tile": "S2B_MSIL2A_20251024T064849_R020_T40RDP_20251024T090047_0001.jpg", "scene_id": "S2B_MSIL2A_20251024T064849_R020_T40RDP_20251024T090047", "hab_prob": 0.2665558983266109, "p_frcnn_r50_med": 0.6864697337150574, "p_frcnn_mb_med": 0.1109135076403617, "p_ssd_mb_med": 0.4126722514629364}}, {"type": "Feature", "geometry": {"type": "Polygon", "coordinates": [[[55.969354, 26.158768], [55.975807, 26.158768], [55.975807, 26.164501], [55.969354, 26.164501], [55.969354, 26.158768]]]}, "properties": {"chip_id": "S2C_MSIL2A_20251029T065021_R020_T40RDP_20251029T095012_0000", "month_key": "2025-10", "datetime": "2025-10-29 06:50:21.024000+00:00", "tile": "S2C_MSIL2A_20251029T065021_R020_T40RDP_20251029T095012_0000.jpg", "scene_id": "S2C_MSIL2A_20251029T065021_R020_T40RDP_20251029T095012", "hab_prob": 0.235579880049536, "p_frcnn_r50_med": 0.7069690823554993, "p_frcnn_mb_med": 0.112056203186512, "p_ssd_mb_med": 0.4876786470413208}}, {"type": "Feature", "geometry": {"type": "Polygon", "coordinates": [[[55.969999, 26.159342], [55.975162, 26.159342], [55.975162, 26.163928], [55.969999, 26.163928], [55.969999, 26.159342]]]}, "properties": {"chip_id": "S2C_MSIL2A_20251029T065021_R020_T40RDP_20251029T095012_0001", "month_key": "2025-10", "datetime": "2025-10-29 06:50:21.024000+00:00", "tile": "S2C_MSIL2A_20251029T065021_R020_T40RDP_20251029T095012_0001.jpg", "scene_id": "S2C_MSIL2A_20251029T065021_R020_T40RDP_20251029T095012", "hab_prob": 0.2372516337663045, "p_frcnn_r50_med": 0.5930543541908264, "p_frcnn_mb_med": 0.1214487180113792, "p_ssd_mb_med": 0.3621544539928436}}]}