{"type": "FeatureCollection", "features": [{"type": "Feature", "geometry": {"type": "Polygon", "coordinates": [[[55.969354, 26.158768], [55.975807, 26.158768], [55.975807, 26.164501], [55.969354, 26.164501], [55.969354, 26.158768]]]}, "properties": {"chip_id": "S2B_MSIL2A_20250706T064629_R020_T40RDP_20250706T092816_0000", "month_key": "2025-07", "datetime": "2025-07-06 06:46:29.024000+00:00", "tile": "S2B_MSIL2A_20250706T064629_R020_T40RDP_20250706T092816_0000.jpg", "scene_id": "S2B_MSIL2A_20250706T064629_R020_T40RDP_20250706T092816", "hab_prob": 0.6235563706483706, "p_frcnn_r50_med": 0.7986764311790466, "p_frcnn_mb_med": 0.0626052618026733, "p_ssd_mb_med": 0.4639893770217895}}, {"type": "Feature", "geometry": {"type": "Polygon", "coordinates": [[[55.969999, 26.159342], [55.975162, 26.159342], [55.975162, 26.163928], [55.969999, 26.163928], [55.969999, 26.159342]]]}, "properties": {"chip_id": "S2B_MSIL2A_20250706T064629_R020_T40RDP_20250706T092816_0001", "month_key": "2025-07", "datetime": "2025-07-06 06:46:29.024000+00:00", "tile": "S2B_MSIL2A_20250706T064629_R020_T40RDP_20250706T092816_0001.jpg", "scene_id": "S2B_MSIL2A_20250706T064629_R020_T40RDP_20250706T092816", "hab_prob": 0.6124114963251537, "p_frcnn_r50_med": 0.7909786701202393, "p_frcnn_mb_med": 0.1155981719493866, "p_ssd_mb_med": 0.4165818989276886}}, {"type": "Feature", "geometry": {"type": "Polygon", "coordinates": [[[55.969354, 26.158768], [55.975807, 26.158768], [55.975807, 26.164501], [55.969354, 26.164501], [55.969354, 26.158768]]]}, "properties": {"chip_id": "S2B_MSIL2A_20250716T064629_R020_T40RDP_20250716T090605_0000", "month_key": "2025-07", "datetime": "2025-07-16 06:46:29.024000+00:00", "tile": "S2B_MSIL2A_20250716T064629_R020_T40RDP_20250716T090605_0000.jpg", "scene_id": "S2B_MSIL2A_20250716T064629_R020_T40RDP_20250716T090605", "hab_prob": 0.4070201917559084, "p_frcnn_r50_med": 0.8394358158111572, "p_frcnn_mb_med": 0.0868383795022964, "p_ssd_mb_med": 0.4274712204933166}}, {"type": "Feature", "geometry": {"type": "Polygon", "coordinates": [[[55.969999, 26.159342], [55.975162, 26.159342], [55.975162, 26.163928], [55.969999, 26.163928], [55.969999, 26.159342]]]}, "properties": {"chip_id": "S2B_MSIL2A_20250716T064629_R020_T40RDP_20250716T090605_0001", "month_key": "2025-07", "datetime": "2025-07-16 06:46:29.024000+00:00", "tile": "S2B_MSIL2A_20250716T064629_R020_T40RDP_20250716T090605_0001.jpg", "scene_id": "S2B_MSIL2A_20250716T064629_R020_T40RDP_20250716T090605", "hab_prob": 0.4178751627102432, "p_frcnn_r50_med": 0.7783588171005249, "p_frcnn_mb_med": 0.0986204668879509, "p_ssd_mb_med": 0.3678876459598541}}, {"type": "Feature", "geometry": {"type": "Polygon", "coordinates": [[[55.969354, 26.158768], [55.975807, 26.158768], [55.975807, 26.164501], [55.969354, 26.164501], [55.969354, 26.158768]]]}, "properties": {"chip_id": "S2A_MSIL2A_20250723T065321_R020_T40RDP_20250723T110418_0000", "month_key": "2025-07", "datetime": "2025-07-23 06:53:21.024000+00:00", "tile": "S2A_MSIL2A_20250723T065321_R020_T40RDP_20250723T110418_0000.jpg", "scene_id": "S2A_MSIL2A_20250723T065321_R020_T40RDP_20250723T110418", "hab_prob": 0.4619069141985687, "p_frcnn_r50_med": 0.7938448786735535, "p_frcnn_mb_med": 0.1215476840734481, "p_ssd_mb_med": 0.4051490128040313}}, {"type": "Feature", "geometry": {"type": "Polygon", "coordinates": [[[55.969999, 26.159342], [55.975162, 26.159342], [55.975162, 26.163928], [55.969999, 26.163928], [55.969999, 26.159342]]]}, "properties": {"chip_id": "S2A_MSIL2A_20250723T065321_R020_T40RDP_20250723T110418_0001", "month_key": "2025-07", "datetime": "2025-07-23 06:53:21.024000+00:00", "tile": "S2A_MSIL2A_20250723T065321_R020_T40RDP_20250723T110418_0001.jpg", "scene_id": "S2A_MSIL2A_20250723T065321_R020_T40RDP_20250723T110418", "hab_prob": 0.4736600217452522, "p_frcnn_r50_med": 0.6760654449462891, "p_frcnn_mb_med": 0.0776765421032905, "p_ssd_mb_med": 0.4629103541374206}}, {"type": "Feature", "geometry": {"type": "Polygon", "coordinates": [[[55.969354, 26.158768], [55.975807, 26.158768], [55.975807, 26.164501], [55.969354, 26.164501], [55.969354, 26.158768]]]}, "properties": {"chip_id": "S2B_MSIL2A_20250726T064629_R020_T40RDP_20250726T090550_0000", "month_key": "2025-07", "datetime": "2025-07-26 06:46:29.024000+00:00", "tile": "S2B_MSIL2A_20250726T064629_R020_T40RDP_20250726T090550_0000.jpg", "scene_id": "S2B_MSIL2A_20250726T064629_R020_T40RDP_20250726T090550", "hab_prob": 0.4653437491376479, "p_frcnn_r50_med": 0.836496889591217, "p_frcnn_mb_med": 0.0748974382877349, "p_ssd_mb_med": 0.443919688463211}}, {"type": "Feature", "geometry": {"type": "Polygon", "coordinates": [[[55.969999, 26.159342], [55.975162, 26.159342], [55.975162, 26.163928], [55.969999, 26.163928], [55.969999, 26.159342]]]}, "properties": {"chip_id": "S2B_MSIL2A_20250726T064629_R020_T40RDP_20250726T090550_0001", "month_key": "2025-07", "datetime": "2025-07-26 06:46:29.024000+00:00", "tile": "S2B_MSIL2A_20250726T064629_R020_T40RDP_20250726T090550_0001.jpg", "scene_id": "S2B_MSIL2A_20250726T064629_R020_T40RDP_20250726T090550", "hab_prob": 0.4619069141985687, "p_frcnn_r50_med": 0.8085962533950806, "p_frcnn_mb_med": 0.1035212576389312, "p_ssd_mb_med": 0.4139939546585083}}]}