{"type": "FeatureCollection", "features": [{"type": "Feature", "geometry": {"type": "Polygon", "coordinates": [[[55.969354, 26.158768], [55.975807, 26.158768], [55.975807, 26.164501], [55.969354, 26.164501], [55.969354, 26.158768]]]}, "properties": {"chip_id": "S2B_MSIL2A_20250805T064629_R020_T40RDP_20250805T102045_0000", "month_key": "2025-08", "datetime": "2025-08-05 06:46:29.024000+00:00", "tile": "S2B_MSIL2A_20250805T064629_R020_T40RDP_20250805T102045_0000.jpg", "scene_id": "S2B_MSIL2A_20250805T064629_R020_T40RDP_20250805T102045", "hab_prob": 0.447902248517715, "p_frcnn_r50_med": 0.6129967570304871, "p_frcnn_mb_med": 0.1103366985917091, "p_ssd_mb_med": 0.4308016300201416}}, {"type": "Feature", "geometry": {"type": "Polygon", "coordinates": [[[55.969999, 26.159342], [55.975162, 26.159342], [55.975162, 26.163928], [55.969999, 26.163928], [55.969999, 26.159342]]]}, "properties": {"chip_id": "S2B_MSIL2A_20250805T064629_R020_T40RDP_20250805T102045_0001", "month_key": "2025-08", "datetime": "2025-08-05 06:46:29.024000+00:00", "tile": "S2B_MSIL2A_20250805T064629_R020_T40RDP_20250805T102045_0001.jpg", "scene_id": "S2B_MSIL2A_20250805T064629_R020_T40RDP_20250805T102045", "hab_prob": 0.447902248517715, "p_frcnn_r50_med": 0.5449936985969543, "p_frcnn_mb_med": 0.100793108344078, "p_ssd_mb_med": 0.4092198610305786}}, {"type": "Feature", "geometry": {"type": "Polygon", "coordinates": [[[55.969354, 26.158768], [55.975807, 26.158768], [55.975807, 26.164501], [55.969354, 26.164501], [55.969354, 26.158768]]]}, "properties": {"chip_id": "S2A_MSIL2A_20250812T065321_R020_T40RDP_20250812T093816_0000", "month_key": "2025-08", "datetime": "2025-08-12 06:53:21.024000+00:00", "tile": "S2A_MSIL2A_20250812T065321_R020_T40RDP_20250812T093816_0000.jpg", "scene_id": "S2A_MSIL2A_20250812T065321_R020_T40RDP_20250812T093816", "hab_prob": 0.435579397071927, "p_frcnn_r50_med": 0.800837516784668, "p_frcnn_mb_med": 0.0651767179369926, "p_ssd_mb_med": 0.4714720547199249}}, {"type": "Feature", "geometry": {"type": "Polygon", "coordinates": [[[55.969999, 26.159342], [55.975162, 26.159342], [55.975162, 26.163928], [55.969999, 26.163928], [55.969999, 26.159342]]]}, "properties": {"chip_id": "S2A_MSIL2A_20250812T065321_R020_T40RDP_20250812T093816_0001", "month_key": "2025-08", "datetime": "2025-08-12 06:53:21.024000+00:00", "tile": "S2A_MSIL2A_20250812T065321_R020_T40RDP_20250812T093816_0001.jpg", "scene_id": "S2A_MSIL2A_20250812T065321_R020_T40RDP_20250812T093816", "hab_prob": 0.4321846939227055, "p_frcnn_r50_med": 0.8440693616867065, "p_frcnn_mb_med": 0.0997114777565002, "p_ssd_mb_med": 0.473602145910263}}, {"type": "Feature", "geometry": {"type": "Polygon", "coordinates": [[[55.969354, 26.158768], [55.975807, 26.158768], [55.975807, 26.164501], [55.969354, 26.164501], [55.969354, 26.158768]]]}, "properties": {"chip_id": "S2C_MSIL2A_20250830T064751_R020_T40RDP_20250830T111713_0000", "month_key": "2025-08", "datetime": "2025-08-30 06:47:51.025000+00:00", "tile": "S2C_MSIL2A_20250830T064751_R020_T40RDP_20250830T111713_0000.jpg", "scene_id": "S2C_MSIL2A_20250830T064751_R020_T40RDP_20250830T111713", "hab_prob": 0.5976535980266007, "p_frcnn_r50_med": 0.7495769262313843, "p_frcnn_mb_med": 0.0964083448052406, "p_ssd_mb_med": 0.4638066291809082}}, {"type": "Feature", "geometry": {"type": "Polygon", "coordinates": [[[55.969999, 26.159342], [55.975162, 26.159342], [55.975162, 26.163928], [55.969999, 26.163928], [55.969999, 26.159342]]]}, "properties": {"chip_id": "S2C_MSIL2A_20250830T064751_R020_T40RDP_20250830T111713_0001", "month_key": "2025-08", "datetime": "2025-08-30 06:47:51.025000+00:00", "tile": "S2C_MSIL2A_20250830T064751_R020_T40RDP_20250830T111713_0001.jpg", "scene_id": "S2C_MSIL2A_20250830T064751_R020_T40RDP_20250830T111713", "hab_prob": 0.589598973228009, "p_frcnn_r50_med": 0.7943816184997559, "p_frcnn_mb_med": 0.1084237396717071, "p_ssd_mb_med": 0.4305818974971771}}]}