{"type": "FeatureCollection", "features": [{"type": "Feature", "geometry": {"type": "Polygon", "coordinates": [[[58.39490981725946, 23.589749335126765], [58.41457264121616, 23.589749335126765], [58.41457264121616, 23.607767353144784], [58.39490981725946, 23.607767353144784], [58.39490981725946, 23.589749335126765]]]}, "properties": {"count": 33255, "p": 0.5279996189447946, "p_norm": 1.0, "grid_km": 2.0}}, {"type": "Feature", "geometry": {"type": "Polygon", "coordinates": [[[58.414572641216154, 23.57173131710875], [58.434235465172854, 23.57173131710875], [58.434235465172854, 23.58974933512677], [58.414572641216154, 23.58974933512677], [58.414572641216154, 23.57173131710875]]]}, "properties": {"count": 14489, "p": 0.23004620294365147, "p_norm": 0.43569388061945574, "grid_km": 2.0}}, {"type": "Feature", "geometry": {"type": "Polygon", "coordinates": [[[58.39490981725946, 23.57173131710875], [58.41457264121616, 23.57173131710875], [58.41457264121616, 23.58974933512677], [58.39490981725946, 23.58974933512677], [58.39490981725946, 23.57173131710875]]]}, "properties": {"count": 6138, "p": 0.09745486877411365, "p_norm": 0.18457374830852502, "grid_km": 2.0}}, {"type": "Feature", "geometry": {"type": "Polygon", "coordinates": [[[58.434235465172854, 23.57173131710875], [58.453898289129555, 23.57173131710875], [58.453898289129555, 23.58974933512677], [58.434235465172854, 23.58974933512677], [58.434235465172854, 23.57173131710875]]]}, "properties": {"count": 493, "p": 0.007827509010367877, "p_norm": 0.0148248383701699, "grid_km": 2.0}}, {"type": "Feature", "geometry": {"type": "Polygon", "coordinates": [[[58.414572641216154, 23.589749335126765], [58.434235465172854, 23.589749335126765], [58.434235465172854, 23.607767353144784], [58.414572641216154, 23.607767353144784], [58.414572641216154, 23.589749335126765]]]}, "properties": {"count": 4326, "p": 0.06868520076846132, "p_norm": 0.13008570139828599, "grid_km": 2.0}}, {"type": "Feature", "geometry": {"type": "Polygon", "coordinates": [[[58.414572641216154, 23.55371329909073], [58.434235465172854, 23.55371329909073], [58.434235465172854, 23.57173131710875], [58.414572641216154, 23.57173131710875], [58.414572641216154, 23.55371329909073]]]}, "properties": {"count": 1573, "p": 0.024974993252147405, "p_norm": 0.047301157720643514, "grid_km": 2.0}}, {"type": "Feature", "geometry": {"type": "Polygon", "coordinates": [[[58.434235465172854, 23.589749335126765], [58.453898289129555, 23.589749335126765], [58.453898289129555, 23.607767353144784], [58.434235465172854, 23.607767353144784], [58.434235465172854, 23.589749335126765]]]}, "properties": {"count": 143, "p": 0.0022704539320134005, "p_norm": 0.004300105247331229, "grid_km": 2.0}}, {"type": "Feature", "geometry": {"type": "Polygon", "coordinates": [[[58.414572641216154, 23.607767353144784], [58.434235465172854, 23.607767353144784], [58.434235465172854, 23.625785371162802], [58.414572641216154, 23.625785371162802], [58.414572641216154, 23.607767353144784]]]}, "properties": {"count": 64, "p": 0.0010161472143276756, "p_norm": 0.001924522628176214, "grid_km": 2.0}}, {"type": "Feature", "geometry": {"type": "Polygon", "coordinates": [[[58.453898289129555, 23.589749335126765], [58.473561113086255, 23.589749335126765], [58.473561113086255, 23.607767353144784], [58.453898289129555, 23.607767353144784], [58.453898289129555, 23.589749335126765]]]}, "properties": {"count": 10, "p": 0.00015877300223869934, "p_norm": 0.00030070666065253347, "grid_km": 2.0}}, {"type": "Feature", "geometry": {"type": "Polygon", "coordinates": [[[58.434235465172854, 23.55371329909073], [58.453898289129555, 23.55371329909073], [58.453898289129555, 23.57173131710875], [58.434235465172854, 23.57173131710875], [58.434235465172854, 23.55371329909073]]]}, "properties": {"count": 127, "p": 0.0020164171284314815, "p_norm": 0.0038189745902871748, "grid_km": 2.0}}, {"type": "Feature", "geometry": {"type": "Polygon", "coordinates": [[[58.39490981725946, 23.55371329909073], [58.41457264121616, 23.55371329909073], [58.41457264121616, 23.57173131710875], [58.39490981725946, 23.57173131710875], [58.39490981725946, 23.55371329909073]]]}, "properties": {"count": 966, "p": 0.015337472016258355, "p_norm": 0.029048263419034732, "grid_km": 2.0}}, {"type": "Feature", "geometry": {"type": "Polygon", "coordinates": [[[58.39490981725946, 23.607767353144784], [58.41457264121616, 23.607767353144784], [58.41457264121616, 23.625785371162802], [58.39490981725946, 23.625785371162802], [58.39490981725946, 23.607767353144784]]]}, "properties": {"count": 356, "p": 0.0056523188796976966, "p_norm": 0.010705157119230192, "grid_km": 2.0}}, {"type": "Feature", "geometry": {"type": "Polygon", "coordinates": [[[58.473561113086255, 23.589749335126765], [58.493223937042956, 23.589749335126765], [58.493223937042956, 23.607767353144784], [58.473561113086255, 23.607767353144784], [58.473561113086255, 23.589749335126765]]]}, "properties": {"count": 4, "p": 6.350920089547973e-05, "p_norm": 0.00012028266426101338, "grid_km": 2.0}}, {"type": "Feature", "geometry": {"type": "Polygon", "coordinates": [[[58.434235465172854, 23.607767353144784], [58.453898289129555, 23.607767353144784], [58.453898289129555, 23.625785371162802], [58.434235465172854, 23.625785371162802], [58.434235465172854, 23.607767353144784]]]}, "properties": {"count": 2, "p": 3.1754600447739863e-05, "p_norm": 6.014133213050669e-05, "grid_km": 2.0}}, {"type": "Feature", "geometry": {"type": "Polygon", "coordinates": [[[58.37524699330276, 23.589749335126765], [58.39490981725946, 23.589749335126765], [58.39490981725946, 23.607767353144784], [58.37524699330276, 23.607767353144784], [58.37524699330276, 23.589749335126765]]]}, "properties": {"count": 271, "p": 0.004302748360668752, "p_norm": 0.008149150503683656, "grid_km": 2.0}}, {"type": "Feature", "geometry": {"type": "Polygon", "coordinates": [[[58.37524699330276, 23.607767353144784], [58.39490981725946, 23.607767353144784], [58.39490981725946, 23.625785371162802], [58.37524699330276, 23.625785371162802], [58.37524699330276, 23.607767353144784]]]}, "properties": {"count": 192, "p": 0.0030484416429830273, "p_norm": 0.0057735678845286425, "grid_km": 2.0}}, {"type": "Feature", "geometry": {"type": "Polygon", "coordinates": [[[58.37524699330276, 23.57173131710875], [58.39490981725946, 23.57173131710875], [58.39490981725946, 23.58974933512677], [58.37524699330276, 23.58974933512677], [58.37524699330276, 23.57173131710875]]]}, "properties": {"count": 266, "p": 0.004223361859549402, "p_norm": 0.00799879717335739, "grid_km": 2.0}}, {"type": "Feature", "geometry": {"type": "Polygon", "coordinates": [[[58.37524699330276, 23.55371329909073], [58.39490981725946, 23.55371329909073], [58.39490981725946, 23.57173131710875], [58.37524699330276, 23.57173131710875], [58.37524699330276, 23.55371329909073]]]}, "properties": {"count": 71, "p": 0.0011272883158947652, "p_norm": 0.0021350172906329876, "grid_km": 2.0}}, {"type": "Feature", "geometry": {"type": "Polygon", "coordinates": [[[58.414572641216154, 23.535695281072712], [58.434235465172854, 23.535695281072712], [58.434235465172854, 23.55371329909073], [58.414572641216154, 23.55371329909073], [58.414572641216154, 23.535695281072712]]]}, "properties": {"count": 90, "p": 0.001428957020148294, "p_norm": 0.0027063599458728013, "grid_km": 2.0}}, {"type": "Feature", "geometry": {"type": "Polygon", "coordinates": [[[58.39490981725946, 23.535695281072712], [58.41457264121616, 23.535695281072712], [58.41457264121616, 23.55371329909073], [58.39490981725946, 23.55371329909073], [58.39490981725946, 23.535695281072712]]]}, "properties": {"count": 58, "p": 0.0009208834129844561, "p_norm": 0.0017440986317846941, "grid_km": 2.0}}, {"type": "Feature", "geometry": {"type": "Polygon", "coordinates": [[[58.434235465172854, 23.535695281072712], [58.453898289129555, 23.535695281072712], [58.453898289129555, 23.55371329909073], [58.434235465172854, 23.55371329909073], [58.434235465172854, 23.535695281072712]]]}, "properties": {"count": 11, "p": 0.00017465030246256928, "p_norm": 0.0003307773267177868, "grid_km": 2.0}}, {"type": "Feature", "geometry": {"type": "Polygon", "coordinates": [[[58.39490981725946, 23.625785371162802], [58.41457264121616, 23.625785371162802], [58.41457264121616, 23.64380338918082], [58.39490981725946, 23.64380338918082], [58.39490981725946, 23.625785371162802]]]}, "properties": {"count": 24, "p": 0.0003810552053728784, "p_norm": 0.0007216959855660803, "grid_km": 2.0}}, {"type": "Feature", "geometry": {"type": "Polygon", "coordinates": [[[58.37524699330276, 23.625785371162802], [58.39490981725946, 23.625785371162802], [58.39490981725946, 23.64380338918082], [58.37524699330276, 23.64380338918082], [58.37524699330276, 23.625785371162802]]]}, "properties": {"count": 20, "p": 0.0003175460044773987, "p_norm": 0.0006014133213050669, "grid_km": 2.0}}, {"type": "Feature", "geometry": {"type": "Polygon", "coordinates": [[[58.453898289129555, 23.607767353144784], [58.473561113086255, 23.607767353144784], [58.473561113086255, 23.625785371162802], [58.453898289129555, 23.625785371162802], [58.453898289129555, 23.607767353144784]]]}, "properties": {"count": 1, "p": 1.5877300223869932e-05, "p_norm": 3.0070666065253345e-05, "grid_km": 2.0}}, {"type": "Feature", "geometry": {"type": "Polygon", "coordinates": [[[58.37524699330276, 23.535695281072712], [58.39490981725946, 23.535695281072712], [58.39490981725946, 23.55371329909073], [58.37524699330276, 23.55371329909073], [58.37524699330276, 23.535695281072712]]]}, "properties": {"count": 1, "p": 1.5877300223869932e-05, "p_norm": 3.0070666065253345e-05, "grid_km": 2.0}}, {"type": "Feature", "geometry": {"type": "Polygon", "coordinates": [[[58.35558416934606, 23.607767353144784], [58.37524699330276, 23.607767353144784], [58.37524699330276, 23.625785371162802], [58.35558416934606, 23.625785371162802], [58.35558416934606, 23.607767353144784]]]}, "properties": {"count": 13, "p": 0.00020640490291030914, "p_norm": 0.0003909186588482935, "grid_km": 2.0}}, {"type": "Feature", "geometry": {"type": "Polygon", "coordinates": [[[58.35558416934606, 23.589749335126765], [58.37524699330276, 23.589749335126765], [58.37524699330276, 23.607767353144784], [58.35558416934606, 23.607767353144784], [58.35558416934606, 23.589749335126765]]]}, "properties": {"count": 7, "p": 0.00011114110156708954, "p_norm": 0.00021049466245677342, "grid_km": 2.0}}, {"type": "Feature", "geometry": {"type": "Polygon", "coordinates": [[[58.35558416934606, 23.57173131710875], [58.37524699330276, 23.57173131710875], [58.37524699330276, 23.58974933512677], [58.35558416934606, 23.58974933512677], [58.35558416934606, 23.57173131710875]]]}, "properties": {"count": 4, "p": 6.350920089547973e-05, "p_norm": 0.00012028266426101338, "grid_km": 2.0}}, {"type": "Feature", "geometry": {"type": "Polygon", "coordinates": [[[58.35558416934606, 23.55371329909073], [58.37524699330276, 23.55371329909073], [58.37524699330276, 23.57173131710875], [58.35558416934606, 23.57173131710875], [58.35558416934606, 23.55371329909073]]]}, "properties": {"count": 2, "p": 3.1754600447739863e-05, "p_norm": 6.014133213050669e-05, "grid_km": 2.0}}, {"type": "Feature", "geometry": {"type": "Polygon", "coordinates": [[[58.35558416934606, 23.625785371162802], [58.37524699330276, 23.625785371162802], [58.37524699330276, 23.64380338918082], [58.35558416934606, 23.64380338918082], [58.35558416934606, 23.625785371162802]]]}, "properties": {"count": 2, "p": 3.1754600447739863e-05, "p_norm": 6.014133213050669e-05, "grid_km": 2.0}}, {"type": "Feature", "geometry": {"type": "Polygon", "coordinates": [[[58.453898289129555, 23.57173131710875], [58.473561113086255, 23.57173131710875], [58.473561113086255, 23.58974933512677], [58.453898289129555, 23.58974933512677], [58.453898289129555, 23.57173131710875]]]}, "properties": {"count": 3, "p": 4.76319006716098e-05, "p_norm": 9.021199819576004e-05, "grid_km": 2.0}}, {"type": "Feature", "geometry": {"type": "Polygon", "coordinates": [[[58.414572641216154, 23.625785371162802], [58.434235465172854, 23.625785371162802], [58.434235465172854, 23.64380338918082], [58.414572641216154, 23.64380338918082], [58.414572641216154, 23.625785371162802]]]}, "properties": {"count": 1, "p": 1.5877300223869932e-05, "p_norm": 3.0070666065253345e-05, "grid_km": 2.0}}]}