{"type": "FeatureCollection", "features": [{"type": "Feature", "geometry": {"type": "Polygon", "coordinates": [[[60.53373766584798, 22.007804595254356], [59.47930829383796, 22.491705891623305], [59.40283694228185, 22.53106709565541], [59.37202015788026, 22.55536480818899], [59.36601105051875, 22.561566666119983], [59.360117683262814, 22.56791157661839], [59.308647056180774, 22.65948021023328], [59.29312494458787, 23.02378105907603], [59.55322762955376, 23.325908768611185], [60.39644969757393, 22.696233591413407], [60.6877258477316, 22.05920277414282], [60.53373766584798, 22.007804595254356]]]}, "properties": {"type": "convex_hull"}}, {"type": "Feature", "geometry": {"type": "Polygon", "coordinates": [[[59.36663325214386, 22.542359667300968], [59.348413365685055, 22.560091001641506], [59.34648102918727, 22.571334598454193], [59.336932137251985, 22.582898253249486], [59.33900127154551, 22.59521351516382], [59.33166871348096, 22.606223917313923], [59.336479992577246, 22.627594866624445], [59.3332646669624, 22.63928278443376], [59.31778575568132, 22.632591207389165], [59.307475860913435, 22.63571867977534], [59.29517652950529, 22.655393970639828], [59.297765648486234, 22.668410350742548], [59.30590083545131, 22.673286394160606], [59.320992918042066, 22.67365362622805], [59.33229066252568, 22.66794573850091], [59.35971187817935, 22.677402248217746], [59.365334117654626, 22.684479425082156], [59.35924401861167, 22.701002414839685], [59.36329919478555, 22.712335873005138], [59.374632652951, 22.716391049179013], [59.385582002308965, 22.70916035154436], [59.391922977750944, 22.728115452929398], [59.40223287251883, 22.731242925315573], [59.41216602892794, 22.725582371336582], [59.418502446476396, 22.738415718009858], [59.42663763344147, 22.743291761427916], [59.43720442914782, 22.74118989507835], [59.44345818474352, 22.72943809861009], [59.44947808968524, 22.729491850181518], [59.46498665207402, 22.73620631639153], [59.473790963305746, 22.735087826599855], [59.4799813405561, 22.748836241720774], [59.49299772065883, 22.75142536070172], [59.50132598954985, 22.74459052705854], [59.502275450432236, 22.733570786705645], [59.515154551002894, 22.73274760473035], [59.536326788842786, 22.715678087024063], [59.537882612640125, 22.728429599630758], [59.527756579575104, 22.74101599718581], [59.514990330083236, 22.74601981409841], [59.51286659688976, 22.76033686034407], [59.523125517048314, 22.768756138535004], [59.53810012893547, 22.76189616564014], [59.55566211661616, 22.768656667071735], [59.56459225712543, 22.765461411705378], [59.56946830054349, 22.7573262247403], [59.565858152816155, 22.744893672587125], [59.57091014659638, 22.73265675160613], [59.565892456444686, 22.72321043013896], [59.57542760007699, 22.722217059732145], [59.60472611419928, 22.731090049212565], [59.617140622683756, 22.723649079183975], [59.6177312550873, 22.711626480415276], [59.609502776695166, 22.703789896740798], [59.62029153439669, 22.692961951600438], [59.62259609689965, 22.683761622364944], [59.6205110049031, 22.66687752800178], [59.61211750089984, 22.658981897219476], [59.62178344512885, 22.647913555933886], [59.63289683946221, 22.649204207242853], [59.64936492171447, 22.639423407750236], [59.6556043723471, 22.6273804270694], [59.66650431535837, 22.626388102012776], [59.673619307982115, 22.616941375776303], [59.67476620371455, 22.624564992632056], [59.665969273819435, 22.63260497150659], [59.66293326076815, 22.650302480059338], [59.672098151688836, 22.669051270779807], [59.68005317243841, 22.674785622247445], [59.68181724969017, 22.689863097091724], [59.68995243665525, 22.694739140509782], [59.6992971908284, 22.693365040243435], [59.69819547674015, 22.70320587545125], [59.68834356480944, 22.701532493947067], [59.67938546796115, 22.70751810289751], [59.67867527705443, 22.7219743709067], [59.69388934979348, 22.729131499944266], [59.69633167913012, 22.746272107917953], [59.70270112698583, 22.753299710666038], [59.72656023456939, 22.758126905853256], [59.73740836653001, 22.747912620358864], [59.744191645268465, 22.76026591607836], [59.758647913277656, 22.760976106985076], [59.766088883306246, 22.7485615985006], [59.75785434402882, 22.729070850956226], [59.74752978070968, 22.722882545852393], [59.736868992857325, 22.7263280491923], [59.72167697881468, 22.709805737430294], [59.72583499254204, 22.701138581256593], [59.722707520155865, 22.690828686488715], [59.71457233319079, 22.685952643070657], [59.705829190046614, 22.68704220251151], [59.715812262889436, 22.66833106130845], [59.71404605379171, 22.656424246738116], [59.70642797580741, 22.65077429503951], [59.69475699872909, 22.652399148584422], [59.690245206392945, 22.64872492597163], [59.69248298302556, 22.634057508399998], [59.70231989907367, 22.62127255422087], [59.71799789814767, 22.617210479048072], [59.73075129929712, 22.627111513569126], [59.73415662989004, 22.63072884241396], [59.72282061371561, 22.635853031483094], [59.719895837482824, 22.647529392721825], [59.727066328377845, 22.657197680476838], [59.73778826100361, 22.65825369866785], [59.74611652989463, 22.65141886502467], [59.747190892447364, 22.640770167196095], [59.75993649580783, 22.634565234202295], [59.764191987049465, 22.622434872123545], [59.77654101216629, 22.621998627884583], [59.78371150306131, 22.61233034012957], [59.78160963671174, 22.601763544423225], [59.768353312452994, 22.59012836709256], [59.7536908852956, 22.588167986904594], [59.7573401061459, 22.573238486418123], [59.76937330272061, 22.5697775934851], [59.77518434402666, 22.593773738663], [59.793318382604234, 22.608073365009282], [59.80979167290199, 22.607456207668587], [59.81604117621012, 22.614230208978057], [59.8280056745911, 22.614841630032743], [59.83388287244258, 22.623366925513338], [59.844449668148926, 22.625468791862904], [59.85340776499722, 22.61948318291246], [59.85476957640838, 22.606446152522555], [59.86134901737059, 22.599322076615504], [59.86753937992582, 22.609688520319907], [59.8807468606391, 22.61098934363017], [59.88924762916772, 22.600181060238604], [59.90501745590266, 22.59733262782301], [59.90849616529346, 22.58318616456751], [59.91819398857793, 22.58002862303752], [59.92305187909892, 22.571965906499862], [59.94779241004634, 22.57565098675666], [59.955410488030644, 22.570001035058056], [59.95771991708193, 22.560899766689513], [59.965613895959834, 22.560720481027836], [59.96792864698475, 22.56971341813441], [59.97554672496906, 22.575363369833013], [60.00838361477457, 22.576626008974912], [60.01521844841775, 22.56829774008389], [60.01416243022674, 22.55757580745813], [60.00583416133572, 22.55074097381495], [59.99563907337009, 22.551282605473478], [60.013397641969, 22.540879858851483], [60.01752060112306, 22.53092615494464], [60.011264513039045, 22.51922183736688], [59.98941862865729, 22.511977612032997], [59.967540941500424, 22.516134798245268], [59.96189098980182, 22.523752876229576], [59.96227122263007, 22.53298803498139], [59.957578313736896, 22.53275766898648], [59.957895418125865, 22.516688953259912], [59.95027734014156, 22.511039001561308], [59.94121760990152, 22.51135646506436], [59.940431827129025, 22.497060022627036], [59.92816656836385, 22.490831491816465], [59.92618934532961, 22.478175513718615], [59.915864782010466, 22.47198720861478], [59.902070519267376, 22.47936039566319], [59.90252793318871, 22.50228764934534], [59.89244643100643, 22.508439899735407], [59.888614008058916, 22.522052704665143], [59.88093087508024, 22.519528518600776], [59.877446548611914, 22.517016590920978], [59.89555907101887, 22.49532566189331], [59.89496843861533, 22.483303063124612], [59.88794083586725, 22.476933615268898], [59.87859260871124, 22.476436939107796], [59.87375161037446, 22.466521505392894], [59.864631271460304, 22.461643812962965], [59.855158126130455, 22.46210919875043], [59.847072257872206, 22.46819433134476], [59.84531200096932, 22.447966080749943], [59.83861682932801, 22.43592076239527], [59.83004287967979, 22.431865586221395], [59.8162486169367, 22.439238773269803], [59.81285650857624, 22.465834815626806], [59.82022969562465, 22.47686956985267], [59.833114143526224, 22.47706702152276], [59.80968948142131, 22.507576653141882], [59.812927133963676, 22.47846628181898], [59.80778061141205, 22.46758487412444], [59.796104250173315, 22.464660097891656], [59.7858988790705, 22.472966156116808], [59.782223858572564, 22.463462942993274], [59.77408867160749, 22.458586899575216], [59.751752256158014, 22.459031406505428], [59.74265275445921, 22.465252935196126], [59.725944429145905, 22.456621012845137], [59.716027271847295, 22.4572964006539], [59.72132408518021, 22.43559950948055], [59.71901952267725, 22.426399180245056], [59.68903498430893, 22.413153872933748], [59.67815357661439, 22.418300395485378], [59.671249804506424, 22.435668814353736], [59.65989309511347, 22.426670556994804], [59.64798628054313, 22.42843676609253], [59.642034407717496, 22.443021986559604], [59.63197130916104, 22.45139221399269], [59.634303202205196, 22.482340304757606], [59.645139217246765, 22.492076819570485], [59.6307898461183, 22.50663756753401], [59.63460978643182, 22.53288798013317], [59.62562895202566, 22.521349732579175], [59.61083212965046, 22.523180918963536], [59.60667516218134, 22.48890034437061], [59.59515453974075, 22.477255407978813], [59.584432607114984, 22.4761993897878], [59.574351817992685, 22.483316801964477], [59.556260799904756, 22.47035988122637], [59.52154219805726, 22.46740914230504], [59.51066079036272, 22.47255566485667], [59.506486710216834, 22.485205049941353], [59.49316754323722, 22.489317409247267], [59.48823843434723, 22.480824483928764], [59.477928539579345, 22.47769701154259], [59.45547426695378, 22.48840625363847], [59.449285961849945, 22.498730816957618], [59.4533558513963, 22.510077610546567], [59.44436224555429, 22.516737469094146], [59.41004279425308, 22.512207641224915], [59.39288323837501, 22.521113391748568], [59.384790505621424, 22.536004846131732], [59.36663325214386, 22.542359667300968]], [[59.81005937407843, 22.540618039006105], [59.7917935372923, 22.53786747468259], [59.77606650049489, 22.542467788888732], [59.79579764935925, 22.53214327802049], [59.81076889680558, 22.51541434340186], [59.823445484584944, 22.523719219493355], [59.8192484231538, 22.533740085789248], [59.82311620780494, 22.543412248017972], [59.81512658535492, 22.55004197499027], [59.81005937407843, 22.540618039006105]], [[59.85879113905419, 22.56575109681013], [59.86968077448087, 22.576131073428826], [59.880247570187215, 22.57402920707926], [59.88636599909932, 22.56417571078095], [59.89829578989528, 22.557930699485855], [59.900257851575184, 22.546805772252196], [59.91314341683378, 22.54538976575047], [59.9193023418106, 22.535263267159284], [59.92818455674635, 22.536721808004092], [59.93884175174472, 22.54898837034514], [59.926370964639716, 22.54959887982005], [59.919218626641765, 22.559194697147642], [59.90262815503635, 22.556732706858504], [59.89625870718064, 22.56376030960659], [59.895831434771026, 22.57333997469164], [59.88613361148655, 22.57649751622163], [59.88117607773081, 22.585182066419712], [59.86997304916631, 22.584979061854124], [59.86235654805706, 22.592593630681208], [59.85829931443178, 22.583977800647723], [59.84972536478356, 22.57992262447385], [59.83941547001567, 22.583050096860024], [59.83427298897954, 22.59384923761681], [59.82983501274021, 22.589714336767106], [59.8335345216777, 22.581532805442173], [59.83095558769087, 22.57110733686789], [59.845807171393844, 22.575283211729683], [59.85879113905419, 22.56575109681013]], [[59.976286962470866, 22.548236896640393], [59.97680950796917, 22.5469820998153], [59.97755516926407, 22.547987507683796], [59.976286962470866, 22.548236896640393]], [[59.68256151649893, 22.511440736125426], [59.69273389054179, 22.508494872782656], [59.69122285987541, 22.51785924651482], [59.68256151649893, 22.511440736125426]], [[59.75613192386415, 22.5185986544578], [59.75856282131986, 22.53453169078108], [59.76232374925833, 22.53974153407211], [59.75504376899099, 22.53845239563955], [59.75007417165281, 22.522370975834477], [59.75613192386415, 22.5185986544578]], [[59.76011081228819, 22.512054360202214], [59.7765423220063, 22.49948353962881], [59.785957218601126, 22.499193070136], [59.78769211087172, 22.50267776575657], [59.777581946460614, 22.510702598246244], [59.76830631532214, 22.508342188045813], [59.76011081228819, 22.512054360202214]], [[59.857032665289985, 22.513263070547566], [59.86222651614954, 22.51816675316721], [59.853920307168075, 22.517435515968153], [59.857032665289985, 22.513263070547566]], [[59.6671338907987, 22.478615389853154], [59.6635152202307, 22.45786405487026], [59.673782688304335, 22.447437502130807], [59.68820867894662, 22.46533746289545], [59.6709316316001, 22.471498533978156], [59.66552987737854, 22.493882009221124], [59.65972099137909, 22.489668926631765], [59.6671338907987, 22.478615389853154]], [[59.63821310641606, 22.537756044435177], [59.637830514057164, 22.538191057334863], [59.63734097202066, 22.536934943349767], [59.63821310641606, 22.537756044435177]], [[59.84569025515398, 22.54089883546487], [59.84527797320542, 22.54114594775501], [59.845531243015174, 22.54072339260562], [59.84569025515398, 22.54089883546487]], [[59.74816374262617, 22.591376360114683], [59.74880745869793, 22.59178648562814], [59.74775495015892, 22.591478757297153], [59.74816374262617, 22.591376360114683]], [[59.80337091857183, 22.582486580277997], [59.80564406920925, 22.582391044195294], [59.805767910564434, 22.583092706711962], [59.80337091857183, 22.582486580277997]], [[59.573500747297466, 22.694881191797805], [59.56873648121585, 22.695517748367987], [59.56754955722336, 22.69210335203121], [59.56950139185994, 22.69006547832331], [59.573500747297466, 22.694881191797805]]]}, "properties": {"type": "buffer_union_envelope", "buffer_m": 1500.0, "simplify_m": 300.0}}]}