{"type": "FeatureCollection", "features": [{"type": "Feature", "geometry": {"type": "Polygon", "coordinates": [[[57.938939, 24.327094], [57.945203, 24.327094], [57.945203, 24.332912], [57.938939, 24.332912], [57.938939, 24.327094]]]}, "properties": {"chip_id": "S2B_MSIL2A_20250703T063629_R120_T40QFM_20250703T085417_0000", "month_key": "2025-07", "datetime": "2025-07-03 06:36:29.024000+00:00", "tile": "S2B_MSIL2A_20250703T063629_R120_T40QFM_20250703T085417_0000.jpg", "scene_id": "S2B_MSIL2A_20250703T063629_R120_T40QFM_20250703T085417", "hab_prob": 0.7128706530032151, "p_frcnn_r50_med": 0.9196215867996216, "p_frcnn_mb_med": 0.2000741362571716, "p_ssd_mb_med": 0.4176310300827026}}, {"type": "Feature", "geometry": {"type": "Polygon", "coordinates": [[[57.939565, 24.327676], [57.944577, 24.327676], [57.944577, 24.332331], [57.939565, 24.332331], [57.939565, 24.327676]]]}, "properties": {"chip_id": "S2B_MSIL2A_20250703T063629_R120_T40QFM_20250703T085417_0001", "month_key": "2025-07", "datetime": "2025-07-03 06:36:29.024000+00:00", "tile": "S2B_MSIL2A_20250703T063629_R120_T40QFM_20250703T085417_0001.jpg", "scene_id": "S2B_MSIL2A_20250703T063629_R120_T40QFM_20250703T085417", "hab_prob": 0.7128706530032151, "p_frcnn_r50_med": 0.8729830980300903, "p_frcnn_mb_med": 0.1928749531507492, "p_ssd_mb_med": 0.4501308500766754}}, {"type": "Feature", "geometry": {"type": "Polygon", "coordinates": [[[57.938939, 24.327094], [57.945203, 24.327094], [57.945203, 24.332912], [57.938939, 24.332912], [57.938939, 24.327094]]]}, "properties": {"chip_id": "S2C_MSIL2A_20250728T063651_R120_T40QFM_20250728T111412_0000", "month_key": "2025-07", "datetime": "2025-07-28 06:36:51.025000+00:00", "tile": "S2C_MSIL2A_20250728T063651_R120_T40QFM_20250728T111412_0000.jpg", "scene_id": "S2C_MSIL2A_20250728T063651_R120_T40QFM_20250728T111412", "hab_prob": 0.4018229033398576, "p_frcnn_r50_med": 0.9649354219436646, "p_frcnn_mb_med": 0.3948324620723724, "p_ssd_mb_med": 0.4657322764396667}}, {"type": "Feature", "geometry": {"type": "Polygon", "coordinates": [[[57.939565, 24.327676], [57.944577, 24.327676], [57.944577, 24.332331], [57.939565, 24.332331], [57.939565, 24.327676]]]}, "properties": {"chip_id": "S2C_MSIL2A_20250728T063651_R120_T40QFM_20250728T111412_0001", "month_key": "2025-07", "datetime": "2025-07-28 06:36:51.025000+00:00", "tile": "S2C_MSIL2A_20250728T063651_R120_T40QFM_20250728T111412_0001.jpg", "scene_id": "S2C_MSIL2A_20250728T063651_R120_T40QFM_20250728T111412", "hab_prob": 0.3938241807826287, "p_frcnn_r50_med": 0.898830235004425, "p_frcnn_mb_med": 0.1950660198926925, "p_ssd_mb_med": 0.4586545825004577}}]}