{"type": "FeatureCollection", "features": [{"type": "Feature", "geometry": {"type": "Polygon", "coordinates": [[[57.938939, 24.327094], [57.945203, 24.327094], [57.945203, 24.332912], [57.938939, 24.332912], [57.938939, 24.327094]]]}, "properties": {"chip_id": "S2B_MSIL2A_20250504T063629_R120_T40QFM_20250504T085022_0000", "month_key": "2025-05", "datetime": "2025-05-04 06:36:29.024000+00:00", "tile": "S2B_MSIL2A_20250504T063629_R120_T40QFM_20250504T085022_0000.jpg", "scene_id": "S2B_MSIL2A_20250504T063629_R120_T40QFM_20250504T085022", "hab_prob": 0.3732075880005268, "p_frcnn_r50_med": 0.927634298801422, "p_frcnn_mb_med": 0.2166292369365692, "p_ssd_mb_med": 0.4370398223400116}}, {"type": "Feature", "geometry": {"type": "Polygon", "coordinates": [[[57.939565, 24.327676], [57.944577, 24.327676], [57.944577, 24.332331], [57.939565, 24.332331], [57.939565, 24.327676]]]}, "properties": {"chip_id": "S2B_MSIL2A_20250504T063629_R120_T40QFM_20250504T085022_0001", "month_key": "2025-05", "datetime": "2025-05-04 06:36:29.024000+00:00", "tile": "S2B_MSIL2A_20250504T063629_R120_T40QFM_20250504T085022_0001.jpg", "scene_id": "S2B_MSIL2A_20250504T063629_R120_T40QFM_20250504T085022", "hab_prob": 0.3732075880005268, "p_frcnn_r50_med": 0.9125898480415344, "p_frcnn_mb_med": 0.1689941585063934, "p_ssd_mb_med": 0.4303856194019317}}, {"type": "Feature", "geometry": {"type": "Polygon", "coordinates": [[[57.938939, 24.327094], [57.945203, 24.327094], [57.945203, 24.332912], [57.938939, 24.332912], [57.938939, 24.327094]]]}, "properties": {"chip_id": "S2C_MSIL2A_20250509T063641_R120_T40QFM_20250509T102701_0000", "month_key": "2025-05", "datetime": "2025-05-09 06:36:41.025000+00:00", "tile": "S2C_MSIL2A_20250509T063641_R120_T40QFM_20250509T102701_0000.jpg", "scene_id": "S2C_MSIL2A_20250509T063641_R120_T40QFM_20250509T102701", "hab_prob": 0.4865314818554538, "p_frcnn_r50_med": 0.93216472864151, "p_frcnn_mb_med": 0.2914109528064728, "p_ssd_mb_med": 0.4095412492752075}}, {"type": "Feature", "geometry": {"type": "Polygon", "coordinates": [[[57.939565, 24.327676], [57.944577, 24.327676], [57.944577, 24.332331], [57.939565, 24.332331], [57.939565, 24.327676]]]}, "properties": {"chip_id": "S2C_MSIL2A_20250509T063641_R120_T40QFM_20250509T102701_0001", "month_key": "2025-05", "datetime": "2025-05-09 06:36:41.025000+00:00", "tile": "S2C_MSIL2A_20250509T063641_R120_T40QFM_20250509T102701_0001.jpg", "scene_id": "S2C_MSIL2A_20250509T063641_R120_T40QFM_20250509T102701", "hab_prob": 0.4865314818554538, "p_frcnn_r50_med": 0.930809497833252, "p_frcnn_mb_med": 0.1980610638856887, "p_ssd_mb_med": 0.4316012859344482}}, {"type": "Feature", "geometry": {"type": "Polygon", "coordinates": [[[57.938939, 24.327094], [57.945203, 24.327094], [57.945203, 24.332912], [57.938939, 24.332912], [57.938939, 24.327094]]]}, "properties": {"chip_id": "S2B_MSIL2A_20250524T063629_R120_T40QFM_20250524T090326_0000", "month_key": "2025-05", "datetime": "2025-05-24 06:36:29.024000+00:00", "tile": "S2B_MSIL2A_20250524T063629_R120_T40QFM_20250524T090326_0000.jpg", "scene_id": "S2B_MSIL2A_20250524T063629_R120_T40QFM_20250524T090326", "hab_prob": 0.3528599608598562, "p_frcnn_r50_med": 0.9237291812896729, "p_frcnn_mb_med": 0.3677726686000824, "p_ssd_mb_med": 0.5164666771888733}}, {"type": "Feature", "geometry": {"type": "Polygon", "coordinates": [[[57.939565, 24.327676], [57.944577, 24.327676], [57.944577, 24.332331], [57.939565, 24.332331], [57.939565, 24.327676]]]}, "properties": {"chip_id": "S2B_MSIL2A_20250524T063629_R120_T40QFM_20250524T090326_0001", "month_key": "2025-05", "datetime": "2025-05-24 06:36:29.024000+00:00", "tile": "S2B_MSIL2A_20250524T063629_R120_T40QFM_20250524T090326_0001.jpg", "scene_id": "S2B_MSIL2A_20250524T063629_R120_T40QFM_20250524T090326", "hab_prob": 0.3375441719877295, "p_frcnn_r50_med": 0.8871983885765076, "p_frcnn_mb_med": 0.243915855884552, "p_ssd_mb_med": 0.4323630928993225}}, {"type": "Feature", "geometry": {"type": "Polygon", "coordinates": [[[57.938939, 24.327094], [57.945203, 24.327094], [57.945203, 24.332912], [57.938939, 24.332912], [57.938939, 24.327094]]]}, "properties": {"chip_id": "S2C_MSIL2A_20250529T063641_R120_T40QFM_20250529T100512_0000", "month_key": "2025-05", "datetime": "2025-05-29 06:36:41.025000+00:00", "tile": "S2C_MSIL2A_20250529T063641_R120_T40QFM_20250529T100512_0000.jpg", "scene_id": "S2C_MSIL2A_20250529T063641_R120_T40QFM_20250529T100512", "hab_prob": 0.2930068376943365, "p_frcnn_r50_med": 0.9627795815467834, "p_frcnn_mb_med": 0.3686864674091339, "p_ssd_mb_med": 0.4154354333877563}}, {"type": "Feature", "geometry": {"type": "Polygon", "coordinates": [[[57.939565, 24.327676], [57.944577, 24.327676], [57.944577, 24.332331], [57.939565, 24.332331], [57.939565, 24.327676]]]}, "properties": {"chip_id": "S2C_MSIL2A_20250529T063641_R120_T40QFM_20250529T100512_0001", "month_key": "2025-05", "datetime": "2025-05-29 06:36:41.025000+00:00", "tile": "S2C_MSIL2A_20250529T063641_R120_T40QFM_20250529T100512_0001.jpg", "scene_id": "S2C_MSIL2A_20250529T063641_R120_T40QFM_20250529T100512", "hab_prob": 0.2930068376943365, "p_frcnn_r50_med": 0.915713906288147, "p_frcnn_mb_med": 0.2482280433177948, "p_ssd_mb_med": 0.436292439699173}}]}