{"type": "FeatureCollection", "features": [{"type": "Feature", "geometry": {"type": "Polygon", "coordinates": [[[57.938939, 24.327094], [57.945203, 24.327094], [57.945203, 24.332912], [57.938939, 24.332912], [57.938939, 24.327094]]]}, "properties": {"chip_id": "S2C_MSIL2A_20251105T064101_R120_T40QFM_20251105T093909_0000", "month_key": "2025-11", "datetime": "2025-11-05 06:41:01.025000+00:00", "tile": "S2C_MSIL2A_20251105T064101_R120_T40QFM_20251105T093909_0000.jpg", "scene_id": "S2C_MSIL2A_20251105T064101_R120_T40QFM_20251105T093909", "hab_prob": 0.3591996711179981, "p_frcnn_r50_med": 0.9323248863220216, "p_frcnn_mb_med": 0.2672064900398254, "p_ssd_mb_med": 0.4536439478397369}}, {"type": "Feature", "geometry": {"type": "Polygon", "coordinates": [[[57.939565, 24.327676], [57.944577, 24.327676], [57.944577, 24.332331], [57.939565, 24.332331], [57.939565, 24.327676]]]}, "properties": {"chip_id": "S2C_MSIL2A_20251105T064101_R120_T40QFM_20251105T093909_0001", "month_key": "2025-11", "datetime": "2025-11-05 06:41:01.025000+00:00", "tile": "S2C_MSIL2A_20251105T064101_R120_T40QFM_20251105T093909_0001.jpg", "scene_id": "S2C_MSIL2A_20251105T064101_R120_T40QFM_20251105T093909", "hab_prob": 0.3591996711179981, "p_frcnn_r50_med": 0.8755025267601013, "p_frcnn_mb_med": 0.179657369852066, "p_ssd_mb_med": 0.4317290782928467}}, {"type": "Feature", "geometry": {"type": "Polygon", "coordinates": [[[57.938939, 24.327094], [57.945203, 24.327094], [57.945203, 24.332912], [57.938939, 24.332912], [57.938939, 24.327094]]]}, "properties": {"chip_id": "S2B_MSIL2A_20251110T064009_R120_T40QFM_20251110T091019_0000", "month_key": "2025-11", "datetime": "2025-11-10 06:40:09.024000+00:00", "tile": "S2B_MSIL2A_20251110T064009_R120_T40QFM_20251110T091019_0000.jpg", "scene_id": "S2B_MSIL2A_20251110T064009_R120_T40QFM_20251110T091019", "hab_prob": 0.2250898994259385, "p_frcnn_r50_med": 0.918695628643036, "p_frcnn_mb_med": 0.2576785087585449, "p_ssd_mb_med": 0.4303825497627258}}, {"type": "Feature", "geometry": {"type": "Polygon", "coordinates": [[[57.939565, 24.327676], [57.944577, 24.327676], [57.944577, 24.332331], [57.939565, 24.332331], [57.939565, 24.327676]]]}, "properties": {"chip_id": "S2B_MSIL2A_20251110T064009_R120_T40QFM_20251110T091019_0001", "month_key": "2025-11", "datetime": "2025-11-10 06:40:09.024000+00:00", "tile": "S2B_MSIL2A_20251110T064009_R120_T40QFM_20251110T091019_0001.jpg", "scene_id": "S2B_MSIL2A_20251110T064009_R120_T40QFM_20251110T091019", "hab_prob": 0.2250898994259385, "p_frcnn_r50_med": 0.8641344904899597, "p_frcnn_mb_med": 0.2327898442745208, "p_ssd_mb_med": 0.4467473328113556}}, {"type": "Feature", "geometry": {"type": "Polygon", "coordinates": [[[57.938939, 24.327094], [57.945203, 24.327094], [57.945203, 24.332912], [57.938939, 24.332912], [57.938939, 24.327094]]]}, "properties": {"chip_id": "S2B_MSIL2A_20251120T064049_R120_T40QFM_20251120T084509_0000", "month_key": "2025-11", "datetime": "2025-11-20 06:40:49.024000+00:00", "tile": "S2B_MSIL2A_20251120T064049_R120_T40QFM_20251120T084509_0000.jpg", "scene_id": "S2B_MSIL2A_20251120T064049_R120_T40QFM_20251120T084509", "hab_prob": 0.2363180391942976, "p_frcnn_r50_med": 0.8882916569709778, "p_frcnn_mb_med": 0.2479922771453857, "p_ssd_mb_med": 0.4343251287937164}}, {"type": "Feature", "geometry": {"type": "Polygon", "coordinates": [[[57.939565, 24.327676], [57.944577, 24.327676], [57.944577, 24.332331], [57.939565, 24.332331], [57.939565, 24.327676]]]}, "properties": {"chip_id": "S2B_MSIL2A_20251120T064049_R120_T40QFM_20251120T084509_0001", "month_key": "2025-11", "datetime": "2025-11-20 06:40:49.024000+00:00", "tile": "S2B_MSIL2A_20251120T064049_R120_T40QFM_20251120T084509_0001.jpg", "scene_id": "S2B_MSIL2A_20251120T064049_R120_T40QFM_20251120T084509", "hab_prob": 0.2372013793685421, "p_frcnn_r50_med": 0.8343859314918518, "p_frcnn_mb_med": 0.1669186949729919, "p_ssd_mb_med": 0.4123533070087433}}, {"type": "Feature", "geometry": {"type": "Polygon", "coordinates": [[[57.938939, 24.327094], [57.945203, 24.327094], [57.945203, 24.332912], [57.938939, 24.332912], [57.938939, 24.327094]]]}, "properties": {"chip_id": "S2C_MSIL2A_20251125T064231_R120_T40QFM_20251125T110208_0000", "month_key": "2025-11", "datetime": "2025-11-25 06:42:31.025000+00:00", "tile": "S2C_MSIL2A_20251125T064231_R120_T40QFM_20251125T110208_0000.jpg", "scene_id": "S2C_MSIL2A_20251125T064231_R120_T40QFM_20251125T110208", "hab_prob": 0.2141231483451869, "p_frcnn_r50_med": 0.9198610186576844, "p_frcnn_mb_med": 0.2571291923522949, "p_ssd_mb_med": 0.3806516528129577}}, {"type": "Feature", "geometry": {"type": "Polygon", "coordinates": [[[57.939565, 24.327676], [57.944577, 24.327676], [57.944577, 24.332331], [57.939565, 24.332331], [57.939565, 24.327676]]]}, "properties": {"chip_id": "S2C_MSIL2A_20251125T064231_R120_T40QFM_20251125T110208_0001", "month_key": "2025-11", "datetime": "2025-11-25 06:42:31.025000+00:00", "tile": "S2C_MSIL2A_20251125T064231_R120_T40QFM_20251125T110208_0001.jpg", "scene_id": "S2C_MSIL2A_20251125T064231_R120_T40QFM_20251125T110208", "hab_prob": 0.2341547168081495, "p_frcnn_r50_med": 0.8577101826667786, "p_frcnn_mb_med": 0.1535229235887527, "p_ssd_mb_med": 0.4163865745067596}}]}