{"type": "FeatureCollection", "features": [{"type": "Feature", "geometry": {"type": "Polygon", "coordinates": [[[57.938939, 24.327094], [57.945203, 24.327094], [57.945203, 24.332912], [57.938939, 24.332912], [57.938939, 24.327094]]]}, "properties": {"chip_id": "S2C_MSIL2A_20250906T063641_R120_T40QFM_20250906T111016_0000", "month_key": "2025-09", "datetime": "2025-09-06 06:36:41.025000+00:00", "tile": "S2C_MSIL2A_20250906T063641_R120_T40QFM_20250906T111016_0000.jpg", "scene_id": "S2C_MSIL2A_20250906T063641_R120_T40QFM_20250906T111016", "hab_prob": 0.633964822712462, "p_frcnn_r50_med": 0.9484768509864808, "p_frcnn_mb_med": 0.4119552671909332, "p_ssd_mb_med": 0.4460127353668213}}, {"type": "Feature", "geometry": {"type": "Polygon", "coordinates": [[[57.939565, 24.327676], [57.944577, 24.327676], [57.944577, 24.332331], [57.939565, 24.332331], [57.939565, 24.327676]]]}, "properties": {"chip_id": "S2C_MSIL2A_20250906T063641_R120_T40QFM_20250906T111016_0001", "month_key": "2025-09", "datetime": "2025-09-06 06:36:41.025000+00:00", "tile": "S2C_MSIL2A_20250906T063641_R120_T40QFM_20250906T111016_0001.jpg", "scene_id": "S2C_MSIL2A_20250906T063641_R120_T40QFM_20250906T111016", "hab_prob": 0.633964822712462, "p_frcnn_r50_med": 0.928535521030426, "p_frcnn_mb_med": 0.2011133283376693, "p_ssd_mb_med": 0.4291363656520843}}, {"type": "Feature", "geometry": {"type": "Polygon", "coordinates": [[[57.938939, 24.327094], [57.945203, 24.327094], [57.945203, 24.332912], [57.938939, 24.332912], [57.938939, 24.327094]]]}, "properties": {"chip_id": "S2C_MSIL2A_20250916T063641_R120_T40QFM_20250916T120613_0000", "month_key": "2025-09", "datetime": "2025-09-16 06:36:41.025000+00:00", "tile": "S2C_MSIL2A_20250916T063641_R120_T40QFM_20250916T120613_0000.jpg", "scene_id": "S2C_MSIL2A_20250916T063641_R120_T40QFM_20250916T120613", "hab_prob": 0.4157683938779647, "p_frcnn_r50_med": 0.9366585612297058, "p_frcnn_mb_med": 0.3328191339969635, "p_ssd_mb_med": 0.4257089495658874}}, {"type": "Feature", "geometry": {"type": "Polygon", "coordinates": [[[57.939565, 24.327676], [57.944577, 24.327676], [57.944577, 24.332331], [57.939565, 24.332331], [57.939565, 24.327676]]]}, "properties": {"chip_id": "S2C_MSIL2A_20250916T063641_R120_T40QFM_20250916T120613_0001", "month_key": "2025-09", "datetime": "2025-09-16 06:36:41.025000+00:00", "tile": "S2C_MSIL2A_20250916T063641_R120_T40QFM_20250916T120613_0001.jpg", "scene_id": "S2C_MSIL2A_20250916T063641_R120_T40QFM_20250916T120613", "hab_prob": 0.4157683938779647, "p_frcnn_r50_med": 0.9049962162971495, "p_frcnn_mb_med": 0.1926081478595733, "p_ssd_mb_med": 0.4529978036880493}}, {"type": "Feature", "geometry": {"type": "Polygon", "coordinates": [[[57.938939, 24.327094], [57.945203, 24.327094], [57.945203, 24.332912], [57.938939, 24.332912], [57.938939, 24.327094]]]}, "properties": {"chip_id": "S2A_MSIL2A_20250918T064321_R120_T40QFM_20250918T102713_0000", "month_key": "2025-09", "datetime": "2025-09-18 06:43:21.024000+00:00", "tile": "S2A_MSIL2A_20250918T064321_R120_T40QFM_20250918T102713_0000.jpg", "scene_id": "S2A_MSIL2A_20250918T064321_R120_T40QFM_20250918T102713", "hab_prob": 0.4557000901554843, "p_frcnn_r50_med": 0.9339115023612976, "p_frcnn_mb_med": 0.4242390096187591, "p_ssd_mb_med": 0.4736838340759277}}, {"type": "Feature", "geometry": {"type": "Polygon", "coordinates": [[[57.939565, 24.327676], [57.944577, 24.327676], [57.944577, 24.332331], [57.939565, 24.332331], [57.939565, 24.327676]]]}, "properties": {"chip_id": "S2A_MSIL2A_20250918T064321_R120_T40QFM_20250918T102713_0001", "month_key": "2025-09", "datetime": "2025-09-18 06:43:21.024000+00:00", "tile": "S2A_MSIL2A_20250918T064321_R120_T40QFM_20250918T102713_0001.jpg", "scene_id": "S2A_MSIL2A_20250918T064321_R120_T40QFM_20250918T102713", "hab_prob": 0.4434873106673753, "p_frcnn_r50_med": 0.8944970965385437, "p_frcnn_mb_med": 0.2053701281547546, "p_ssd_mb_med": 0.4322940409183502}}, {"type": "Feature", "geometry": {"type": "Polygon", "coordinates": [[[57.938939, 24.327094], [57.945203, 24.327094], [57.945203, 24.332912], [57.938939, 24.332912], [57.938939, 24.327094]]]}, "properties": {"chip_id": "S2C_MSIL2A_20250926T063641_R120_T40QFM_20250926T114413_0000", "month_key": "2025-09", "datetime": "2025-09-26 06:36:41.025000+00:00", "tile": "S2C_MSIL2A_20250926T063641_R120_T40QFM_20250926T114413_0000.jpg", "scene_id": "S2C_MSIL2A_20250926T063641_R120_T40QFM_20250926T114413", "hab_prob": 0.3117878913091489, "p_frcnn_r50_med": 0.9341005682945251, "p_frcnn_mb_med": 0.3796005249023437, "p_ssd_mb_med": 0.4374164342880249}}, {"type": "Feature", "geometry": {"type": "Polygon", "coordinates": [[[57.939565, 24.327676], [57.944577, 24.327676], [57.944577, 24.332331], [57.939565, 24.332331], [57.939565, 24.327676]]]}, "properties": {"chip_id": "S2C_MSIL2A_20250926T063641_R120_T40QFM_20250926T114413_0001", "month_key": "2025-09", "datetime": "2025-09-26 06:36:41.025000+00:00", "tile": "S2C_MSIL2A_20250926T063641_R120_T40QFM_20250926T114413_0001.jpg", "scene_id": "S2C_MSIL2A_20250926T063641_R120_T40QFM_20250926T114413", "hab_prob": 0.3117878913091489, "p_frcnn_r50_med": 0.8885445594787598, "p_frcnn_mb_med": 0.2055476009845733, "p_ssd_mb_med": 0.4086419641971588}}]}