{"type": "FeatureCollection", "features": [{"type": "Feature", "geometry": {"type": "Polygon", "coordinates": [[[57.938939, 24.327094], [57.945203, 24.327094], [57.945203, 24.332912], [57.938939, 24.332912], [57.938939, 24.327094]]]}, "properties": {"chip_id": "S2B_MSIL2A_20250404T063629_R120_T40QFM_20250404T084432_0000", "month_key": "2025-04", "datetime": "2025-04-04 06:36:29.024000+00:00", "tile": "S2B_MSIL2A_20250404T063629_R120_T40QFM_20250404T084432_0000.jpg", "scene_id": "S2B_MSIL2A_20250404T063629_R120_T40QFM_20250404T084432", "hab_prob": 0.4628097211839465, "p_frcnn_r50_med": 0.9355997443199158, "p_frcnn_mb_med": 0.3046043515205383, "p_ssd_mb_med": 0.4525629580020904}}, {"type": "Feature", "geometry": {"type": "Polygon", "coordinates": [[[57.939565, 24.327676], [57.944577, 24.327676], [57.944577, 24.332331], [57.939565, 24.332331], [57.939565, 24.327676]]]}, "properties": {"chip_id": "S2B_MSIL2A_20250404T063629_R120_T40QFM_20250404T084432_0001", "month_key": "2025-04", "datetime": "2025-04-04 06:36:29.024000+00:00", "tile": "S2B_MSIL2A_20250404T063629_R120_T40QFM_20250404T084432_0001.jpg", "scene_id": "S2B_MSIL2A_20250404T063629_R120_T40QFM_20250404T084432", "hab_prob": 0.4628097211839465, "p_frcnn_r50_med": 0.8874642252922058, "p_frcnn_mb_med": 0.1721105128526687, "p_ssd_mb_med": 0.439056247472763}}, {"type": "Feature", "geometry": {"type": "Polygon", "coordinates": [[[57.938939, 24.327094], [57.945203, 24.327094], [57.945203, 24.332912], [57.938939, 24.332912], [57.938939, 24.327094]]]}, "properties": {"chip_id": "S2C_MSIL2A_20250409T063651_R120_T40QFM_20250409T120915_0000", "month_key": "2025-04", "datetime": "2025-04-09 06:36:51.025000+00:00", "tile": "S2C_MSIL2A_20250409T063651_R120_T40QFM_20250409T120915_0000.jpg", "scene_id": "S2C_MSIL2A_20250409T063651_R120_T40QFM_20250409T120915", "hab_prob": 0.3831747873627533, "p_frcnn_r50_med": 0.9178889989852904, "p_frcnn_mb_med": 0.2838694453239441, "p_ssd_mb_med": 0.3865508139133453}}, {"type": "Feature", "geometry": {"type": "Polygon", "coordinates": [[[57.939565, 24.327676], [57.944577, 24.327676], [57.944577, 24.332331], [57.939565, 24.332331], [57.939565, 24.327676]]]}, "properties": {"chip_id": "S2C_MSIL2A_20250409T063651_R120_T40QFM_20250409T120915_0001", "month_key": "2025-04", "datetime": "2025-04-09 06:36:51.025000+00:00", "tile": "S2C_MSIL2A_20250409T063651_R120_T40QFM_20250409T120915_0001.jpg", "scene_id": "S2C_MSIL2A_20250409T063651_R120_T40QFM_20250409T120915", "hab_prob": 0.4107553345368313, "p_frcnn_r50_med": 0.8815340995788574, "p_frcnn_mb_med": 0.228665292263031, "p_ssd_mb_med": 0.4317149519920349}}, {"type": "Feature", "geometry": {"type": "Polygon", "coordinates": [[[57.938939, 24.327094], [57.945203, 24.327094], [57.945203, 24.332912], [57.938939, 24.332912], [57.938939, 24.327094]]]}, "properties": {"chip_id": "S2C_MSIL2A_20250419T063651_R120_T40QFM_20250419T115613_0000", "month_key": "2025-04", "datetime": "2025-04-19 06:36:51.025000+00:00", "tile": "S2C_MSIL2A_20250419T063651_R120_T40QFM_20250419T115613_0000.jpg", "scene_id": "S2C_MSIL2A_20250419T063651_R120_T40QFM_20250419T115613", "hab_prob": 0.3658958645039072, "p_frcnn_r50_med": 0.961595058441162, "p_frcnn_mb_med": 0.2404908835887909, "p_ssd_mb_med": 0.3784237802028656}}, {"type": "Feature", "geometry": {"type": "Polygon", "coordinates": [[[57.939565, 24.327676], [57.944577, 24.327676], [57.944577, 24.332331], [57.939565, 24.332331], [57.939565, 24.327676]]]}, "properties": {"chip_id": "S2C_MSIL2A_20250419T063651_R120_T40QFM_20250419T115613_0001", "month_key": "2025-04", "datetime": "2025-04-19 06:36:51.025000+00:00", "tile": "S2C_MSIL2A_20250419T063651_R120_T40QFM_20250419T115613_0001.jpg", "scene_id": "S2C_MSIL2A_20250419T063651_R120_T40QFM_20250419T115613", "hab_prob": 0.3930251580676414, "p_frcnn_r50_med": 0.9304384589195251, "p_frcnn_mb_med": 0.1703116297721862, "p_ssd_mb_med": 0.4115114510059356}}, {"type": "Feature", "geometry": {"type": "Polygon", "coordinates": [[[57.938939, 24.327094], [57.945203, 24.327094], [57.945203, 24.332912], [57.938939, 24.332912], [57.938939, 24.327094]]]}, "properties": {"chip_id": "S2C_MSIL2A_20250429T063651_R120_T40QFM_20250429T115214_0000", "month_key": "2025-04", "datetime": "2025-04-29 06:36:51.025000+00:00", "tile": "S2C_MSIL2A_20250429T063651_R120_T40QFM_20250429T115214_0000.jpg", "scene_id": "S2C_MSIL2A_20250429T063651_R120_T40QFM_20250429T115214", "hab_prob": 0.4195545011561246, "p_frcnn_r50_med": 0.9376870393753052, "p_frcnn_mb_med": 0.3569183945655823, "p_ssd_mb_med": 0.4247205555438995}}, {"type": "Feature", "geometry": {"type": "Polygon", "coordinates": [[[57.939565, 24.327676], [57.944577, 24.327676], [57.944577, 24.332331], [57.939565, 24.332331], [57.939565, 24.327676]]]}, "properties": {"chip_id": "S2C_MSIL2A_20250429T063651_R120_T40QFM_20250429T115214_0001", "month_key": "2025-04", "datetime": "2025-04-29 06:36:51.025000+00:00", "tile": "S2C_MSIL2A_20250429T063651_R120_T40QFM_20250429T115214_0001.jpg", "scene_id": "S2C_MSIL2A_20250429T063651_R120_T40QFM_20250429T115214", "hab_prob": 0.3917759545983016, "p_frcnn_r50_med": 0.9100776314735411, "p_frcnn_mb_med": 0.2670440673828125, "p_ssd_mb_med": 0.3690851330757141}}]}