{"type": "FeatureCollection", "features": [{"type": "Feature", "geometry": {"type": "Polygon", "coordinates": [[[57.938939, 24.327094], [57.945203, 24.327094], [57.945203, 24.332912], [57.938939, 24.332912], [57.938939, 24.327094]]]}, "properties": {"chip_id": "S2B_MSIL2A_20250802T063629_R120_T40QFM_20250802T085837_0000", "month_key": "2025-08", "datetime": "2025-08-02 06:36:29.024000+00:00", "tile": "S2B_MSIL2A_20250802T063629_R120_T40QFM_20250802T085837_0000.jpg", "scene_id": "S2B_MSIL2A_20250802T063629_R120_T40QFM_20250802T085837", "hab_prob": 0.3418997611574835, "p_frcnn_r50_med": 0.9552568197250366, "p_frcnn_mb_med": 0.33745276927948, "p_ssd_mb_med": 0.4360995888710022}}, {"type": "Feature", "geometry": {"type": "Polygon", "coordinates": [[[57.939565, 24.327676], [57.944577, 24.327676], [57.944577, 24.332331], [57.939565, 24.332331], [57.939565, 24.327676]]]}, "properties": {"chip_id": "S2B_MSIL2A_20250802T063629_R120_T40QFM_20250802T085837_0001", "month_key": "2025-08", "datetime": "2025-08-02 06:36:29.024000+00:00", "tile": "S2B_MSIL2A_20250802T063629_R120_T40QFM_20250802T085837_0001.jpg", "scene_id": "S2B_MSIL2A_20250802T063629_R120_T40QFM_20250802T085837", "hab_prob": 0.3418997611574835, "p_frcnn_r50_med": 0.9161693453788756, "p_frcnn_mb_med": 0.2224362194538116, "p_ssd_mb_med": 0.4090496003627777}}, {"type": "Feature", "geometry": {"type": "Polygon", "coordinates": [[[57.938939, 24.327094], [57.945203, 24.327094], [57.945203, 24.332912], [57.938939, 24.332912], [57.938939, 24.327094]]]}, "properties": {"chip_id": "S2B_MSIL2A_20250812T063629_R120_T40QFM_20250812T103027_0000", "month_key": "2025-08", "datetime": "2025-08-12 06:36:29.024000+00:00", "tile": "S2B_MSIL2A_20250812T063629_R120_T40QFM_20250812T103027_0000.jpg", "scene_id": "S2B_MSIL2A_20250812T063629_R120_T40QFM_20250812T103027", "hab_prob": 0.464493718073337, "p_frcnn_r50_med": 0.909626841545105, "p_frcnn_mb_med": 0.3716792464256286, "p_ssd_mb_med": 0.3922775387763977}}, {"type": "Feature", "geometry": {"type": "Polygon", "coordinates": [[[57.939565, 24.327676], [57.944577, 24.327676], [57.944577, 24.332331], [57.939565, 24.332331], [57.939565, 24.327676]]]}, "properties": {"chip_id": "S2B_MSIL2A_20250812T063629_R120_T40QFM_20250812T103027_0001", "month_key": "2025-08", "datetime": "2025-08-12 06:36:29.024000+00:00", "tile": "S2B_MSIL2A_20250812T063629_R120_T40QFM_20250812T103027_0001.jpg", "scene_id": "S2B_MSIL2A_20250812T063629_R120_T40QFM_20250812T103027", "hab_prob": 0.464493718073337, "p_frcnn_r50_med": 0.9387229084968568, "p_frcnn_mb_med": 0.180904135107994, "p_ssd_mb_med": 0.4018678665161133}}, {"type": "Feature", "geometry": {"type": "Polygon", "coordinates": [[[57.938939, 24.327094], [57.945203, 24.327094], [57.945203, 24.332912], [57.938939, 24.332912], [57.938939, 24.327094]]]}, "properties": {"chip_id": "S2B_MSIL2A_20250822T063629_R120_T40QFM_20250822T090714_0000", "month_key": "2025-08", "datetime": "2025-08-22 06:36:29.024000+00:00", "tile": "S2B_MSIL2A_20250822T063629_R120_T40QFM_20250822T090714_0000.jpg", "scene_id": "S2B_MSIL2A_20250822T063629_R120_T40QFM_20250822T090714", "hab_prob": 0.2545527653897783, "p_frcnn_r50_med": 0.8770403861999512, "p_frcnn_mb_med": 0.2645753622055053, "p_ssd_mb_med": 0.4064696133136749}}, {"type": "Feature", "geometry": {"type": "Polygon", "coordinates": [[[57.939565, 24.327676], [57.944577, 24.327676], [57.944577, 24.332331], [57.939565, 24.332331], [57.939565, 24.327676]]]}, "properties": {"chip_id": "S2B_MSIL2A_20250822T063629_R120_T40QFM_20250822T090714_0001", "month_key": "2025-08", "datetime": "2025-08-22 06:36:29.024000+00:00", "tile": "S2B_MSIL2A_20250822T063629_R120_T40QFM_20250822T090714_0001.jpg", "scene_id": "S2B_MSIL2A_20250822T063629_R120_T40QFM_20250822T090714", "hab_prob": 0.2545527653897783, "p_frcnn_r50_med": 0.9220975041389464, "p_frcnn_mb_med": 0.4204683303833008, "p_ssd_mb_med": 0.4541591107845306}}, {"type": "Feature", "geometry": {"type": "Polygon", "coordinates": [[[57.938939, 24.327094], [57.945203, 24.327094], [57.945203, 24.332912], [57.938939, 24.332912], [57.938939, 24.327094]]]}, "properties": {"chip_id": "S2A_MSIL2A_20250829T064321_R120_T40QFM_20250829T092116_0000", "month_key": "2025-08", "datetime": "2025-08-29 06:43:21.024000+00:00", "tile": "S2A_MSIL2A_20250829T064321_R120_T40QFM_20250829T092116_0000.jpg", "scene_id": "S2A_MSIL2A_20250829T064321_R120_T40QFM_20250829T092116", "hab_prob": 0.6023822909501747, "p_frcnn_r50_med": 0.9465787410736084, "p_frcnn_mb_med": 0.2526137828826904, "p_ssd_mb_med": 0.4276483952999115}}, {"type": "Feature", "geometry": {"type": "Polygon", "coordinates": [[[57.939565, 24.327676], [57.944577, 24.327676], [57.944577, 24.332331], [57.939565, 24.332331], [57.939565, 24.327676]]]}, "properties": {"chip_id": "S2A_MSIL2A_20250829T064321_R120_T40QFM_20250829T092116_0001", "month_key": "2025-08", "datetime": "2025-08-29 06:43:21.024000+00:00", "tile": "S2A_MSIL2A_20250829T064321_R120_T40QFM_20250829T092116_0001.jpg", "scene_id": "S2A_MSIL2A_20250829T064321_R120_T40QFM_20250829T092116", "hab_prob": 0.6023822909501747, "p_frcnn_r50_med": 0.93211168050766, "p_frcnn_mb_med": 0.2053761482238769, "p_ssd_mb_med": 0.4516710042953491}}]}