{"type": "FeatureCollection", "features": [{"type": "Feature", "geometry": {"type": "Polygon", "coordinates": [[[57.94520345997246, 24.32709366534837], [57.9389385244646, 24.32709366534837], [57.9389385244646, 24.332912449992413], [57.94520345997246, 24.332912449992413], [57.94520345997246, 24.32709366534837]]]}, "properties": {"chip_id": "S2C_MSIL2A_20250208T064101_R120_T40QFM_20250208T103712_0000", "month_key": "2025-02", "datetime": "2025-02-08 06:41:01.025000+00:00", "tile": "S2C_MSIL2A_20250208T064101_R120_T40QFM_20250208T103712_0000.jpg", "scene_id": "S2C_MSIL2A_20250208T064101_R120_T40QFM_20250208T103712", "hab_prob": 0.4226266320372513, "p_frcnn_r50_med": 0.933179259300232, "p_frcnn_mb_med": 0.2040901035070419, "p_ssd_mb_med": 0.4277477562427521}}, {"type": "Feature", "geometry": {"type": "Polygon", "coordinates": [[[57.94457699216178, 24.327675554863067], [57.939565043757696, 24.327675554863067], [57.939565043757696, 24.332330582580834], [57.94457699216178, 24.332330582580834], [57.94457699216178, 24.327675554863067]]]}, "properties": {"chip_id": "S2C_MSIL2A_20250208T064101_R120_T40QFM_20250208T103712_0001", "month_key": "2025-02", "datetime": "2025-02-08 06:41:01.025000+00:00", "tile": "S2C_MSIL2A_20250208T064101_R120_T40QFM_20250208T103712_0001.jpg", "scene_id": "S2C_MSIL2A_20250208T064101_R120_T40QFM_20250208T103712", "hab_prob": 0.4226266320372513, "p_frcnn_r50_med": 0.9311983585357666, "p_frcnn_mb_med": 0.1995153278112411, "p_ssd_mb_med": 0.4059529304504394}}, {"type": "Feature", "geometry": {"type": "Polygon", "coordinates": [[[57.94520345997246, 24.32709366534837], [57.9389385244646, 24.32709366534837], [57.9389385244646, 24.332912449992413], [57.94520345997246, 24.332912449992413], [57.94520345997246, 24.32709366534837]]]}, "properties": {"chip_id": "S2B_MSIL2A_20250213T063909_R120_T40QFM_20250213T085252_0000", "month_key": "2025-02", "datetime": "2025-02-13 06:39:09.024000+00:00", "tile": "S2B_MSIL2A_20250213T063909_R120_T40QFM_20250213T085252_0000.jpg", "scene_id": "S2B_MSIL2A_20250213T063909_R120_T40QFM_20250213T085252", "hab_prob": 0.23215167559979, "p_frcnn_r50_med": 0.9423370361328124, "p_frcnn_mb_med": 0.2059819251298904, "p_ssd_mb_med": 0.435160756111145}}, {"type": "Feature", "geometry": {"type": "Polygon", "coordinates": [[[57.94457699216178, 24.327675554863067], [57.939565043757696, 24.327675554863067], [57.939565043757696, 24.332330582580834], [57.94457699216178, 24.332330582580834], [57.94457699216178, 24.327675554863067]]]}, "properties": {"chip_id": "S2B_MSIL2A_20250213T063909_R120_T40QFM_20250213T085252_0001", "month_key": "2025-02", "datetime": "2025-02-13 06:39:09.024000+00:00", "tile": "S2B_MSIL2A_20250213T063909_R120_T40QFM_20250213T085252_0001.jpg", "scene_id": "S2B_MSIL2A_20250213T063909_R120_T40QFM_20250213T085252", "hab_prob": 0.23215167559979, "p_frcnn_r50_med": 0.896402895450592, "p_frcnn_mb_med": 0.1599155664443969, "p_ssd_mb_med": 0.4305492341518402}}, {"type": "Feature", "geometry": {"type": "Polygon", "coordinates": [[[57.94520345997246, 24.32709366534837], [57.9389385244646, 24.32709366534837], [57.9389385244646, 24.332912449992413], [57.94520345997246, 24.332912449992413], [57.94520345997246, 24.32709366534837]]]}, "properties": {"chip_id": "S2B_MSIL2A_20250223T063759_R120_T40QFM_20250223T090201_0000", "month_key": "2025-02", "datetime": "2025-02-23 06:37:59.024000+00:00", "tile": "S2B_MSIL2A_20250223T063759_R120_T40QFM_20250223T090201_0000.jpg", "scene_id": "S2B_MSIL2A_20250223T063759_R120_T40QFM_20250223T090201", "hab_prob": 0.2658806055774651, "p_frcnn_r50_med": 0.9270318150520324, "p_frcnn_mb_med": 0.2051023542881012, "p_ssd_mb_med": 0.424897700548172}}, {"type": "Feature", "geometry": {"type": "Polygon", "coordinates": [[[57.94457699216178, 24.327675554863067], [57.939565043757696, 24.327675554863067], [57.939565043757696, 24.332330582580834], [57.94457699216178, 24.332330582580834], [57.94457699216178, 24.327675554863067]]]}, "properties": {"chip_id": "S2B_MSIL2A_20250223T063759_R120_T40QFM_20250223T090201_0001", "month_key": "2025-02", "datetime": "2025-02-23 06:37:59.024000+00:00", "tile": "S2B_MSIL2A_20250223T063759_R120_T40QFM_20250223T090201_0001.jpg", "scene_id": "S2B_MSIL2A_20250223T063759_R120_T40QFM_20250223T090201", "hab_prob": 0.2658806055774651, "p_frcnn_r50_med": 0.904732346534729, "p_frcnn_mb_med": 0.1887455880641937, "p_ssd_mb_med": 0.3588407337665558}}]}