{"type": "FeatureCollection", "features": [{"type": "Feature", "geometry": {"type": "Polygon", "coordinates": [[[57.938939, 24.327094], [57.945203, 24.327094], [57.945203, 24.332912], [57.938939, 24.332912], [57.938939, 24.327094]]]}, "properties": {"chip_id": "S2B_MSIL2A_20250305T063649_R120_T40QFM_20250305T084958_0000", "month_key": "2025-03", "datetime": "2025-03-05 06:36:49.024000+00:00", "tile": "S2B_MSIL2A_20250305T063649_R120_T40QFM_20250305T084958_0000.jpg", "scene_id": "S2B_MSIL2A_20250305T063649_R120_T40QFM_20250305T084958", "hab_prob": 0.2799984044317035, "p_frcnn_r50_med": 0.9501652717590332, "p_frcnn_mb_med": 0.2012640386819839, "p_ssd_mb_med": 0.4362372457981109}}, {"type": "Feature", "geometry": {"type": "Polygon", "coordinates": [[[57.939565, 24.327676], [57.944577, 24.327676], [57.944577, 24.332331], [57.939565, 24.332331], [57.939565, 24.327676]]]}, "properties": {"chip_id": "S2B_MSIL2A_20250305T063649_R120_T40QFM_20250305T084958_0001", "month_key": "2025-03", "datetime": "2025-03-05 06:36:49.024000+00:00", "tile": "S2B_MSIL2A_20250305T063649_R120_T40QFM_20250305T084958_0001.jpg", "scene_id": "S2B_MSIL2A_20250305T063649_R120_T40QFM_20250305T084958", "hab_prob": 0.2799984044317035, "p_frcnn_r50_med": 0.8565905690193176, "p_frcnn_mb_med": 0.1911620497703552, "p_ssd_mb_med": 0.4325667321681976}}, {"type": "Feature", "geometry": {"type": "Polygon", "coordinates": [[[57.938939, 24.327094], [57.945203, 24.327094], [57.945203, 24.332912], [57.938939, 24.332912], [57.938939, 24.327094]]]}, "properties": {"chip_id": "S2B_MSIL2A_20250315T063629_R120_T40QFM_20250315T102858_0000", "month_key": "2025-03", "datetime": "2025-03-15 06:36:29.024000+00:00", "tile": "S2B_MSIL2A_20250315T063629_R120_T40QFM_20250315T102858_0000.jpg", "scene_id": "S2B_MSIL2A_20250315T063629_R120_T40QFM_20250315T102858", "hab_prob": 0.285421243159575, "p_frcnn_r50_med": 0.9374295473098756, "p_frcnn_mb_med": 0.273587703704834, "p_ssd_mb_med": 0.4324467778205871}}, {"type": "Feature", "geometry": {"type": "Polygon", "coordinates": [[[57.939565, 24.327676], [57.944577, 24.327676], [57.944577, 24.332331], [57.939565, 24.332331], [57.939565, 24.327676]]]}, "properties": {"chip_id": "S2B_MSIL2A_20250315T063629_R120_T40QFM_20250315T102858_0001", "month_key": "2025-03", "datetime": "2025-03-15 06:36:29.024000+00:00", "tile": "S2B_MSIL2A_20250315T063629_R120_T40QFM_20250315T102858_0001.jpg", "scene_id": "S2B_MSIL2A_20250315T063629_R120_T40QFM_20250315T102858", "hab_prob": 0.2813221002660938, "p_frcnn_r50_med": 0.8438494801521301, "p_frcnn_mb_med": 0.2002206295728683, "p_ssd_mb_med": 0.4741201996803283}}, {"type": "Feature", "geometry": {"type": "Polygon", "coordinates": [[[57.938939, 24.327094], [57.945203, 24.327094], [57.945203, 24.332912], [57.938939, 24.332912], [57.938939, 24.327094]]]}, "properties": {"chip_id": "S2A_MSIL2A_20250322T064321_R120_T40QFM_20250322T113212_0000", "month_key": "2025-03", "datetime": "2025-03-22 06:43:21.024000+00:00", "tile": "S2A_MSIL2A_20250322T064321_R120_T40QFM_20250322T113212_0000.jpg", "scene_id": "S2A_MSIL2A_20250322T064321_R120_T40QFM_20250322T113212", "hab_prob": 0.2508636669045736, "p_frcnn_r50_med": 0.9317076206207277, "p_frcnn_mb_med": 0.1739192008972168, "p_ssd_mb_med": 0.4105835855007171}}, {"type": "Feature", "geometry": {"type": "Polygon", "coordinates": [[[57.939565, 24.327676], [57.944577, 24.327676], [57.944577, 24.332331], [57.939565, 24.332331], [57.939565, 24.327676]]]}, "properties": {"chip_id": "S2A_MSIL2A_20250322T064321_R120_T40QFM_20250322T113212_0001", "month_key": "2025-03", "datetime": "2025-03-22 06:43:21.024000+00:00", "tile": "S2A_MSIL2A_20250322T064321_R120_T40QFM_20250322T113212_0001.jpg", "scene_id": "S2A_MSIL2A_20250322T064321_R120_T40QFM_20250322T113212", "hab_prob": 0.2508636669045736, "p_frcnn_r50_med": 0.9048518538475036, "p_frcnn_mb_med": 0.1728318482637405, "p_ssd_mb_med": 0.4344651997089386}}, {"type": "Feature", "geometry": {"type": "Polygon", "coordinates": [[[57.938939, 24.327094], [57.945203, 24.327094], [57.945203, 24.332912], [57.938939, 24.332912], [57.938939, 24.327094]]]}, "properties": {"chip_id": "S2C_MSIL2A_20250330T063831_R120_T40QFM_20250330T124316_0000", "month_key": "2025-03", "datetime": "2025-03-30 06:38:31.025000+00:00", "tile": "S2C_MSIL2A_20250330T063831_R120_T40QFM_20250330T124316_0000.jpg", "scene_id": "S2C_MSIL2A_20250330T063831_R120_T40QFM_20250330T124316", "hab_prob": 0.4796489805730735, "p_frcnn_r50_med": 0.9562387466430664, "p_frcnn_mb_med": 0.3432735502719879, "p_ssd_mb_med": 0.4427663683891296}}, {"type": "Feature", "geometry": {"type": "Polygon", "coordinates": [[[57.939565, 24.327676], [57.944577, 24.327676], [57.944577, 24.332331], [57.939565, 24.332331], [57.939565, 24.327676]]]}, "properties": {"chip_id": "S2C_MSIL2A_20250330T063831_R120_T40QFM_20250330T124316_0001", "month_key": "2025-03", "datetime": "2025-03-30 06:38:31.025000+00:00", "tile": "S2C_MSIL2A_20250330T063831_R120_T40QFM_20250330T124316_0001.jpg", "scene_id": "S2C_MSIL2A_20250330T063831_R120_T40QFM_20250330T124316", "hab_prob": 0.4796489805730735, "p_frcnn_r50_med": 0.8733381628990173, "p_frcnn_mb_med": 0.1633965969085693, "p_ssd_mb_med": 0.4374953806400299}}]}