{"type": "FeatureCollection", "features": [{"type": "Feature", "geometry": {"type": "Polygon", "coordinates": [[[57.938939, 24.327094], [57.945203, 24.327094], [57.945203, 24.332912], [57.938939, 24.332912], [57.938939, 24.327094]]]}, "properties": {"chip_id": "S2A_MSIL2A_20251207T064321_R120_T40QFM_20251207T093416_0000", "month_key": "2025-12", "datetime": "2025-12-07 06:43:21.024000+00:00", "tile": "S2A_MSIL2A_20251207T064321_R120_T40QFM_20251207T093416_0000.jpg", "scene_id": "S2A_MSIL2A_20251207T064321_R120_T40QFM_20251207T093416", "hab_prob": 0.2147450313070245, "p_frcnn_r50_med": 0.8653295636177063, "p_frcnn_mb_med": 0.2480135411024093, "p_ssd_mb_med": 0.4626219868659973}}, {"type": "Feature", "geometry": {"type": "Polygon", "coordinates": [[[57.939565, 24.327676], [57.944577, 24.327676], [57.944577, 24.332331], [57.939565, 24.332331], [57.939565, 24.327676]]]}, "properties": {"chip_id": "S2A_MSIL2A_20251207T064321_R120_T40QFM_20251207T093416_0001", "month_key": "2025-12", "datetime": "2025-12-07 06:43:21.024000+00:00", "tile": "S2A_MSIL2A_20251207T064321_R120_T40QFM_20251207T093416_0001.jpg", "scene_id": "S2A_MSIL2A_20251207T064321_R120_T40QFM_20251207T093416", "hab_prob": 0.1907417223218319, "p_frcnn_r50_med": 0.9057787656784058, "p_frcnn_mb_med": 0.1708579659461975, "p_ssd_mb_med": 0.3838382363319397}}, {"type": "Feature", "geometry": {"type": "Polygon", "coordinates": [[[57.938939, 24.327094], [57.945203, 24.327094], [57.945203, 24.332912], [57.938939, 24.332912], [57.938939, 24.327094]]]}, "properties": {"chip_id": "S2B_MSIL2A_20251210T064159_R120_T40QFM_20251210T084139_0000", "month_key": "2025-12", "datetime": "2025-12-10 06:41:59.024000+00:00", "tile": "S2B_MSIL2A_20251210T064159_R120_T40QFM_20251210T084139_0000.jpg", "scene_id": "S2B_MSIL2A_20251210T064159_R120_T40QFM_20251210T084139", "hab_prob": 0.2097722482611105, "p_frcnn_r50_med": 0.8835004568099976, "p_frcnn_mb_med": 0.2555036842823028, "p_ssd_mb_med": 0.4465281665325165}}, {"type": "Feature", "geometry": {"type": "Polygon", "coordinates": [[[57.939565, 24.327676], [57.944577, 24.327676], [57.944577, 24.332331], [57.939565, 24.332331], [57.939565, 24.327676]]]}, "properties": {"chip_id": "S2B_MSIL2A_20251210T064159_R120_T40QFM_20251210T084139_0001", "month_key": "2025-12", "datetime": "2025-12-10 06:41:59.024000+00:00", "tile": "S2B_MSIL2A_20251210T064159_R120_T40QFM_20251210T084139_0001.jpg", "scene_id": "S2B_MSIL2A_20251210T064159_R120_T40QFM_20251210T084139", "hab_prob": 0.2097722482611105, "p_frcnn_r50_med": 0.8625367283821106, "p_frcnn_mb_med": 0.2079158872365951, "p_ssd_mb_med": 0.4344873130321502}}, {"type": "Feature", "geometry": {"type": "Polygon", "coordinates": [[[57.938939, 24.327094], [57.945203, 24.327094], [57.945203, 24.332912], [57.938939, 24.332912], [57.938939, 24.327094]]]}, "properties": {"chip_id": "S2B_MSIL2A_20251220T064209_R120_T40QFM_20251220T084228_0000", "month_key": "2025-12", "datetime": "2025-12-20 06:42:09.024000+00:00", "tile": "S2B_MSIL2A_20251220T064209_R120_T40QFM_20251220T084228_0000.jpg", "scene_id": "S2B_MSIL2A_20251220T064209_R120_T40QFM_20251220T084228", "hab_prob": 0.1807040131742041, "p_frcnn_r50_med": 0.9474768042564392, "p_frcnn_mb_med": 0.2590755820274353, "p_ssd_mb_med": 0.3851986527442932}}, {"type": "Feature", "geometry": {"type": "Polygon", "coordinates": [[[57.939565, 24.327676], [57.944577, 24.327676], [57.944577, 24.332331], [57.939565, 24.332331], [57.939565, 24.327676]]]}, "properties": {"chip_id": "S2B_MSIL2A_20251220T064209_R120_T40QFM_20251220T084228_0001", "month_key": "2025-12", "datetime": "2025-12-20 06:42:09.024000+00:00", "tile": "S2B_MSIL2A_20251220T064209_R120_T40QFM_20251220T084228_0001.jpg", "scene_id": "S2B_MSIL2A_20251220T064209_R120_T40QFM_20251220T084228", "hab_prob": 0.1991770128325774, "p_frcnn_r50_med": 0.8369209170341492, "p_frcnn_mb_med": 0.1606582254171371, "p_ssd_mb_med": 0.4343280792236328}}]}