{"type": "FeatureCollection", "features": [{"type": "Feature", "geometry": {"type": "Polygon", "coordinates": [[[57.938939, 24.327094], [57.945203, 24.327094], [57.945203, 24.332912], [57.938939, 24.332912], [57.938939, 24.327094]]]}, "properties": {"chip_id": "S2B_MSIL2A_20250124T064059_R120_T40QFM_20250124T093054_0000", "month_key": "2025-01", "datetime": "2025-01-24 06:40:59.024000+00:00", "tile": "S2B_MSIL2A_20250124T064059_R120_T40QFM_20250124T093054_0000.jpg", "scene_id": "S2B_MSIL2A_20250124T064059_R120_T40QFM_20250124T093054", "hab_prob": 0.5132375294289409, "p_frcnn_r50_med": 0.9234582781791688, "p_frcnn_mb_med": 0.1801574081182479, "p_ssd_mb_med": 0.3824649751186371}}, {"type": "Feature", "geometry": {"type": "Polygon", "coordinates": [[[57.939565, 24.327676], [57.944577, 24.327676], [57.944577, 24.332331], [57.939565, 24.332331], [57.939565, 24.327676]]]}, "properties": {"chip_id": "S2B_MSIL2A_20250124T064059_R120_T40QFM_20250124T093054_0001", "month_key": "2025-01", "datetime": "2025-01-24 06:40:59.024000+00:00", "tile": "S2B_MSIL2A_20250124T064059_R120_T40QFM_20250124T093054_0001.jpg", "scene_id": "S2B_MSIL2A_20250124T064059_R120_T40QFM_20250124T093054", "hab_prob": 0.5132375294289409, "p_frcnn_r50_med": 0.903167486190796, "p_frcnn_mb_med": 0.2229340672492981, "p_ssd_mb_med": 0.3990533053874969}}, {"type": "Feature", "geometry": {"type": "Polygon", "coordinates": [[[57.938939, 24.327094], [57.945203, 24.327094], [57.945203, 24.332912], [57.938939, 24.332912], [57.938939, 24.327094]]]}, "properties": {"chip_id": "S2C_MSIL2A_20250129T064151_R120_T40QFM_20250129T101710_0000", "month_key": "2025-01", "datetime": "2025-01-29 06:41:51.025000+00:00", "tile": "S2C_MSIL2A_20250129T064151_R120_T40QFM_20250129T101710_0000.jpg", "scene_id": "S2C_MSIL2A_20250129T064151_R120_T40QFM_20250129T101710", "hab_prob": 0.2533051272604973, "p_frcnn_r50_med": 0.9410818815231324, "p_frcnn_mb_med": 0.2006677985191345, "p_ssd_mb_med": 0.4342606663703918}}, {"type": "Feature", "geometry": {"type": "Polygon", "coordinates": [[[57.939565, 24.327676], [57.944577, 24.327676], [57.944577, 24.332331], [57.939565, 24.332331], [57.939565, 24.327676]]]}, "properties": {"chip_id": "S2C_MSIL2A_20250129T064151_R120_T40QFM_20250129T101710_0001", "month_key": "2025-01", "datetime": "2025-01-29 06:41:51.025000+00:00", "tile": "S2C_MSIL2A_20250129T064151_R120_T40QFM_20250129T101710_0001.jpg", "scene_id": "S2C_MSIL2A_20250129T064151_R120_T40QFM_20250129T101710", "hab_prob": 0.2645512373923651, "p_frcnn_r50_med": 0.8741672039031982, "p_frcnn_mb_med": 0.2100989520549774, "p_ssd_mb_med": 0.3912851810455322}}]}