{"type": "FeatureCollection", "features": [{"type": "Feature", "geometry": {"type": "Polygon", "coordinates": [[[57.938939, 24.327094], [57.945203, 24.327094], [57.945203, 24.332912], [57.938939, 24.332912], [57.938939, 24.327094]]]}, "properties": {"chip_id": "S2A_MSIL2A_20251008T064321_R120_T40QFM_20251008T094621_0000", "month_key": "2025-10", "datetime": "2025-10-08 06:43:21.024000+00:00", "tile": "S2A_MSIL2A_20251008T064321_R120_T40QFM_20251008T094621_0000.jpg", "scene_id": "S2A_MSIL2A_20251008T064321_R120_T40QFM_20251008T094621", "hab_prob": 0.2105030340721429, "p_frcnn_r50_med": 0.9426771998405457, "p_frcnn_mb_med": 0.2941827178001404, "p_ssd_mb_med": 0.4435907304286957}}, {"type": "Feature", "geometry": {"type": "Polygon", "coordinates": [[[57.939565, 24.327676], [57.944577, 24.327676], [57.944577, 24.332331], [57.939565, 24.332331], [57.939565, 24.327676]]]}, "properties": {"chip_id": "S2A_MSIL2A_20251008T064321_R120_T40QFM_20251008T094621_0001", "month_key": "2025-10", "datetime": "2025-10-08 06:43:21.024000+00:00", "tile": "S2A_MSIL2A_20251008T064321_R120_T40QFM_20251008T094621_0001.jpg", "scene_id": "S2A_MSIL2A_20251008T064321_R120_T40QFM_20251008T094621", "hab_prob": 0.2105030340721429, "p_frcnn_r50_med": 0.891999363899231, "p_frcnn_mb_med": 0.1860111653804779, "p_ssd_mb_med": 0.4410842657089233}}, {"type": "Feature", "geometry": {"type": "Polygon", "coordinates": [[[57.938939, 24.327094], [57.945203, 24.327094], [57.945203, 24.332912], [57.938939, 24.332912], [57.938939, 24.327094]]]}, "properties": {"chip_id": "S2B_MSIL2A_20251011T063719_R120_T40QFM_20251011T102745_0000", "month_key": "2025-10", "datetime": "2025-10-11 06:37:19.024000+00:00", "tile": "S2B_MSIL2A_20251011T063719_R120_T40QFM_20251011T102745_0000.jpg", "scene_id": "S2B_MSIL2A_20251011T063719_R120_T40QFM_20251011T102745", "hab_prob": 0.2026527721830955, "p_frcnn_r50_med": 0.9370176196098328, "p_frcnn_mb_med": 0.3261754810810089, "p_ssd_mb_med": 0.4111579358577728}}, {"type": "Feature", "geometry": {"type": "Polygon", "coordinates": [[[57.939565, 24.327676], [57.944577, 24.327676], [57.944577, 24.332331], [57.939565, 24.332331], [57.939565, 24.327676]]]}, "properties": {"chip_id": "S2B_MSIL2A_20251011T063719_R120_T40QFM_20251011T102745_0001", "month_key": "2025-10", "datetime": "2025-10-11 06:37:19.024000+00:00", "tile": "S2B_MSIL2A_20251011T063719_R120_T40QFM_20251011T102745_0001.jpg", "scene_id": "S2B_MSIL2A_20251011T063719_R120_T40QFM_20251011T102745", "hab_prob": 0.2026527721830955, "p_frcnn_r50_med": 0.8871000409126282, "p_frcnn_mb_med": 0.1830257922410965, "p_ssd_mb_med": 0.4104410409927368}}, {"type": "Feature", "geometry": {"type": "Polygon", "coordinates": [[[57.938939, 24.327094], [57.945203, 24.327094], [57.945203, 24.332912], [57.938939, 24.332912], [57.938939, 24.327094]]]}, "properties": {"chip_id": "S2B_MSIL2A_20251021T063819_R120_T40QFM_20251021T092131_0000", "month_key": "2025-10", "datetime": "2025-10-21 06:38:19.024000+00:00", "tile": "S2B_MSIL2A_20251021T063819_R120_T40QFM_20251021T092131_0000.jpg", "scene_id": "S2B_MSIL2A_20251021T063819_R120_T40QFM_20251021T092131", "hab_prob": 0.2124036087344327, "p_frcnn_r50_med": 0.9385272264480592, "p_frcnn_mb_med": 0.2916295826435089, "p_ssd_mb_med": 0.4457988142967224}}, {"type": "Feature", "geometry": {"type": "Polygon", "coordinates": [[[57.939565, 24.327676], [57.944577, 24.327676], [57.944577, 24.332331], [57.939565, 24.332331], [57.939565, 24.327676]]]}, "properties": {"chip_id": "S2B_MSIL2A_20251021T063819_R120_T40QFM_20251021T092131_0001", "month_key": "2025-10", "datetime": "2025-10-21 06:38:19.024000+00:00", "tile": "S2B_MSIL2A_20251021T063819_R120_T40QFM_20251021T092131_0001.jpg", "scene_id": "S2B_MSIL2A_20251021T063819_R120_T40QFM_20251021T092131", "hab_prob": 0.2124036087344327, "p_frcnn_r50_med": 0.916016697883606, "p_frcnn_mb_med": 0.2051933109760284, "p_ssd_mb_med": 0.4095164835453033}}, {"type": "Feature", "geometry": {"type": "Polygon", "coordinates": [[[57.938939, 24.327094], [57.945203, 24.327094], [57.945203, 24.332912], [57.938939, 24.332912], [57.938939, 24.327094]]]}, "properties": {"chip_id": "S2C_MSIL2A_20251026T064001_R120_T40QFM_20251026T094908_0000", "month_key": "2025-10", "datetime": "2025-10-26 06:40:01.025000+00:00", "tile": "S2C_MSIL2A_20251026T064001_R120_T40QFM_20251026T094908_0000.jpg", "scene_id": "S2C_MSIL2A_20251026T064001_R120_T40QFM_20251026T094908", "hab_prob": 0.2626299373932271, "p_frcnn_r50_med": 0.9168630838394164, "p_frcnn_mb_med": 0.2961013913154602, "p_ssd_mb_med": 0.4680216908454895}}, {"type": "Feature", "geometry": {"type": "Polygon", "coordinates": [[[57.939565, 24.327676], [57.944577, 24.327676], [57.944577, 24.332331], [57.939565, 24.332331], [57.939565, 24.327676]]]}, "properties": {"chip_id": "S2C_MSIL2A_20251026T064001_R120_T40QFM_20251026T094908_0001", "month_key": "2025-10", "datetime": "2025-10-26 06:40:01.025000+00:00", "tile": "S2C_MSIL2A_20251026T064001_R120_T40QFM_20251026T094908_0001.jpg", "scene_id": "S2C_MSIL2A_20251026T064001_R120_T40QFM_20251026T094908", "hab_prob": 0.2562152002249001, "p_frcnn_r50_med": 0.8693760633468628, "p_frcnn_mb_med": 0.1612061858177185, "p_ssd_mb_med": 0.4467786848545074}}]}