{"type": "FeatureCollection", "features": [{"type": "Feature", "geometry": {"type": "Polygon", "coordinates": [[[57.938939, 24.327094], [57.945203, 24.327094], [57.945203, 24.332912], [57.938939, 24.332912], [57.938939, 24.327094]]]}, "properties": {"chip_id": "S2C_MSIL2A_20250608T063651_R120_T40QFM_20250608T101212_0000", "month_key": "2025-06", "datetime": "2025-06-08 06:36:51.025000+00:00", "tile": "S2C_MSIL2A_20250608T063651_R120_T40QFM_20250608T101212_0000.jpg", "scene_id": "S2C_MSIL2A_20250608T063651_R120_T40QFM_20250608T101212", "hab_prob": 0.316874669971619, "p_frcnn_r50_med": 0.9337262511253356, "p_frcnn_mb_med": 0.4007187783718109, "p_ssd_mb_med": 0.4055862128734588}}, {"type": "Feature", "geometry": {"type": "Polygon", "coordinates": [[[57.939565, 24.327676], [57.944577, 24.327676], [57.944577, 24.332331], [57.939565, 24.332331], [57.939565, 24.327676]]]}, "properties": {"chip_id": "S2C_MSIL2A_20250608T063651_R120_T40QFM_20250608T101212_0001", "month_key": "2025-06", "datetime": "2025-06-08 06:36:51.025000+00:00", "tile": "S2C_MSIL2A_20250608T063651_R120_T40QFM_20250608T101212_0001.jpg", "scene_id": "S2C_MSIL2A_20250608T063651_R120_T40QFM_20250608T101212", "hab_prob": 0.3317222278435278, "p_frcnn_r50_med": 0.9395687580108644, "p_frcnn_mb_med": 0.2084677517414093, "p_ssd_mb_med": 0.5857136249542236}}, {"type": "Feature", "geometry": {"type": "Polygon", "coordinates": [[[57.938939, 24.327094], [57.945203, 24.327094], [57.945203, 24.332912], [57.938939, 24.332912], [57.938939, 24.327094]]]}, "properties": {"chip_id": "S2B_MSIL2A_20250613T063619_R120_T40QFM_20250613T102651_0000", "month_key": "2025-06", "datetime": "2025-06-13 06:36:19.024000+00:00", "tile": "S2B_MSIL2A_20250613T063619_R120_T40QFM_20250613T102651_0000.jpg", "scene_id": "S2B_MSIL2A_20250613T063619_R120_T40QFM_20250613T102651", "hab_prob": 0.3545018812225286, "p_frcnn_r50_med": 0.921626627445221, "p_frcnn_mb_med": 0.4487260580062866, "p_ssd_mb_med": 0.4201893508434295}}, {"type": "Feature", "geometry": {"type": "Polygon", "coordinates": [[[57.939565, 24.327676], [57.944577, 24.327676], [57.944577, 24.332331], [57.939565, 24.332331], [57.939565, 24.327676]]]}, "properties": {"chip_id": "S2B_MSIL2A_20250613T063619_R120_T40QFM_20250613T102651_0001", "month_key": "2025-06", "datetime": "2025-06-13 06:36:19.024000+00:00", "tile": "S2B_MSIL2A_20250613T063619_R120_T40QFM_20250613T102651_0001.jpg", "scene_id": "S2B_MSIL2A_20250613T063619_R120_T40QFM_20250613T102651", "hab_prob": 0.365875228962335, "p_frcnn_r50_med": 0.9377619624137878, "p_frcnn_mb_med": 0.2349319010972976, "p_ssd_mb_med": 0.4757021367549896}}, {"type": "Feature", "geometry": {"type": "Polygon", "coordinates": [[[57.938939, 24.327094], [57.945203, 24.327094], [57.945203, 24.332912], [57.938939, 24.332912], [57.938939, 24.327094]]]}, "properties": {"chip_id": "S2C_MSIL2A_20250618T063641_R120_T40QFM_20250618T102918_0000", "month_key": "2025-06", "datetime": "2025-06-18 06:36:41.025000+00:00", "tile": "S2C_MSIL2A_20250618T063641_R120_T40QFM_20250618T102918_0000.jpg", "scene_id": "S2C_MSIL2A_20250618T063641_R120_T40QFM_20250618T102918", "hab_prob": 0.3944589509731092, "p_frcnn_r50_med": 0.927598476409912, "p_frcnn_mb_med": 0.3433804810047149, "p_ssd_mb_med": 0.3690023422241211}}, {"type": "Feature", "geometry": {"type": "Polygon", "coordinates": [[[57.939565, 24.327676], [57.944577, 24.327676], [57.944577, 24.332331], [57.939565, 24.332331], [57.939565, 24.327676]]]}, "properties": {"chip_id": "S2C_MSIL2A_20250618T063641_R120_T40QFM_20250618T102918_0001", "month_key": "2025-06", "datetime": "2025-06-18 06:36:41.025000+00:00", "tile": "S2C_MSIL2A_20250618T063641_R120_T40QFM_20250618T102918_0001.jpg", "scene_id": "S2C_MSIL2A_20250618T063641_R120_T40QFM_20250618T102918", "hab_prob": 0.3805479337893139, "p_frcnn_r50_med": 0.912985861301422, "p_frcnn_mb_med": 0.2036559283733368, "p_ssd_mb_med": 0.4459116160869598}}]}