{"type": "FeatureCollection", "features": [{"type": "Feature", "properties": {"plant_id": "osm:way/1079022886", "plant_id_safe": "osm_way_1079022886", "name": "Water Desalination Plant (Musandam)", "lat": 25.6716585, "lon": 56.2667608, "box_km": 20.0}, "geometry": {"type": "Polygon", "coordinates": [[[56.16709146404134, 25.581221326704288], [56.16709146404134, 25.76209567329571], [56.36643013595866, 25.76209567329571], [56.36643013595866, 25.581221326704288], [56.16709146404134, 25.581221326704288]]]}}]}