{"type": "FeatureCollection", "features": [{"type": "Feature", "properties": {"plant_id": "osm:way/1236881046", "plant_id_safe": "osm_way_1236881046", "name": "Sharqiyah Desalination Solar Farm", "lat": 21.9310725, "lon": 59.6321193, "box_km": 20.0}, "geometry": {"type": "Polygon", "coordinates": [[[59.535280317144206, 21.840635326704287], [59.535280317144206, 22.02150967329571], [59.72895828285579, 22.02150967329571], [59.72895828285579, 21.840635326704287], [59.535280317144206, 21.840635326704287]]]}}]}