{"type": "FeatureCollection", "features": [{"type": "Feature", "geometry": {"type": "Polygon", "coordinates": [[[58.902777, 23.409041], [58.908955, 23.409041], [58.908955, 23.414895], [58.902777, 23.414895], [58.902777, 23.409041]]]}, "properties": {"chip_id": "S2C_MSIL2A_20251202T063241_R077_T40QGL_20251202T103810_0000", "month_key": "2025-12", "datetime": "2025-12-02 06:32:41.025000+00:00", "tile": "S2C_MSIL2A_20251202T063241_R077_T40QGL_20251202T103810_0000.jpg", "scene_id": "S2C_MSIL2A_20251202T063241_R077_T40QGL_20251202T103810", "hab_prob": 0.3105729201053035, "p_frcnn_r50_med": 0.9624205827713012, "p_frcnn_mb_med": 0.2560864686965942, "p_ssd_mb_med": 0.398248016834259}}, {"type": "Feature", "geometry": {"type": "Polygon", "coordinates": [[[58.903394, 23.409627], [58.908337, 23.409627], [58.908337, 23.41431], [58.903394, 23.41431], [58.903394, 23.409627]]]}, "properties": {"chip_id": "S2C_MSIL2A_20251202T063241_R077_T40QGL_20251202T103810_0001", "month_key": "2025-12", "datetime": "2025-12-02 06:32:41.025000+00:00", "tile": "S2C_MSIL2A_20251202T063241_R077_T40QGL_20251202T103810_0001.jpg", "scene_id": "S2C_MSIL2A_20251202T063241_R077_T40QGL_20251202T103810", "hab_prob": 0.3105729201053035, "p_frcnn_r50_med": 0.9204288125038148, "p_frcnn_mb_med": 0.3039889633655548, "p_ssd_mb_med": 0.3753777146339416}}, {"type": "Feature", "geometry": {"type": "Polygon", "coordinates": [[[58.902777, 23.409041], [58.908955, 23.409041], [58.908955, 23.414895], [58.902777, 23.414895], [58.902777, 23.409041]]]}, "properties": {"chip_id": "S2B_MSIL2A_20251217T063159_R077_T40QGL_20251217T075428_0000", "month_key": "2025-12", "datetime": "2025-12-17 06:31:59.024000+00:00", "tile": "S2B_MSIL2A_20251217T063159_R077_T40QGL_20251217T075428_0000.jpg", "scene_id": "S2B_MSIL2A_20251217T063159_R077_T40QGL_20251217T075428", "hab_prob": 0.2724251947206372, "p_frcnn_r50_med": 0.9504780173301696, "p_frcnn_mb_med": 0.2219216078519821, "p_ssd_mb_med": 0.4227518737316131}}, {"type": "Feature", "geometry": {"type": "Polygon", "coordinates": [[[58.903394, 23.409627], [58.908337, 23.409627], [58.908337, 23.41431], [58.903394, 23.41431], [58.903394, 23.409627]]]}, "properties": {"chip_id": "S2B_MSIL2A_20251217T063159_R077_T40QGL_20251217T075428_0001", "month_key": "2025-12", "datetime": "2025-12-17 06:31:59.024000+00:00", "tile": "S2B_MSIL2A_20251217T063159_R077_T40QGL_20251217T075428_0001.jpg", "scene_id": "S2B_MSIL2A_20251217T063159_R077_T40QGL_20251217T075428", "hab_prob": 0.2724251947206372, "p_frcnn_r50_med": 0.8604291081428528, "p_frcnn_mb_med": 0.315973550081253, "p_ssd_mb_med": 0.4133892655372619}}, {"type": "Feature", "geometry": {"type": "Polygon", "coordinates": [[[58.902777, 23.409041], [58.908955, 23.409041], [58.908955, 23.414895], [58.902777, 23.414895], [58.902777, 23.409041]]]}, "properties": {"chip_id": "S2B_MSIL2A_20251227T063159_R077_T40QGL_20251227T083938_0000", "month_key": "2025-12", "datetime": "2025-12-27 06:31:59.024000+00:00", "tile": "S2B_MSIL2A_20251227T063159_R077_T40QGL_20251227T083938_0000.jpg", "scene_id": "S2B_MSIL2A_20251227T063159_R077_T40QGL_20251227T083938", "hab_prob": 0.4681028824402359, "p_frcnn_r50_med": 0.9656899571418762, "p_frcnn_mb_med": 0.2174450904130935, "p_ssd_mb_med": 0.3973001539707184}}, {"type": "Feature", "geometry": {"type": "Polygon", "coordinates": [[[58.903394, 23.409627], [58.908337, 23.409627], [58.908337, 23.41431], [58.903394, 23.41431], [58.903394, 23.409627]]]}, "properties": {"chip_id": "S2B_MSIL2A_20251227T063159_R077_T40QGL_20251227T083938_0001", "month_key": "2025-12", "datetime": "2025-12-27 06:31:59.024000+00:00", "tile": "S2B_MSIL2A_20251227T063159_R077_T40QGL_20251227T083938_0001.jpg", "scene_id": "S2B_MSIL2A_20251227T063159_R077_T40QGL_20251227T083938", "hab_prob": 0.5060756046249699, "p_frcnn_r50_med": 0.9077592492103576, "p_frcnn_mb_med": 0.2932114005088806, "p_ssd_mb_med": 0.4875875115394592}}]}