{"type": "FeatureCollection", "features": [{"type": "Feature", "geometry": {"type": "Polygon", "coordinates": [[[58.902777, 23.409041], [58.908955, 23.409041], [58.908955, 23.414895], [58.902777, 23.414895], [58.902777, 23.409041]]]}, "properties": {"chip_id": "S2A_MSIL2A_20250116T063221_R077_T40QGL_20250116T093252_0000", "month_key": "2025-01", "datetime": "2025-01-16 06:32:21.024000+00:00", "tile": "S2A_MSIL2A_20250116T063221_R077_T40QGL_20250116T093252_0000.jpg", "scene_id": "S2A_MSIL2A_20250116T063221_R077_T40QGL_20250116T093252", "hab_prob": 0.25170842446476, "p_frcnn_r50_med": 0.9647690653800964, "p_frcnn_mb_med": 0.3218849599361419, "p_ssd_mb_med": 0.4316497147083282}}, {"type": "Feature", "geometry": {"type": "Polygon", "coordinates": [[[58.903394, 23.409627], [58.908337, 23.409627], [58.908337, 23.41431], [58.903394, 23.41431], [58.903394, 23.409627]]]}, "properties": {"chip_id": "S2A_MSIL2A_20250116T063221_R077_T40QGL_20250116T093252_0001", "month_key": "2025-01", "datetime": "2025-01-16 06:32:21.024000+00:00", "tile": "S2A_MSIL2A_20250116T063221_R077_T40QGL_20250116T093252_0001.jpg", "scene_id": "S2A_MSIL2A_20250116T063221_R077_T40QGL_20250116T093252", "hab_prob": 0.25170842446476, "p_frcnn_r50_med": 0.9256924986839294, "p_frcnn_mb_med": 0.2798635959625244, "p_ssd_mb_med": 0.4395354390144348}}, {"type": "Feature", "geometry": {"type": "Polygon", "coordinates": [[[58.902777, 23.409041], [58.908955, 23.409041], [58.908955, 23.414895], [58.902777, 23.414895], [58.902777, 23.409041]]]}, "properties": {"chip_id": "S2B_MSIL2A_20250121T063059_R077_T40QGL_20250121T091004_0000", "month_key": "2025-01", "datetime": "2025-01-21 06:30:59.024000+00:00", "tile": "S2B_MSIL2A_20250121T063059_R077_T40QGL_20250121T091004_0000.jpg", "scene_id": "S2B_MSIL2A_20250121T063059_R077_T40QGL_20250121T091004", "hab_prob": 0.5663088480838148, "p_frcnn_r50_med": 0.9634929299354552, "p_frcnn_mb_med": 0.3195563554763794, "p_ssd_mb_med": 0.3814020156860351}}, {"type": "Feature", "geometry": {"type": "Polygon", "coordinates": [[[58.903394, 23.409627], [58.908337, 23.409627], [58.908337, 23.41431], [58.903394, 23.41431], [58.903394, 23.409627]]]}, "properties": {"chip_id": "S2B_MSIL2A_20250121T063059_R077_T40QGL_20250121T091004_0001", "month_key": "2025-01", "datetime": "2025-01-21 06:30:59.024000+00:00", "tile": "S2B_MSIL2A_20250121T063059_R077_T40QGL_20250121T091004_0001.jpg", "scene_id": "S2B_MSIL2A_20250121T063059_R077_T40QGL_20250121T091004", "hab_prob": 0.5663088480838148, "p_frcnn_r50_med": 0.9089031219482422, "p_frcnn_mb_med": 0.3310891687870025, "p_ssd_mb_med": 0.4010502398014068}}]}