{"type": "FeatureCollection", "features": [{"type": "Feature", "geometry": {"type": "Polygon", "coordinates": [[[58.902777, 23.409041], [58.908955, 23.409041], [58.908955, 23.414895], [58.902777, 23.414895], [58.902777, 23.409041]]]}, "properties": {"chip_id": "S2A_MSIL2A_20251104T063321_R077_T40QGL_20251104T090411_0000", "month_key": "2025-11", "datetime": "2025-11-04 06:33:21.024000+00:00", "tile": "S2A_MSIL2A_20251104T063321_R077_T40QGL_20251104T090411_0000.jpg", "scene_id": "S2A_MSIL2A_20251104T063321_R077_T40QGL_20251104T090411", "hab_prob": 0.3044138568747462, "p_frcnn_r50_med": 0.9635934233665466, "p_frcnn_mb_med": 0.22462098300457, "p_ssd_mb_med": 0.4195564687252044}}, {"type": "Feature", "geometry": {"type": "Polygon", "coordinates": [[[58.903394, 23.409627], [58.908337, 23.409627], [58.908337, 23.41431], [58.903394, 23.41431], [58.903394, 23.409627]]]}, "properties": {"chip_id": "S2A_MSIL2A_20251104T063321_R077_T40QGL_20251104T090411_0001", "month_key": "2025-11", "datetime": "2025-11-04 06:33:21.024000+00:00", "tile": "S2A_MSIL2A_20251104T063321_R077_T40QGL_20251104T090411_0001.jpg", "scene_id": "S2A_MSIL2A_20251104T063321_R077_T40QGL_20251104T090411", "hab_prob": 0.3044138568747462, "p_frcnn_r50_med": 0.9403322339057922, "p_frcnn_mb_med": 0.27004474401474, "p_ssd_mb_med": 0.4254574775695801}}, {"type": "Feature", "geometry": {"type": "Polygon", "coordinates": [[[58.902777, 23.409041], [58.908955, 23.409041], [58.908955, 23.414895], [58.902777, 23.414895], [58.902777, 23.409041]]]}, "properties": {"chip_id": "S2C_MSIL2A_20251122T063211_R077_T40QGL_20251122T090818_0000", "month_key": "2025-11", "datetime": "2025-11-22 06:32:11.025000+00:00", "tile": "S2C_MSIL2A_20251122T063211_R077_T40QGL_20251122T090818_0000.jpg", "scene_id": "S2C_MSIL2A_20251122T063211_R077_T40QGL_20251122T090818", "hab_prob": 0.3186484962544708, "p_frcnn_r50_med": 0.9684943556785583, "p_frcnn_mb_med": 0.2517552673816681, "p_ssd_mb_med": 0.4499505460262298}}, {"type": "Feature", "geometry": {"type": "Polygon", "coordinates": [[[58.903394, 23.409627], [58.908337, 23.409627], [58.908337, 23.41431], [58.903394, 23.41431], [58.903394, 23.409627]]]}, "properties": {"chip_id": "S2C_MSIL2A_20251122T063211_R077_T40QGL_20251122T090818_0001", "month_key": "2025-11", "datetime": "2025-11-22 06:32:11.025000+00:00", "tile": "S2C_MSIL2A_20251122T063211_R077_T40QGL_20251122T090818_0001.jpg", "scene_id": "S2C_MSIL2A_20251122T063211_R077_T40QGL_20251122T090818", "hab_prob": 0.3315077039227525, "p_frcnn_r50_med": 0.9197007417678832, "p_frcnn_mb_med": 0.2813381254673004, "p_ssd_mb_med": 0.3676135540008545}}]}