{"type": "FeatureCollection", "features": [{"type": "Feature", "geometry": {"type": "Polygon", "coordinates": [[[58.902777, 23.409041], [58.908955, 23.409041], [58.908955, 23.414895], [58.902777, 23.414895], [58.902777, 23.409041]]]}, "properties": {"chip_id": "S2A_MSIL2A_20250607T063321_R077_T40QGL_20250607T092212_0000", "month_key": "2025-06", "datetime": "2025-06-07 06:33:21.024000+00:00", "tile": "S2A_MSIL2A_20250607T063321_R077_T40QGL_20250607T092212_0000.jpg", "scene_id": "S2A_MSIL2A_20250607T063321_R077_T40QGL_20250607T092212", "hab_prob": 0.369233791523512, "p_frcnn_r50_med": 0.9727975130081176, "p_frcnn_mb_med": 0.2489356845617294, "p_ssd_mb_med": 0.4386385083198547}}, {"type": "Feature", "geometry": {"type": "Polygon", "coordinates": [[[58.903394, 23.409627], [58.908337, 23.409627], [58.908337, 23.41431], [58.903394, 23.41431], [58.903394, 23.409627]]]}, "properties": {"chip_id": "S2A_MSIL2A_20250607T063321_R077_T40QGL_20250607T092212_0001", "month_key": "2025-06", "datetime": "2025-06-07 06:33:21.024000+00:00", "tile": "S2A_MSIL2A_20250607T063321_R077_T40QGL_20250607T092212_0001.jpg", "scene_id": "S2A_MSIL2A_20250607T063321_R077_T40QGL_20250607T092212", "hab_prob": 0.3829869274517369, "p_frcnn_r50_med": 0.9410455226898192, "p_frcnn_mb_med": 0.2925066649913788, "p_ssd_mb_med": 0.3567710816860199}}, {"type": "Feature", "geometry": {"type": "Polygon", "coordinates": [[[58.902777, 23.409041], [58.908955, 23.409041], [58.908955, 23.414895], [58.902777, 23.414895], [58.902777, 23.409041]]]}, "properties": {"chip_id": "S2B_MSIL2A_20250610T062629_R077_T40QGL_20250610T083203_0000", "month_key": "2025-06", "datetime": "2025-06-10 06:26:29.024000+00:00", "tile": "S2B_MSIL2A_20250610T062629_R077_T40QGL_20250610T083203_0000.jpg", "scene_id": "S2B_MSIL2A_20250610T062629_R077_T40QGL_20250610T083203", "hab_prob": 0.3768194363544848, "p_frcnn_r50_med": 0.98709237575531, "p_frcnn_mb_med": 0.2596044838428497, "p_ssd_mb_med": 0.4317995011806488}}, {"type": "Feature", "geometry": {"type": "Polygon", "coordinates": [[[58.903394, 23.409627], [58.908337, 23.409627], [58.908337, 23.41431], [58.903394, 23.41431], [58.903394, 23.409627]]]}, "properties": {"chip_id": "S2B_MSIL2A_20250610T062629_R077_T40QGL_20250610T083203_0001", "month_key": "2025-06", "datetime": "2025-06-10 06:26:29.024000+00:00", "tile": "S2B_MSIL2A_20250610T062629_R077_T40QGL_20250610T083203_0001.jpg", "scene_id": "S2B_MSIL2A_20250610T062629_R077_T40QGL_20250610T083203", "hab_prob": 0.3768194363544848, "p_frcnn_r50_med": 0.9374592900276184, "p_frcnn_mb_med": 0.2552361786365509, "p_ssd_mb_med": 0.4278736114501953}}, {"type": "Feature", "geometry": {"type": "Polygon", "coordinates": [[[58.902777, 23.409041], [58.908955, 23.409041], [58.908955, 23.414895], [58.902777, 23.414895], [58.902777, 23.409041]]]}, "properties": {"chip_id": "S2B_MSIL2A_20250620T062629_R077_T40QGL_20250620T083331_0000", "month_key": "2025-06", "datetime": "2025-06-20 06:26:29.024000+00:00", "tile": "S2B_MSIL2A_20250620T062629_R077_T40QGL_20250620T083331_0000.jpg", "scene_id": "S2B_MSIL2A_20250620T062629_R077_T40QGL_20250620T083331", "hab_prob": 0.5597494043486364, "p_frcnn_r50_med": 0.9733219146728516, "p_frcnn_mb_med": 0.2327446341514587, "p_ssd_mb_med": 0.3788898885250091}}, {"type": "Feature", "geometry": {"type": "Polygon", "coordinates": [[[58.903394, 23.409627], [58.908337, 23.409627], [58.908337, 23.41431], [58.903394, 23.41431], [58.903394, 23.409627]]]}, "properties": {"chip_id": "S2B_MSIL2A_20250620T062629_R077_T40QGL_20250620T083331_0001", "month_key": "2025-06", "datetime": "2025-06-20 06:26:29.024000+00:00", "tile": "S2B_MSIL2A_20250620T062629_R077_T40QGL_20250620T083331_0001.jpg", "scene_id": "S2B_MSIL2A_20250620T062629_R077_T40QGL_20250620T083331", "hab_prob": 0.545258082759305, "p_frcnn_r50_med": 0.9412469267845154, "p_frcnn_mb_med": 0.2825763821601867, "p_ssd_mb_med": 0.4379598796367645}}, {"type": "Feature", "geometry": {"type": "Polygon", "coordinates": [[[58.902777, 23.409041], [58.908955, 23.409041], [58.908955, 23.414895], [58.902777, 23.414895], [58.902777, 23.409041]]]}, "properties": {"chip_id": "S2C_MSIL2A_20250625T062651_R077_T40QGL_20250625T104601_0000", "month_key": "2025-06", "datetime": "2025-06-25 06:26:51.025000+00:00", "tile": "S2C_MSIL2A_20250625T062651_R077_T40QGL_20250625T104601_0000.jpg", "scene_id": "S2C_MSIL2A_20250625T062651_R077_T40QGL_20250625T104601", "hab_prob": 0.4993078785106682, "p_frcnn_r50_med": 0.9644954204559326, "p_frcnn_mb_med": 0.2164823859930038, "p_ssd_mb_med": 0.4361133277416229}}, {"type": "Feature", "geometry": {"type": "Polygon", "coordinates": [[[58.903394, 23.409627], [58.908337, 23.409627], [58.908337, 23.41431], [58.903394, 23.41431], [58.903394, 23.409627]]]}, "properties": {"chip_id": "S2C_MSIL2A_20250625T062651_R077_T40QGL_20250625T104601_0001", "month_key": "2025-06", "datetime": "2025-06-25 06:26:51.025000+00:00", "tile": "S2C_MSIL2A_20250625T062651_R077_T40QGL_20250625T104601_0001.jpg", "scene_id": "S2C_MSIL2A_20250625T062651_R077_T40QGL_20250625T104601", "hab_prob": 0.4993078785106682, "p_frcnn_r50_med": 0.9378832578659058, "p_frcnn_mb_med": 0.2250435948371887, "p_ssd_mb_med": 0.4219060242176056}}]}