{"type": "FeatureCollection", "features": [{"type": "Feature", "geometry": {"type": "Polygon", "coordinates": [[[58.902777, 23.409041], [58.908955, 23.409041], [58.908955, 23.414895], [58.902777, 23.414895], [58.902777, 23.409041]]]}, "properties": {"chip_id": "S2B_MSIL2A_20250501T062629_R077_T40QGL_20250501T083615_0000", "month_key": "2025-05", "datetime": "2025-05-01 06:26:29.024000+00:00", "tile": "S2B_MSIL2A_20250501T062629_R077_T40QGL_20250501T083615_0000.jpg", "scene_id": "S2B_MSIL2A_20250501T062629_R077_T40QGL_20250501T083615", "hab_prob": 0.3741638819899932, "p_frcnn_r50_med": 0.9793582558631896, "p_frcnn_mb_med": 0.2866803407669067, "p_ssd_mb_med": 0.4418303072452545}}, {"type": "Feature", "geometry": {"type": "Polygon", "coordinates": [[[58.903394, 23.409627], [58.908337, 23.409627], [58.908337, 23.41431], [58.903394, 23.41431], [58.903394, 23.409627]]]}, "properties": {"chip_id": "S2B_MSIL2A_20250501T062629_R077_T40QGL_20250501T083615_0001", "month_key": "2025-05", "datetime": "2025-05-01 06:26:29.024000+00:00", "tile": "S2B_MSIL2A_20250501T062629_R077_T40QGL_20250501T083615_0001.jpg", "scene_id": "S2B_MSIL2A_20250501T062629_R077_T40QGL_20250501T083615", "hab_prob": 0.3741638819899932, "p_frcnn_r50_med": 0.93155437707901, "p_frcnn_mb_med": 0.3030771315097809, "p_ssd_mb_med": 0.4580998122692108}}, {"type": "Feature", "geometry": {"type": "Polygon", "coordinates": [[[58.902777, 23.409041], [58.908955, 23.409041], [58.908955, 23.414895], [58.902777, 23.414895], [58.902777, 23.409041]]]}, "properties": {"chip_id": "S2C_MSIL2A_20250516T062641_R077_T40QGL_20250516T093413_0000", "month_key": "2025-05", "datetime": "2025-05-16 06:26:41.025000+00:00", "tile": "S2C_MSIL2A_20250516T062641_R077_T40QGL_20250516T093413_0000.jpg", "scene_id": "S2C_MSIL2A_20250516T062641_R077_T40QGL_20250516T093413", "hab_prob": 0.5168907111241412, "p_frcnn_r50_med": 0.9780392050743104, "p_frcnn_mb_med": 0.2661061286926269, "p_ssd_mb_med": 0.4250825047492981}}, {"type": "Feature", "geometry": {"type": "Polygon", "coordinates": [[[58.903394, 23.409627], [58.908337, 23.409627], [58.908337, 23.41431], [58.903394, 23.41431], [58.903394, 23.409627]]]}, "properties": {"chip_id": "S2C_MSIL2A_20250516T062641_R077_T40QGL_20250516T093413_0001", "month_key": "2025-05", "datetime": "2025-05-16 06:26:41.025000+00:00", "tile": "S2C_MSIL2A_20250516T062641_R077_T40QGL_20250516T093413_0001.jpg", "scene_id": "S2C_MSIL2A_20250516T062641_R077_T40QGL_20250516T093413", "hab_prob": 0.5168907111241412, "p_frcnn_r50_med": 0.9294463992118835, "p_frcnn_mb_med": 0.2325181812047958, "p_ssd_mb_med": 0.4385794401168823}}, {"type": "Feature", "geometry": {"type": "Polygon", "coordinates": [[[58.902777, 23.409041], [58.908955, 23.409041], [58.908955, 23.414895], [58.902777, 23.414895], [58.902777, 23.409041]]]}, "properties": {"chip_id": "S2B_MSIL2A_20250521T062629_R077_T40QGL_20250521T082313_0000", "month_key": "2025-05", "datetime": "2025-05-21 06:26:29.024000+00:00", "tile": "S2B_MSIL2A_20250521T062629_R077_T40QGL_20250521T082313_0000.jpg", "scene_id": "S2B_MSIL2A_20250521T062629_R077_T40QGL_20250521T082313", "hab_prob": 0.3361529808489581, "p_frcnn_r50_med": 0.9721961617469788, "p_frcnn_mb_med": 0.2691851556301117, "p_ssd_mb_med": 0.4645073711872101}}, {"type": "Feature", "geometry": {"type": "Polygon", "coordinates": [[[58.903394, 23.409627], [58.908337, 23.409627], [58.908337, 23.41431], [58.903394, 23.41431], [58.903394, 23.409627]]]}, "properties": {"chip_id": "S2B_MSIL2A_20250521T062629_R077_T40QGL_20250521T082313_0001", "month_key": "2025-05", "datetime": "2025-05-21 06:26:29.024000+00:00", "tile": "S2B_MSIL2A_20250521T062629_R077_T40QGL_20250521T082313_0001.jpg", "scene_id": "S2B_MSIL2A_20250521T062629_R077_T40QGL_20250521T082313", "hab_prob": 0.3361529808489581, "p_frcnn_r50_med": 0.9505496025085448, "p_frcnn_mb_med": 0.2219114452600479, "p_ssd_mb_med": 0.460299402475357}}]}