{"type": "FeatureCollection", "features": [{"type": "Feature", "geometry": {"type": "Polygon", "coordinates": [[[58.902777, 23.409041], [58.908955, 23.409041], [58.908955, 23.414895], [58.902777, 23.414895], [58.902777, 23.409041]]]}, "properties": {"chip_id": "S2C_MSIL2A_20251003T062731_R077_T40QGL_20251003T094319_0000", "month_key": "2025-10", "datetime": "2025-10-03 06:27:31.025000+00:00", "tile": "S2C_MSIL2A_20251003T062731_R077_T40QGL_20251003T094319_0000.jpg", "scene_id": "S2C_MSIL2A_20251003T062731_R077_T40QGL_20251003T094319", "hab_prob": 0.2841798527219705, "p_frcnn_r50_med": 0.9613886475563048, "p_frcnn_mb_med": 0.2258613258600235, "p_ssd_mb_med": 0.4297788441181183}}, {"type": "Feature", "geometry": {"type": "Polygon", "coordinates": [[[58.903394, 23.409627], [58.908337, 23.409627], [58.908337, 23.41431], [58.903394, 23.41431], [58.903394, 23.409627]]]}, "properties": {"chip_id": "S2C_MSIL2A_20251003T062731_R077_T40QGL_20251003T094319_0001", "month_key": "2025-10", "datetime": "2025-10-03 06:27:31.025000+00:00", "tile": "S2C_MSIL2A_20251003T062731_R077_T40QGL_20251003T094319_0001.jpg", "scene_id": "S2C_MSIL2A_20251003T062731_R077_T40QGL_20251003T094319", "hab_prob": 0.2841798527219705, "p_frcnn_r50_med": 0.9046260118484496, "p_frcnn_mb_med": 0.261221706867218, "p_ssd_mb_med": 0.4280422031879425}}, {"type": "Feature", "geometry": {"type": "Polygon", "coordinates": [[[58.902777, 23.409041], [58.908955, 23.409041], [58.908955, 23.414895], [58.902777, 23.414895], [58.902777, 23.409041]]]}, "properties": {"chip_id": "S2A_MSIL2A_20251015T063321_R077_T40QGL_20251015T092921_0000", "month_key": "2025-10", "datetime": "2025-10-15 06:33:21.024000+00:00", "tile": "S2A_MSIL2A_20251015T063321_R077_T40QGL_20251015T092921_0000.jpg", "scene_id": "S2A_MSIL2A_20251015T063321_R077_T40QGL_20251015T092921", "hab_prob": 0.2272211710003729, "p_frcnn_r50_med": 0.9755231142044068, "p_frcnn_mb_med": 0.2531541883945465, "p_ssd_mb_med": 0.4617900252342224}}, {"type": "Feature", "geometry": {"type": "Polygon", "coordinates": [[[58.903394, 23.409627], [58.908337, 23.409627], [58.908337, 23.41431], [58.903394, 23.41431], [58.903394, 23.409627]]]}, "properties": {"chip_id": "S2A_MSIL2A_20251015T063321_R077_T40QGL_20251015T092921_0001", "month_key": "2025-10", "datetime": "2025-10-15 06:33:21.024000+00:00", "tile": "S2A_MSIL2A_20251015T063321_R077_T40QGL_20251015T092921_0001.jpg", "scene_id": "S2A_MSIL2A_20251015T063321_R077_T40QGL_20251015T092921", "hab_prob": 0.2214116000436787, "p_frcnn_r50_med": 0.9063522219657898, "p_frcnn_mb_med": 0.3059665560722351, "p_ssd_mb_med": 0.4427967667579651}}, {"type": "Feature", "geometry": {"type": "Polygon", "coordinates": [[[58.902777, 23.409041], [58.908955, 23.409041], [58.908955, 23.414895], [58.902777, 23.414895], [58.902777, 23.409041]]]}, "properties": {"chip_id": "S2C_MSIL2A_20251023T062941_R077_T40QGL_20251023T095722_0000", "month_key": "2025-10", "datetime": "2025-10-23 06:29:41.025000+00:00", "tile": "S2C_MSIL2A_20251023T062941_R077_T40QGL_20251023T095722_0000.jpg", "scene_id": "S2C_MSIL2A_20251023T062941_R077_T40QGL_20251023T095722", "hab_prob": 0.2457975298457133, "p_frcnn_r50_med": 0.9635953307151794, "p_frcnn_mb_med": 0.2612993121147156, "p_ssd_mb_med": 0.4320415556430816}}, {"type": "Feature", "geometry": {"type": "Polygon", "coordinates": [[[58.903394, 23.409627], [58.908337, 23.409627], [58.908337, 23.41431], [58.903394, 23.41431], [58.903394, 23.409627]]]}, "properties": {"chip_id": "S2C_MSIL2A_20251023T062941_R077_T40QGL_20251023T095722_0001", "month_key": "2025-10", "datetime": "2025-10-23 06:29:41.025000+00:00", "tile": "S2C_MSIL2A_20251023T062941_R077_T40QGL_20251023T095722_0001.jpg", "scene_id": "S2C_MSIL2A_20251023T062941_R077_T40QGL_20251023T095722", "hab_prob": 0.2457975298457133, "p_frcnn_r50_med": 0.9022474884986876, "p_frcnn_mb_med": 0.3031807541847229, "p_ssd_mb_med": 0.4272992014884949}}]}