{"type": "FeatureCollection", "features": [{"type": "Feature", "geometry": {"type": "Polygon", "coordinates": [[[58.902777, 23.409041], [58.908955, 23.409041], [58.908955, 23.414895], [58.902777, 23.414895], [58.902777, 23.409041]]]}, "properties": {"chip_id": "S2C_MSIL2A_20250307T062751_R077_T40QGL_20250307T094002_0000", "month_key": "2025-03", "datetime": "2025-03-07 06:27:51.025000+00:00", "tile": "S2C_MSIL2A_20250307T062751_R077_T40QGL_20250307T094002_0000.jpg", "scene_id": "S2C_MSIL2A_20250307T062751_R077_T40QGL_20250307T094002", "hab_prob": 0.2609573524251093, "p_frcnn_r50_med": 0.9668606519699096, "p_frcnn_mb_med": 0.2959486544132232, "p_ssd_mb_med": 0.4285311698913574}}, {"type": "Feature", "geometry": {"type": "Polygon", "coordinates": [[[58.903394, 23.409627], [58.908337, 23.409627], [58.908337, 23.41431], [58.903394, 23.41431], [58.903394, 23.409627]]]}, "properties": {"chip_id": "S2C_MSIL2A_20250307T062751_R077_T40QGL_20250307T094002_0001", "month_key": "2025-03", "datetime": "2025-03-07 06:27:51.025000+00:00", "tile": "S2C_MSIL2A_20250307T062751_R077_T40QGL_20250307T094002_0001.jpg", "scene_id": "S2C_MSIL2A_20250307T062751_R077_T40QGL_20250307T094002", "hab_prob": 0.2609573524251093, "p_frcnn_r50_med": 0.9063876867294312, "p_frcnn_mb_med": 0.2810477614402771, "p_ssd_mb_med": 0.4472634792327881}}, {"type": "Feature", "geometry": {"type": "Polygon", "coordinates": [[[58.902777, 23.409041], [58.908955, 23.409041], [58.908955, 23.414895], [58.902777, 23.414895], [58.902777, 23.409041]]]}, "properties": {"chip_id": "S2B_MSIL2A_20250322T062629_R077_T40QGL_20250322T083211_0000", "month_key": "2025-03", "datetime": "2025-03-22 06:26:29.024000+00:00", "tile": "S2B_MSIL2A_20250322T062629_R077_T40QGL_20250322T083211_0000.jpg", "scene_id": "S2B_MSIL2A_20250322T062629_R077_T40QGL_20250322T083211", "hab_prob": 0.2826312478564207, "p_frcnn_r50_med": 0.9669581055641174, "p_frcnn_mb_med": 0.2937686443328857, "p_ssd_mb_med": 0.3798160552978515}}, {"type": "Feature", "geometry": {"type": "Polygon", "coordinates": [[[58.903394, 23.409627], [58.908337, 23.409627], [58.908337, 23.41431], [58.903394, 23.41431], [58.903394, 23.409627]]]}, "properties": {"chip_id": "S2B_MSIL2A_20250322T062629_R077_T40QGL_20250322T083211_0001", "month_key": "2025-03", "datetime": "2025-03-22 06:26:29.024000+00:00", "tile": "S2B_MSIL2A_20250322T062629_R077_T40QGL_20250322T083211_0001.jpg", "scene_id": "S2B_MSIL2A_20250322T062629_R077_T40QGL_20250322T083211", "hab_prob": 0.2708996587594342, "p_frcnn_r50_med": 0.930098831653595, "p_frcnn_mb_med": 0.2892869114875793, "p_ssd_mb_med": 0.4548313319683075}}]}