{"type": "FeatureCollection", "features": [{"type": "Feature", "geometry": {"type": "Polygon", "coordinates": [[[58.902777, 23.409041], [58.908955, 23.409041], [58.908955, 23.414895], [58.902777, 23.414895], [58.902777, 23.409041]]]}, "properties": {"chip_id": "S2C_MSIL2A_20250804T062651_R077_T40QGL_20250804T094212_0000", "month_key": "2025-08", "datetime": "2025-08-04 06:26:51.025000+00:00", "tile": "S2C_MSIL2A_20250804T062651_R077_T40QGL_20250804T094212_0000.jpg", "scene_id": "S2C_MSIL2A_20250804T062651_R077_T40QGL_20250804T094212", "hab_prob": 0.4020761122540405, "p_frcnn_r50_med": 0.9796419143676758, "p_frcnn_mb_med": 0.2236291915178299, "p_ssd_mb_med": 0.5085151791572571}}, {"type": "Feature", "geometry": {"type": "Polygon", "coordinates": [[[58.903394, 23.409627], [58.908337, 23.409627], [58.908337, 23.41431], [58.903394, 23.41431], [58.903394, 23.409627]]]}, "properties": {"chip_id": "S2C_MSIL2A_20250804T062651_R077_T40QGL_20250804T094212_0001", "month_key": "2025-08", "datetime": "2025-08-04 06:26:51.025000+00:00", "tile": "S2C_MSIL2A_20250804T062651_R077_T40QGL_20250804T094212_0001.jpg", "scene_id": "S2C_MSIL2A_20250804T062651_R077_T40QGL_20250804T094212", "hab_prob": 0.3828539905508573, "p_frcnn_r50_med": 0.910991370677948, "p_frcnn_mb_med": 0.2868212163448334, "p_ssd_mb_med": 0.4814819693565368}}, {"type": "Feature", "geometry": {"type": "Polygon", "coordinates": [[[58.902777, 23.409041], [58.908955, 23.409041], [58.908955, 23.414895], [58.902777, 23.414895], [58.902777, 23.409041]]]}, "properties": {"chip_id": "S2C_MSIL2A_20250824T062651_R077_T40QGL_20250824T094213_0000", "month_key": "2025-08", "datetime": "2025-08-24 06:26:51.024000+00:00", "tile": "S2C_MSIL2A_20250824T062651_R077_T40QGL_20250824T094213_0000.jpg", "scene_id": "S2C_MSIL2A_20250824T062651_R077_T40QGL_20250824T094213", "hab_prob": 0.2440266919542587, "p_frcnn_r50_med": 0.9784514904022216, "p_frcnn_mb_med": 0.2352927029132843, "p_ssd_mb_med": 0.4567697942256927}}, {"type": "Feature", "geometry": {"type": "Polygon", "coordinates": [[[58.903394, 23.409627], [58.908337, 23.409627], [58.908337, 23.41431], [58.903394, 23.41431], [58.903394, 23.409627]]]}, "properties": {"chip_id": "S2C_MSIL2A_20250824T062651_R077_T40QGL_20250824T094213_0001", "month_key": "2025-08", "datetime": "2025-08-24 06:26:51.024000+00:00", "tile": "S2C_MSIL2A_20250824T062651_R077_T40QGL_20250824T094213_0001.jpg", "scene_id": "S2C_MSIL2A_20250824T062651_R077_T40QGL_20250824T094213", "hab_prob": 0.2440266919542587, "p_frcnn_r50_med": 0.9213295578956604, "p_frcnn_mb_med": 0.3051067590713501, "p_ssd_mb_med": 0.4447132647037506}}]}