{"type": "FeatureCollection", "features": [{"type": "Feature", "geometry": {"type": "Polygon", "coordinates": [[[58.902777, 23.409041], [58.908955, 23.409041], [58.908955, 23.414895], [58.902777, 23.414895], [58.902777, 23.409041]]]}, "properties": {"chip_id": "S2A_MSIL2A_20250717T063331_R077_T40QGL_20250717T091809_0000", "month_key": "2025-07", "datetime": "2025-07-17 06:33:31.024000+00:00", "tile": "S2A_MSIL2A_20250717T063331_R077_T40QGL_20250717T091809_0000.jpg", "scene_id": "S2A_MSIL2A_20250717T063331_R077_T40QGL_20250717T091809", "hab_prob": 0.4169576928950219, "p_frcnn_r50_med": 0.9840332865715028, "p_frcnn_mb_med": 0.2062524855136871, "p_ssd_mb_med": 0.4786161482334137}}, {"type": "Feature", "geometry": {"type": "Polygon", "coordinates": [[[58.903394, 23.409627], [58.908337, 23.409627], [58.908337, 23.41431], [58.903394, 23.41431], [58.903394, 23.409627]]]}, "properties": {"chip_id": "S2A_MSIL2A_20250717T063331_R077_T40QGL_20250717T091809_0001", "month_key": "2025-07", "datetime": "2025-07-17 06:33:31.024000+00:00", "tile": "S2A_MSIL2A_20250717T063331_R077_T40QGL_20250717T091809_0001.jpg", "scene_id": "S2A_MSIL2A_20250717T063331_R077_T40QGL_20250717T091809", "hab_prob": 0.4050106194028257, "p_frcnn_r50_med": 0.9310208559036256, "p_frcnn_mb_med": 0.2842491269111633, "p_ssd_mb_med": 0.4308452308177948}}, {"type": "Feature", "geometry": {"type": "Polygon", "coordinates": [[[58.902777, 23.409041], [58.908955, 23.409041], [58.908955, 23.414895], [58.902777, 23.414895], [58.902777, 23.409041]]]}, "properties": {"chip_id": "S2B_MSIL2A_20250730T062629_R077_T40QGL_20250730T083814_0000", "month_key": "2025-07", "datetime": "2025-07-30 06:26:29.024000+00:00", "tile": "S2B_MSIL2A_20250730T062629_R077_T40QGL_20250730T083814_0000.jpg", "scene_id": "S2B_MSIL2A_20250730T062629_R077_T40QGL_20250730T083814", "hab_prob": 0.4058702931103545, "p_frcnn_r50_med": 0.9912286996841432, "p_frcnn_mb_med": 0.2691548466682434, "p_ssd_mb_med": 0.4612313508987427}}, {"type": "Feature", "geometry": {"type": "Polygon", "coordinates": [[[58.903394, 23.409627], [58.908337, 23.409627], [58.908337, 23.41431], [58.903394, 23.41431], [58.903394, 23.409627]]]}, "properties": {"chip_id": "S2B_MSIL2A_20250730T062629_R077_T40QGL_20250730T083814_0001", "month_key": "2025-07", "datetime": "2025-07-30 06:26:29.024000+00:00", "tile": "S2B_MSIL2A_20250730T062629_R077_T40QGL_20250730T083814_0001.jpg", "scene_id": "S2B_MSIL2A_20250730T062629_R077_T40QGL_20250730T083814", "hab_prob": 0.3978445880258642, "p_frcnn_r50_med": 0.9045811295509338, "p_frcnn_mb_med": 0.2974981665611267, "p_ssd_mb_med": 0.4257237017154693}}]}