{"type": "FeatureCollection", "features": [{"type": "Feature", "geometry": {"type": "Polygon", "coordinates": [[[58.902777, 23.409041], [58.908955, 23.409041], [58.908955, 23.414895], [58.902777, 23.414895], [58.902777, 23.409041]]]}, "properties": {"chip_id": "S2C_MSIL2A_20250406T062651_R077_T40QGL_20250406T111317_0000", "month_key": "2025-04", "datetime": "2025-04-06 06:26:51.024000+00:00", "tile": "S2C_MSIL2A_20250406T062651_R077_T40QGL_20250406T111317_0000.jpg", "scene_id": "S2C_MSIL2A_20250406T062651_R077_T40QGL_20250406T111317", "hab_prob": 0.2723956365730959, "p_frcnn_r50_med": 0.97687965631485, "p_frcnn_mb_med": 0.3146335184574127, "p_ssd_mb_med": 0.4070067405700683}}, {"type": "Feature", "geometry": {"type": "Polygon", "coordinates": [[[58.903394, 23.409627], [58.908337, 23.409627], [58.908337, 23.41431], [58.903394, 23.41431], [58.903394, 23.409627]]]}, "properties": {"chip_id": "S2C_MSIL2A_20250406T062651_R077_T40QGL_20250406T111317_0001", "month_key": "2025-04", "datetime": "2025-04-06 06:26:51.024000+00:00", "tile": "S2C_MSIL2A_20250406T062651_R077_T40QGL_20250406T111317_0001.jpg", "scene_id": "S2C_MSIL2A_20250406T062651_R077_T40QGL_20250406T111317", "hab_prob": 0.2841667606407677, "p_frcnn_r50_med": 0.9075916409492492, "p_frcnn_mb_med": 0.2113551050424575, "p_ssd_mb_med": 0.3851439654827118}}, {"type": "Feature", "geometry": {"type": "Polygon", "coordinates": [[[58.902777, 23.409041], [58.908955, 23.409041], [58.908955, 23.414895], [58.902777, 23.414895], [58.902777, 23.409041]]]}, "properties": {"chip_id": "S2C_MSIL2A_20250416T062651_R077_T40QGL_20250416T113912_0000", "month_key": "2025-04", "datetime": "2025-04-16 06:26:51.025000+00:00", "tile": "S2C_MSIL2A_20250416T062651_R077_T40QGL_20250416T113912_0000.jpg", "scene_id": "S2C_MSIL2A_20250416T062651_R077_T40QGL_20250416T113912", "hab_prob": 0.3819806246612627, "p_frcnn_r50_med": 0.9743998050689696, "p_frcnn_mb_med": 0.3208813369274139, "p_ssd_mb_med": 0.4559073448181152}}, {"type": "Feature", "geometry": {"type": "Polygon", "coordinates": [[[58.903394, 23.409627], [58.908337, 23.409627], [58.908337, 23.41431], [58.903394, 23.41431], [58.903394, 23.409627]]]}, "properties": {"chip_id": "S2C_MSIL2A_20250416T062651_R077_T40QGL_20250416T113912_0001", "month_key": "2025-04", "datetime": "2025-04-16 06:26:51.025000+00:00", "tile": "S2C_MSIL2A_20250416T062651_R077_T40QGL_20250416T113912_0001.jpg", "scene_id": "S2C_MSIL2A_20250416T062651_R077_T40QGL_20250416T113912", "hab_prob": 0.3819806246612627, "p_frcnn_r50_med": 0.9241542220115662, "p_frcnn_mb_med": 0.2603072822093963, "p_ssd_mb_med": 0.4484762549400329}}, {"type": "Feature", "geometry": {"type": "Polygon", "coordinates": [[[58.902777, 23.409041], [58.908955, 23.409041], [58.908955, 23.414895], [58.902777, 23.414895], [58.902777, 23.409041]]]}, "properties": {"chip_id": "S2B_MSIL2A_20250421T062629_R077_T40QGL_20250421T081920_0000", "month_key": "2025-04", "datetime": "2025-04-21 06:26:29.024000+00:00", "tile": "S2B_MSIL2A_20250421T062629_R077_T40QGL_20250421T081920_0000.jpg", "scene_id": "S2B_MSIL2A_20250421T062629_R077_T40QGL_20250421T081920", "hab_prob": 0.3521625588148723, "p_frcnn_r50_med": 0.9658907055854796, "p_frcnn_mb_med": 0.2876256704330444, "p_ssd_mb_med": 0.3692102134227752}}, {"type": "Feature", "geometry": {"type": "Polygon", "coordinates": [[[58.903394, 23.409627], [58.908337, 23.409627], [58.908337, 23.41431], [58.903394, 23.41431], [58.903394, 23.409627]]]}, "properties": {"chip_id": "S2B_MSIL2A_20250421T062629_R077_T40QGL_20250421T081920_0001", "month_key": "2025-04", "datetime": "2025-04-21 06:26:29.024000+00:00", "tile": "S2B_MSIL2A_20250421T062629_R077_T40QGL_20250421T081920_0001.jpg", "scene_id": "S2B_MSIL2A_20250421T062629_R077_T40QGL_20250421T081920", "hab_prob": 0.3521625588148723, "p_frcnn_r50_med": 0.937024176120758, "p_frcnn_mb_med": 0.2368936389684677, "p_ssd_mb_med": 0.3801513910293579}}, {"type": "Feature", "geometry": {"type": "Polygon", "coordinates": [[[58.902777, 23.409041], [58.908955, 23.409041], [58.908955, 23.414895], [58.902777, 23.414895], [58.902777, 23.409041]]]}, "properties": {"chip_id": "S2A_MSIL2A_20250428T063321_R077_T40QGL_20250428T113258_0000", "month_key": "2025-04", "datetime": "2025-04-28 06:33:21.024000+00:00", "tile": "S2A_MSIL2A_20250428T063321_R077_T40QGL_20250428T113258_0000.jpg", "scene_id": "S2A_MSIL2A_20250428T063321_R077_T40QGL_20250428T113258", "hab_prob": 0.3822721180299004, "p_frcnn_r50_med": 0.980581283569336, "p_frcnn_mb_med": 0.2872727811336517, "p_ssd_mb_med": 0.4473870098590851}}, {"type": "Feature", "geometry": {"type": "Polygon", "coordinates": [[[58.903394, 23.409627], [58.908337, 23.409627], [58.908337, 23.41431], [58.903394, 23.41431], [58.903394, 23.409627]]]}, "properties": {"chip_id": "S2A_MSIL2A_20250428T063321_R077_T40QGL_20250428T113258_0001", "month_key": "2025-04", "datetime": "2025-04-28 06:33:21.024000+00:00", "tile": "S2A_MSIL2A_20250428T063321_R077_T40QGL_20250428T113258_0001.jpg", "scene_id": "S2A_MSIL2A_20250428T063321_R077_T40QGL_20250428T113258", "hab_prob": 0.3822721180299004, "p_frcnn_r50_med": 0.9185675978660583, "p_frcnn_mb_med": 0.279960960149765, "p_ssd_mb_med": 0.4276434183120727}}]}