{"type": "FeatureCollection", "features": [{"type": "Feature", "geometry": {"type": "Polygon", "coordinates": [[[58.903394, 23.409627], [58.908337, 23.409627], [58.908337, 23.41431], [58.903394, 23.41431], [58.903394, 23.409627]]]}, "properties": {"chip_id": "S2A_MSIL2A_20250915T063321_R077_T40QGL_20250915T091514_0000", "month_key": "2025-09", "datetime": "2025-09-15 06:33:21.024000+00:00", "tile": "S2A_MSIL2A_20250915T063321_R077_T40QGL_20250915T091514_0000.jpg", "scene_id": "S2A_MSIL2A_20250915T063321_R077_T40QGL_20250915T091514", "hab_prob": 0.4523780262085242, "p_frcnn_r50_med": 0.9230648279190063, "p_frcnn_mb_med": 0.2117329686880111, "p_ssd_mb_med": 0.4647595286369324}}, {"type": "Feature", "geometry": {"type": "Polygon", "coordinates": [[[58.902777, 23.409041], [58.908955, 23.409041], [58.908955, 23.414895], [58.902777, 23.414895], [58.902777, 23.409041]]]}, "properties": {"chip_id": "S2C_MSIL2A_20250923T062641_R077_T40QGL_20250923T111816_0000", "month_key": "2025-09", "datetime": "2025-09-23 06:26:41.025000+00:00", "tile": "S2C_MSIL2A_20250923T062641_R077_T40QGL_20250923T111816_0000.jpg", "scene_id": "S2C_MSIL2A_20250923T062641_R077_T40QGL_20250923T111816", "hab_prob": 0.5909879092445042, "p_frcnn_r50_med": 0.9537100791931152, "p_frcnn_mb_med": 0.2400161921977996, "p_ssd_mb_med": 0.4384103417396545}}, {"type": "Feature", "geometry": {"type": "Polygon", "coordinates": [[[58.903394, 23.409627], [58.908337, 23.409627], [58.908337, 23.41431], [58.903394, 23.41431], [58.903394, 23.409627]]]}, "properties": {"chip_id": "S2C_MSIL2A_20250923T062641_R077_T40QGL_20250923T111816_0001", "month_key": "2025-09", "datetime": "2025-09-23 06:26:41.025000+00:00", "tile": "S2C_MSIL2A_20250923T062641_R077_T40QGL_20250923T111816_0001.jpg", "scene_id": "S2C_MSIL2A_20250923T062641_R077_T40QGL_20250923T111816", "hab_prob": 0.5909879092445042, "p_frcnn_r50_med": 0.8999338150024414, "p_frcnn_mb_med": 0.2442916333675384, "p_ssd_mb_med": 0.4528308510780334}}]}