{"type": "FeatureCollection", "features": [{"type": "Feature", "properties": {"plant_id": "osm_way_449632054", "month": "2017-02", "n_chips": 2, "hab_mean": 0.3541206880603397, "hab_p95": 0.3641541920777756, "hab_max": 0.3652690258574907, "frac_ge_05": 0.0, "frac_ge_08": 0.0, "risk": "low", "time": "2017-02-01T00:00:00+00:00"}, "geometry": {"type": "Point", "coordinates": [59.4882009, 22.9936031]}}, {"type": "Feature", "properties": {"plant_id": "osm_way_449632054", "month": "2017-04", "n_chips": 2, "hab_mean": 0.3865394605123974, "hab_p95": 0.3914580226404853, "hab_max": 0.3920045295436062, "frac_ge_05": 0.0, "frac_ge_08": 0.0, "risk": "low", "time": "2017-04-01T00:00:00+00:00"}, "geometry": {"type": "Point", "coordinates": [59.4882009, 22.9936031]}}, {"type": "Feature", "properties": {"plant_id": "osm_way_449632054", "month": "2017-06", "n_chips": 2, "hab_mean": 0.4238967790434079, "hab_p95": 0.4330295161077432, "hab_max": 0.4340442646704472, "frac_ge_05": 0.0, "frac_ge_08": 0.0, "risk": "medium", "time": "2017-06-01T00:00:00+00:00"}, "geometry": {"type": "Point", "coordinates": [59.4882009, 22.9936031]}}, {"type": "Feature", "properties": {"plant_id": "osm_way_449632054", "month": "2017-07", "n_chips": 2, "hab_mean": 0.4211539207807129, "hab_p95": 0.4211539207807129, "hab_max": 0.4211539207807129, "frac_ge_05": 0.0, "frac_ge_08": 0.0, "risk": "medium", "time": "2017-07-01T00:00:00+00:00"}, "geometry": {"type": "Point", "coordinates": [59.4882009, 22.9936031]}}, {"type": "Feature", "properties": {"plant_id": "osm_way_449632054", "month": "2017-08", "n_chips": 4, "hab_mean": 0.3799533508727669, "hab_p95": 0.4158007950039712, "hab_max": 0.4182505092943596, "frac_ge_05": 0.0, "frac_ge_08": 0.0, "risk": "medium", "time": "2017-08-01T00:00:00+00:00"}, "geometry": {"type": "Point", "coordinates": [59.4882009, 22.9936031]}}, {"type": "Feature", "properties": {"plant_id": "osm_way_449632054", "month": "2017-10", "n_chips": 4, "hab_mean": 0.3816293996781799, "hab_p95": 0.3927367001623478, "hab_max": 0.3948445341995593, "frac_ge_05": 0.0, "frac_ge_08": 0.0, "risk": "medium", "time": "2017-10-01T00:00:00+00:00"}, "geometry": {"type": "Point", "coordinates": [59.4882009, 22.9936031]}}, {"type": "Feature", "properties": {"plant_id": "osm_way_449632054", "month": "2017-11", "n_chips": 6, "hab_mean": 0.3919055980125571, "hab_p95": 0.404903048526087, "hab_max": 0.4068459465552435, "frac_ge_05": 0.0, "frac_ge_08": 0.0, "risk": "medium", "time": "2017-11-01T00:00:00+00:00"}, "geometry": {"type": "Point", "coordinates": [59.4882009, 22.9936031]}}, {"type": "Feature", "properties": {"plant_id": "osm_way_449632054", "month": "2017-12", "n_chips": 2, "hab_mean": 0.4604620119083112, "hab_p95": 0.46695164802977, "hab_max": 0.4676727187099321, "frac_ge_05": 0.0, "frac_ge_08": 0.0, "risk": "medium", "time": "2017-12-01T00:00:00+00:00"}, "geometry": {"type": "Point", "coordinates": [59.4882009, 22.9936031]}}, {"type": "Feature", "properties": {"plant_id": "osm_way_449632054", "month": "2018-01", "n_chips": 4, "hab_mean": 0.3920708289578137, "hab_p95": 0.398494410499931, "hab_max": 0.398494410499931, "frac_ge_05": 0.0, "frac_ge_08": 0.0, "risk": "medium", "time": "2018-01-01T00:00:00+00:00"}, "geometry": {"type": "Point", "coordinates": [59.4882009, 22.9936031]}}, {"type": "Feature", "properties": {"plant_id": "osm_way_449632054", "month": "2018-02", "n_chips": 4, "hab_mean": 0.4360325861958934, "hab_p95": 0.4965046061854757, "hab_max": 0.4978309455134366, "frac_ge_05": 0.0, "frac_ge_08": 0.0, "risk": "medium", "time": "2018-02-01T00:00:00+00:00"}, "geometry": {"type": "Point", "coordinates": [59.4882009, 22.9936031]}}, {"type": "Feature", "properties": {"plant_id": "osm_way_449632054", "month": "2018-03", "n_chips": 2, "hab_mean": 0.3745494775553061, "hab_p95": 0.3784520786967735, "hab_max": 0.3788857010458254, "frac_ge_05": 0.0, "frac_ge_08": 0.0, "risk": "low", "time": "2018-03-01T00:00:00+00:00"}, "geometry": {"type": "Point", "coordinates": [59.4882009, 22.9936031]}}, {"type": "Feature", "properties": {"plant_id": "osm_way_449632054", "month": "2018-04", "n_chips": 4, "hab_mean": 0.3846306315545829, "hab_p95": 0.4067148236746007, "hab_max": 0.4080514779887755, "frac_ge_05": 0.0, "frac_ge_08": 0.0, "risk": "medium", "time": "2018-04-01T00:00:00+00:00"}, "geometry": {"type": "Point", "coordinates": [59.4882009, 22.9936031]}}, {"type": "Feature", "properties": {"plant_id": "osm_way_449632054", "month": "2018-05", "n_chips": 8, "hab_mean": 0.4389319169597931, "hab_p95": 0.5080768428862025, "hab_max": 0.5080768428862025, "frac_ge_05": 0.25, "frac_ge_08": 0.0, "risk": "medium", "time": "2018-05-01T00:00:00+00:00"}, "geometry": {"type": "Point", "coordinates": [59.4882009, 22.9936031]}}, {"type": "Feature", "properties": {"plant_id": "osm_way_449632054", "month": "2018-06", "n_chips": 4, "hab_mean": 0.4457319081344595, "hab_p95": 0.4726969600427601, "hab_max": 0.4750767929382913, "frac_ge_05": 0.0, "frac_ge_08": 0.0, "risk": "medium", "time": "2018-06-01T00:00:00+00:00"}, "geometry": {"type": "Point", "coordinates": [59.4882009, 22.9936031]}}, {"type": "Feature", "properties": {"plant_id": "osm_way_449632054", "month": "2018-07", "n_chips": 2, "hab_mean": 0.63707520312978, "hab_p95": 0.63707520312978, "hab_max": 0.63707520312978, "frac_ge_05": 1.0, "frac_ge_08": 0.0, "risk": "high", "time": "2018-07-01T00:00:00+00:00"}, "geometry": {"type": "Point", "coordinates": [59.4882009, 22.9936031]}}, {"type": "Feature", "properties": {"plant_id": "osm_way_449632054", "month": "2018-08", "n_chips": 8, "hab_mean": 0.4657836557138529, "hab_p95": 0.5602672677861866, "hab_max": 0.5602672677861866, "frac_ge_05": 0.375, "frac_ge_08": 0.0, "risk": "high", "time": "2018-08-01T00:00:00+00:00"}, "geometry": {"type": "Point", "coordinates": [59.4882009, 22.9936031]}}, {"type": "Feature", "properties": {"plant_id": "osm_way_449632054", "month": "2018-09", "n_chips": 6, "hab_mean": 0.3948405760517939, "hab_p95": 0.4118457062581223, "hab_max": 0.4139133239972854, "frac_ge_05": 0.0, "frac_ge_08": 0.0, "risk": "medium", "time": "2018-09-01T00:00:00+00:00"}, "geometry": {"type": "Point", "coordinates": [59.4882009, 22.9936031]}}, {"type": "Feature", "properties": {"plant_id": "osm_way_449632054", "month": "2018-10", "n_chips": 4, "hab_mean": 0.3745432258770537, "hab_p95": 0.3854457022016003, "hab_max": 0.3862954075080145, "frac_ge_05": 0.0, "frac_ge_08": 0.0, "risk": "low", "time": "2018-10-01T00:00:00+00:00"}, "geometry": {"type": "Point", "coordinates": [59.4882009, 22.9936031]}}, {"type": "Feature", "properties": {"plant_id": "osm_way_449632054", "month": "2018-11", "n_chips": 4, "hab_mean": 0.350658052385174, "hab_p95": 0.3742835459661554, "hab_max": 0.3768317244959377, "frac_ge_05": 0.0, "frac_ge_08": 0.0, "risk": "low", "time": "2018-11-01T00:00:00+00:00"}, "geometry": {"type": "Point", "coordinates": [59.4882009, 22.9936031]}}, {"type": "Feature", "properties": {"plant_id": "osm_way_449632054", "month": "2018-12", "n_chips": 2, "hab_mean": 0.4796059842538184, "hab_p95": 0.4796059842538184, "hab_max": 0.4796059842538184, "frac_ge_05": 0.0, "frac_ge_08": 0.0, "risk": "medium", "time": "2018-12-01T00:00:00+00:00"}, "geometry": {"type": "Point", "coordinates": [59.4882009, 22.9936031]}}, {"type": "Feature", "properties": {"plant_id": "osm_way_449632054", "month": "2019-01", "n_chips": 4, "hab_mean": 0.4058308156322213, "hab_p95": 0.4627871241237546, "hab_max": 0.4681526692823258, "frac_ge_05": 0.0, "frac_ge_08": 0.0, "risk": "medium", "time": "2019-01-01T00:00:00+00:00"}, "geometry": {"type": "Point", "coordinates": [59.4882009, 22.9936031]}}, {"type": "Feature", "properties": {"plant_id": "osm_way_449632054", "month": "2019-02", "n_chips": 4, "hab_mean": 0.3403731455641786, "hab_p95": 0.3513687180529808, "hab_max": 0.3536601728282664, "frac_ge_05": 0.0, "frac_ge_08": 0.0, "risk": "low", "time": "2019-02-01T00:00:00+00:00"}, "geometry": {"type": "Point", "coordinates": [59.4882009, 22.9936031]}}, {"type": "Feature", "properties": {"plant_id": "osm_way_449632054", "month": "2019-03", "n_chips": 4, "hab_mean": 0.3733764304979471, "hab_p95": 0.3881565637935814, "hab_max": 0.3897925983961266, "frac_ge_05": 0.0, "frac_ge_08": 0.0, "risk": "low", "time": "2019-03-01T00:00:00+00:00"}, "geometry": {"type": "Point", "coordinates": [59.4882009, 22.9936031]}}, {"type": "Feature", "properties": {"plant_id": "osm_way_449632054", "month": "2019-04", "n_chips": 6, "hab_mean": 0.3899890253693066, "hab_p95": 0.4139042024155341, "hab_max": 0.4139042024155341, "frac_ge_05": 0.0, "frac_ge_08": 0.0, "risk": "medium", "time": "2019-04-01T00:00:00+00:00"}, "geometry": {"type": "Point", "coordinates": [59.4882009, 22.9936031]}}, {"type": "Feature", "properties": {"plant_id": "osm_way_449632054", "month": "2019-05", "n_chips": 4, "hab_mean": 0.3929800928978562, "hab_p95": 0.4044679097853323, "hab_max": 0.4063176013439475, "frac_ge_05": 0.0, "frac_ge_08": 0.0, "risk": "medium", "time": "2019-05-01T00:00:00+00:00"}, "geometry": {"type": "Point", "coordinates": [59.4882009, 22.9936031]}}, {"type": "Feature", "properties": {"plant_id": "osm_way_449632054", "month": "2019-06", "n_chips": 6, "hab_mean": 0.4476994890886606, "hab_p95": 0.5174439897684763, "hab_max": 0.5196528865587731, "frac_ge_05": 0.3333333333333333, "frac_ge_08": 0.0, "risk": "medium", "time": "2019-06-01T00:00:00+00:00"}, "geometry": {"type": "Point", "coordinates": [59.4882009, 22.9936031]}}, {"type": "Feature", "properties": {"plant_id": "osm_way_449632054", "month": "2019-07", "n_chips": 2, "hab_mean": 0.4855287340925427, "hab_p95": 0.5027791600780164, "hab_max": 0.5046958740764024, "frac_ge_05": 0.5, "frac_ge_08": 0.0, "risk": "medium", "time": "2019-07-01T00:00:00+00:00"}, "geometry": {"type": "Point", "coordinates": [59.4882009, 22.9936031]}}, {"type": "Feature", "properties": {"plant_id": "osm_way_449632054", "month": "2019-08", "n_chips": 6, "hab_mean": 0.4294044520008531, "hab_p95": 0.5526519384847124, "hab_max": 0.5629089656529638, "frac_ge_05": 0.3333333333333333, "frac_ge_08": 0.0, "risk": "high", "time": "2019-08-01T00:00:00+00:00"}, "geometry": {"type": "Point", "coordinates": [59.4882009, 22.9936031]}}, {"type": "Feature", "properties": {"plant_id": "osm_way_449632054", "month": "2019-09", "n_chips": 4, "hab_mean": 0.3927338205083647, "hab_p95": 0.4065980712166336, "hab_max": 0.407811361258885, "frac_ge_05": 0.0, "frac_ge_08": 0.0, "risk": "medium", "time": "2019-09-01T00:00:00+00:00"}, "geometry": {"type": "Point", "coordinates": [59.4882009, 22.9936031]}}, {"type": "Feature", "properties": {"plant_id": "osm_way_449632054", "month": "2019-10", "n_chips": 6, "hab_mean": 0.3741180926832181, "hab_p95": 0.4039166231423521, "hab_max": 0.4039166231423521, "frac_ge_05": 0.0, "frac_ge_08": 0.0, "risk": "medium", "time": "2019-10-01T00:00:00+00:00"}, "geometry": {"type": "Point", "coordinates": [59.4882009, 22.9936031]}}, {"type": "Feature", "properties": {"plant_id": "osm_way_449632054", "month": "2019-11", "n_chips": 2, "hab_mean": 0.4180360805434568, "hab_p95": 0.4180360805434568, "hab_max": 0.4180360805434568, "frac_ge_05": 0.0, "frac_ge_08": 0.0, "risk": "medium", "time": "2019-11-01T00:00:00+00:00"}, "geometry": {"type": "Point", "coordinates": [59.4882009, 22.9936031]}}, {"type": "Feature", "properties": {"plant_id": "osm_way_449632054", "month": "2019-12", "n_chips": 2, "hab_mean": 0.3936629268784551, "hab_p95": 0.4009141368022585, "hab_max": 0.4017198267937923, "frac_ge_05": 0.0, "frac_ge_08": 0.0, "risk": "medium", "time": "2019-12-01T00:00:00+00:00"}, "geometry": {"type": "Point", "coordinates": [59.4882009, 22.9936031]}}, {"type": "Feature", "properties": {"plant_id": "osm_way_449632054", "month": "2020-01", "n_chips": 2, "hab_mean": 0.4332321081263113, "hab_p95": 0.4332321081263113, "hab_max": 0.4332321081263113, "frac_ge_05": 0.0, "frac_ge_08": 0.0, "risk": "medium", "time": "2020-01-01T00:00:00+00:00"}, "geometry": {"type": "Point", "coordinates": [59.4882009, 22.9936031]}}, {"type": "Feature", "properties": {"plant_id": "osm_way_449632054", "month": "2020-03", "n_chips": 6, "hab_mean": 0.3779208066748618, "hab_p95": 0.387057537647915, "hab_max": 0.3875604298936217, "frac_ge_05": 0.0, "frac_ge_08": 0.0, "risk": "low", "time": "2020-03-01T00:00:00+00:00"}, "geometry": {"type": "Point", "coordinates": [59.4882009, 22.9936031]}}, {"type": "Feature", "properties": {"plant_id": "osm_way_449632054", "month": "2020-04", "n_chips": 2, "hab_mean": 0.4056444135512249, "hab_p95": 0.4146607487442074, "hab_max": 0.41566256376565, "frac_ge_05": 0.0, "frac_ge_08": 0.0, "risk": "medium", "time": "2020-04-01T00:00:00+00:00"}, "geometry": {"type": "Point", "coordinates": [59.4882009, 22.9936031]}}, {"type": "Feature", "properties": {"plant_id": "osm_way_449632054", "month": "2020-05", "n_chips": 8, "hab_mean": 0.4252345627030681, "hab_p95": 0.4508348564591193, "hab_max": 0.4544947889503768, "frac_ge_05": 0.0, "frac_ge_08": 0.0, "risk": "medium", "time": "2020-05-01T00:00:00+00:00"}, "geometry": {"type": "Point", "coordinates": [59.4882009, 22.9936031]}}, {"type": "Feature", "properties": {"plant_id": "osm_way_449632054", "month": "2020-06", "n_chips": 4, "hab_mean": 0.4088972758824296, "hab_p95": 0.4283899984352848, "hab_max": 0.4318848694961666, "frac_ge_05": 0.0, "frac_ge_08": 0.0, "risk": "medium", "time": "2020-06-01T00:00:00+00:00"}, "geometry": {"type": "Point", "coordinates": [59.4882009, 22.9936031]}}, {"type": "Feature", "properties": {"plant_id": "osm_way_449632054", "month": "2020-07", "n_chips": 4, "hab_mean": 0.4324406231364583, "hab_p95": 0.4621396796515178, "hab_max": 0.4643909261346972, "frac_ge_05": 0.0, "frac_ge_08": 0.0, "risk": "medium", "time": "2020-07-01T00:00:00+00:00"}, "geometry": {"type": "Point", "coordinates": [59.4882009, 22.9936031]}}, {"type": "Feature", "properties": {"plant_id": "osm_way_449632054", "month": "2020-08", "n_chips": 4, "hab_mean": 0.4607249728522243, "hab_p95": 0.4892494080071313, "hab_max": 0.4892494080071313, "frac_ge_05": 0.0, "frac_ge_08": 0.0, "risk": "medium", "time": "2020-08-01T00:00:00+00:00"}, "geometry": {"type": "Point", "coordinates": [59.4882009, 22.9936031]}}, {"type": "Feature", "properties": {"plant_id": "osm_way_449632054", "month": "2020-09", "n_chips": 8, "hab_mean": 0.4174159365148875, "hab_p95": 0.5081418178400553, "hab_max": 0.5117051653832766, "frac_ge_05": 0.25, "frac_ge_08": 0.0, "risk": "medium", "time": "2020-09-01T00:00:00+00:00"}, "geometry": {"type": "Point", "coordinates": [59.4882009, 22.9936031]}}, {"type": "Feature", "properties": {"plant_id": "osm_way_449632054", "month": "2020-10", "n_chips": 4, "hab_mean": 0.391124408654158, "hab_p95": 0.4067824893455279, "hab_max": 0.4074548026041214, "frac_ge_05": 0.0, "frac_ge_08": 0.0, "risk": "medium", "time": "2020-10-01T00:00:00+00:00"}, "geometry": {"type": "Point", "coordinates": [59.4882009, 22.9936031]}}, {"type": "Feature", "properties": {"plant_id": "osm_way_449632054", "month": "2020-11", "n_chips": 4, "hab_mean": 0.3799853565783549, "hab_p95": 0.390918646211886, "hab_max": 0.3911382361642962, "frac_ge_05": 0.0, "frac_ge_08": 0.0, "risk": "low", "time": "2020-11-01T00:00:00+00:00"}, "geometry": {"type": "Point", "coordinates": [59.4882009, 22.9936031]}}, {"type": "Feature", "properties": {"plant_id": "osm_way_449632054", "month": "2020-12", "n_chips": 6, "hab_mean": 0.3741642170657961, "hab_p95": 0.3867950878360522, "hab_max": 0.3871059423439204, "frac_ge_05": 0.0, "frac_ge_08": 0.0, "risk": "low", "time": "2020-12-01T00:00:00+00:00"}, "geometry": {"type": "Point", "coordinates": [59.4882009, 22.9936031]}}, {"type": "Feature", "properties": {"plant_id": "osm_way_449632054", "month": "2021-01", "n_chips": 4, "hab_mean": 0.4949882766637235, "hab_p95": 0.6087303358105027, "hab_max": 0.6087303358105027, "frac_ge_05": 0.5, "frac_ge_08": 0.0, "risk": "high", "time": "2021-01-01T00:00:00+00:00"}, "geometry": {"type": "Point", "coordinates": [59.4882009, 22.9936031]}}, {"type": "Feature", "properties": {"plant_id": "osm_way_449632054", "month": "2021-02", "n_chips": 8, "hab_mean": 0.3927938152593402, "hab_p95": 0.4534443839163606, "hab_max": 0.4617465628948005, "frac_ge_05": 0.0, "frac_ge_08": 0.0, "risk": "medium", "time": "2021-02-01T00:00:00+00:00"}, "geometry": {"type": "Point", "coordinates": [59.4882009, 22.9936031]}}, {"type": "Feature", "properties": {"plant_id": "osm_way_449632054", "month": "2021-03", "n_chips": 4, "hab_mean": 0.3878539361858841, "hab_p95": 0.4031976521245102, "hab_max": 0.4054880293969889, "frac_ge_05": 0.0, "frac_ge_08": 0.0, "risk": "medium", "time": "2021-03-01T00:00:00+00:00"}, "geometry": {"type": "Point", "coordinates": [59.4882009, 22.9936031]}}, {"type": "Feature", "properties": {"plant_id": "osm_way_449632054", "month": "2021-04", "n_chips": 6, "hab_mean": 0.3770791245783448, "hab_p95": 0.3832907969519001, "hab_max": 0.3839321662566809, "frac_ge_05": 0.0, "frac_ge_08": 0.0, "risk": "low", "time": "2021-04-01T00:00:00+00:00"}, "geometry": {"type": "Point", "coordinates": [59.4882009, 22.9936031]}}, {"type": "Feature", "properties": {"plant_id": "osm_way_449632054", "month": "2021-05", "n_chips": 4, "hab_mean": 0.4030846211652076, "hab_p95": 0.4237386644748916, "hab_max": 0.4245257264069467, "frac_ge_05": 0.0, "frac_ge_08": 0.0, "risk": "medium", "time": "2021-05-01T00:00:00+00:00"}, "geometry": {"type": "Point", "coordinates": [59.4882009, 22.9936031]}}, {"type": "Feature", "properties": {"plant_id": "osm_way_449632054", "month": "2021-06", "n_chips": 6, "hab_mean": 0.4286577737095722, "hab_p95": 0.4916458272384295, "hab_max": 0.502867969207572, "frac_ge_05": 0.1666666666666666, "frac_ge_08": 0.0, "risk": "medium", "time": "2021-06-01T00:00:00+00:00"}, "geometry": {"type": "Point", "coordinates": [59.4882009, 22.9936031]}}, {"type": "Feature", "properties": {"plant_id": "osm_way_449632054", "month": "2021-07", "n_chips": 2, "hab_mean": 0.3528498722343021, "hab_p95": 0.3615724455293845, "hab_max": 0.3625416203399493, "frac_ge_05": 0.0, "frac_ge_08": 0.0, "risk": "low", "time": "2021-07-01T00:00:00+00:00"}, "geometry": {"type": "Point", "coordinates": [59.4882009, 22.9936031]}}, {"type": "Feature", "properties": {"plant_id": "osm_way_449632054", "month": "2021-08", "n_chips": 6, "hab_mean": 0.4507223050612677, "hab_p95": 0.5052303893262141, "hab_max": 0.5077760097482408, "frac_ge_05": 0.1666666666666666, "frac_ge_08": 0.0, "risk": "medium", "time": "2021-08-01T00:00:00+00:00"}, "geometry": {"type": "Point", "coordinates": [59.4882009, 22.9936031]}}, {"type": "Feature", "properties": {"plant_id": "osm_way_449632054", "month": "2021-09", "n_chips": 4, "hab_mean": 0.4118932305376733, "hab_p95": 0.4453808738078866, "hab_max": 0.4477500561183968, "frac_ge_05": 0.0, "frac_ge_08": 0.0, "risk": "medium", "time": "2021-09-01T00:00:00+00:00"}, "geometry": {"type": "Point", "coordinates": [59.4882009, 22.9936031]}}, {"type": "Feature", "properties": {"plant_id": "osm_way_449632054", "month": "2021-10", "n_chips": 6, "hab_mean": 0.3689872338199919, "hab_p95": 0.3836742702789199, "hab_max": 0.3852152689438274, "frac_ge_05": 0.0, "frac_ge_08": 0.0, "risk": "low", "time": "2021-10-01T00:00:00+00:00"}, "geometry": {"type": "Point", "coordinates": [59.4882009, 22.9936031]}}, {"type": "Feature", "properties": {"plant_id": "osm_way_449632054", "month": "2021-11", "n_chips": 8, "hab_mean": 0.3826257666920075, "hab_p95": 0.3984848576436283, "hab_max": 0.3990743544386179, "frac_ge_05": 0.0, "frac_ge_08": 0.0, "risk": "medium", "time": "2021-11-01T00:00:00+00:00"}, "geometry": {"type": "Point", "coordinates": [59.4882009, 22.9936031]}}, {"type": "Feature", "properties": {"plant_id": "osm_way_449632054", "month": "2021-12", "n_chips": 6, "hab_mean": 0.4043436601815355, "hab_p95": 0.4433029880491309, "hab_max": 0.4477981078828805, "frac_ge_05": 0.0, "frac_ge_08": 0.0, "risk": "medium", "time": "2021-12-01T00:00:00+00:00"}, "geometry": {"type": "Point", "coordinates": [59.4882009, 22.9936031]}}, {"type": "Feature", "properties": {"plant_id": "osm_way_449632054", "month": "2022-01", "n_chips": 6, "hab_mean": 0.3564732805004182, "hab_p95": 0.3813191504395093, "hab_max": 0.3813191504395093, "frac_ge_05": 0.0, "frac_ge_08": 0.0, "risk": "low", "time": "2022-01-01T00:00:00+00:00"}, "geometry": {"type": "Point", "coordinates": [59.4882009, 22.9936031]}}, {"type": "Feature", "properties": {"plant_id": "osm_way_449632054", "month": "2022-02", "n_chips": 6, "hab_mean": 0.3320645603414889, "hab_p95": 0.3389322300404048, "hab_max": 0.3393763312436105, "frac_ge_05": 0.0, "frac_ge_08": 0.0, "risk": "low", "time": "2022-02-01T00:00:00+00:00"}, "geometry": {"type": "Point", "coordinates": [59.4882009, 22.9936031]}}, {"type": "Feature", "properties": {"plant_id": "osm_way_449632054", "month": "2022-03", "n_chips": 2, "hab_mean": 0.3927408198708747, "hab_p95": 0.4039571807459771, "hab_max": 0.4052034430654329, "frac_ge_05": 0.0, "frac_ge_08": 0.0, "risk": "medium", "time": "2022-03-01T00:00:00+00:00"}, "geometry": {"type": "Point", "coordinates": [59.4882009, 22.9936031]}}, {"type": "Feature", "properties": {"plant_id": "osm_way_449632054", "month": "2022-04", "n_chips": 4, "hab_mean": 0.4384712865010959, "hab_p95": 0.5045606907059403, "hab_max": 0.5045606907059403, "frac_ge_05": 0.5, "frac_ge_08": 0.0, "risk": "medium", "time": "2022-04-01T00:00:00+00:00"}, "geometry": {"type": "Point", "coordinates": [59.4882009, 22.9936031]}}, {"type": "Feature", "properties": {"plant_id": "osm_way_449632054", "month": "2022-05", "n_chips": 8, "hab_mean": 0.431699321351195, "hab_p95": 0.4932496051143131, "hab_max": 0.5016324878019451, "frac_ge_05": 0.125, "frac_ge_08": 0.0, "risk": "medium", "time": "2022-05-01T00:00:00+00:00"}, "geometry": {"type": "Point", "coordinates": [59.4882009, 22.9936031]}}, {"type": "Feature", "properties": {"plant_id": "osm_way_449632054", "month": "2022-06", "n_chips": 6, "hab_mean": 0.3901049295230274, "hab_p95": 0.4029574660013061, "hab_max": 0.4042494036918134, "frac_ge_05": 0.0, "frac_ge_08": 0.0, "risk": "medium", "time": "2022-06-01T00:00:00+00:00"}, "geometry": {"type": "Point", "coordinates": [59.4882009, 22.9936031]}}, {"type": "Feature", "properties": {"plant_id": "osm_way_449632054", "month": "2022-07", "n_chips": 6, "hab_mean": 0.4138195116795354, "hab_p95": 0.4892494080071313, "hab_max": 0.4892494080071313, "frac_ge_05": 0.0, "frac_ge_08": 0.0, "risk": "medium", "time": "2022-07-01T00:00:00+00:00"}, "geometry": {"type": "Point", "coordinates": [59.4882009, 22.9936031]}}, {"type": "Feature", "properties": {"plant_id": "osm_way_449632054", "month": "2022-08", "n_chips": 4, "hab_mean": 0.4074621563957937, "hab_p95": 0.4763077661374275, "hab_max": 0.4823419846741093, "frac_ge_05": 0.0, "frac_ge_08": 0.0, "risk": "medium", "time": "2022-08-01T00:00:00+00:00"}, "geometry": {"type": "Point", "coordinates": [59.4882009, 22.9936031]}}, {"type": "Feature", "properties": {"plant_id": "osm_way_449632054", "month": "2022-09", "n_chips": 6, "hab_mean": 0.3699224006179218, "hab_p95": 0.3799704122604079, "hab_max": 0.3799704122604079, "frac_ge_05": 0.0, "frac_ge_08": 0.0, "risk": "low", "time": "2022-09-01T00:00:00+00:00"}, "geometry": {"type": "Point", "coordinates": [59.4882009, 22.9936031]}}, {"type": "Feature", "properties": {"plant_id": "osm_way_449632054", "month": "2022-10", "n_chips": 8, "hab_mean": 0.37583956190744, "hab_p95": 0.3965376981878177, "hab_max": 0.4013225913693725, "frac_ge_05": 0.0, "frac_ge_08": 0.0, "risk": "medium", "time": "2022-10-01T00:00:00+00:00"}, "geometry": {"type": "Point", "coordinates": [59.4882009, 22.9936031]}}, {"type": "Feature", "properties": {"plant_id": "osm_way_449632054", "month": "2022-11", "n_chips": 2, "hab_mean": 0.4005139167942993, "hab_p95": 0.4012732935732268, "hab_max": 0.4013576687708854, "frac_ge_05": 0.0, "frac_ge_08": 0.0, "risk": "medium", "time": "2022-11-01T00:00:00+00:00"}, "geometry": {"type": "Point", "coordinates": [59.4882009, 22.9936031]}}, {"type": "Feature", "properties": {"plant_id": "osm_way_449632054", "month": "2022-12", "n_chips": 2, "hab_mean": 0.3886148628212532, "hab_p95": 0.3964213754589923, "hab_max": 0.3972887657520745, "frac_ge_05": 0.0, "frac_ge_08": 0.0, "risk": "medium", "time": "2022-12-01T00:00:00+00:00"}, "geometry": {"type": "Point", "coordinates": [59.4882009, 22.9936031]}}, {"type": "Feature", "properties": {"plant_id": "osm_way_449632054", "month": "2023-01", "n_chips": 2, "hab_mean": 0.4431228082062605, "hab_p95": 0.4431228082062605, "hab_max": 0.4431228082062605, "frac_ge_05": 0.0, "frac_ge_08": 0.0, "risk": "medium", "time": "2023-01-01T00:00:00+00:00"}, "geometry": {"type": "Point", "coordinates": [59.4882009, 22.9936031]}}, {"type": "Feature", "properties": {"plant_id": "osm_way_449632054", "month": "2023-03", "n_chips": 2, "hab_mean": 0.3990199833248067, "hab_p95": 0.4030148980566696, "hab_max": 0.4034587774713211, "frac_ge_05": 0.0, "frac_ge_08": 0.0, "risk": "medium", "time": "2023-03-01T00:00:00+00:00"}, "geometry": {"type": "Point", "coordinates": [59.4882009, 22.9936031]}}, {"type": "Feature", "properties": {"plant_id": "osm_way_449632054", "month": "2023-04", "n_chips": 4, "hab_mean": 0.3999291888493991, "hab_p95": 0.4171672886892298, "hab_max": 0.4171672886892298, "frac_ge_05": 0.0, "frac_ge_08": 0.0, "risk": "medium", "time": "2023-04-01T00:00:00+00:00"}, "geometry": {"type": "Point", "coordinates": [59.4882009, 22.9936031]}}, {"type": "Feature", "properties": {"plant_id": "osm_way_449632054", "month": "2023-05", "n_chips": 6, "hab_mean": 0.4107420053333928, "hab_p95": 0.4295749214191607, "hab_max": 0.4295749214191607, "frac_ge_05": 0.0, "frac_ge_08": 0.0, "risk": "medium", "time": "2023-05-01T00:00:00+00:00"}, "geometry": {"type": "Point", "coordinates": [59.4882009, 22.9936031]}}, {"type": "Feature", "properties": {"plant_id": "osm_way_449632054", "month": "2023-06", "n_chips": 4, "hab_mean": 0.4553694948559782, "hab_p95": 0.532407962804398, "hab_max": 0.5354549376129764, "frac_ge_05": 0.5, "frac_ge_08": 0.0, "risk": "medium", "time": "2023-06-01T00:00:00+00:00"}, "geometry": {"type": "Point", "coordinates": [59.4882009, 22.9936031]}}, {"type": "Feature", "properties": {"plant_id": "osm_way_449632054", "month": "2023-07", "n_chips": 2, "hab_mean": 0.4435393015112903, "hab_p95": 0.4435393015112903, "hab_max": 0.4435393015112903, "frac_ge_05": 0.0, "frac_ge_08": 0.0, "risk": "medium", "time": "2023-07-01T00:00:00+00:00"}, "geometry": {"type": "Point", "coordinates": [59.4882009, 22.9936031]}}, {"type": "Feature", "properties": {"plant_id": "osm_way_449632054", "month": "2023-08", "n_chips": 8, "hab_mean": 0.380659148528533, "hab_p95": 0.414130024927095, "hab_max": 0.4198527340689051, "frac_ge_05": 0.0, "frac_ge_08": 0.0, "risk": "medium", "time": "2023-08-01T00:00:00+00:00"}, "geometry": {"type": "Point", "coordinates": [59.4882009, 22.9936031]}}, {"type": "Feature", "properties": {"plant_id": "osm_way_449632054", "month": "2023-09", "n_chips": 8, "hab_mean": 0.3812573107142332, "hab_p95": 0.4046024324978493, "hab_max": 0.4051948995623732, "frac_ge_05": 0.0, "frac_ge_08": 0.0, "risk": "medium", "time": "2023-09-01T00:00:00+00:00"}, "geometry": {"type": "Point", "coordinates": [59.4882009, 22.9936031]}}, {"type": "Feature", "properties": {"plant_id": "osm_way_449632054", "month": "2023-10", "n_chips": 2, "hab_mean": 0.3814578851449799, "hab_p95": 0.3884643386496808, "hab_max": 0.3892428334835365, "frac_ge_05": 0.0, "frac_ge_08": 0.0, "risk": "low", "time": "2023-10-01T00:00:00+00:00"}, "geometry": {"type": "Point", "coordinates": [59.4882009, 22.9936031]}}, {"type": "Feature", "properties": {"plant_id": "osm_way_449632054", "month": "2023-11", "n_chips": 4, "hab_mean": 0.4140504993291661, "hab_p95": 0.4228494718495203, "hab_max": 0.4240628311723824, "frac_ge_05": 0.0, "frac_ge_08": 0.0, "risk": "medium", "time": "2023-11-01T00:00:00+00:00"}, "geometry": {"type": "Point", "coordinates": [59.4882009, 22.9936031]}}, {"type": "Feature", "properties": {"plant_id": "osm_way_449632054", "month": "2023-12", "n_chips": 6, "hab_mean": 0.3993208788586728, "hab_p95": 0.4148112685513242, "hab_max": 0.415795480286297, "frac_ge_05": 0.0, "frac_ge_08": 0.0, "risk": "medium", "time": "2023-12-01T00:00:00+00:00"}, "geometry": {"type": "Point", "coordinates": [59.4882009, 22.9936031]}}, {"type": "Feature", "properties": {"plant_id": "osm_way_449632054", "month": "2024-01", "n_chips": 4, "hab_mean": 0.4367933272089992, "hab_p95": 0.4896891028173116, "hab_max": 0.4939114257091078, "frac_ge_05": 0.0, "frac_ge_08": 0.0, "risk": "medium", "time": "2024-01-01T00:00:00+00:00"}, "geometry": {"type": "Point", "coordinates": [59.4882009, 22.9936031]}}, {"type": "Feature", "properties": {"plant_id": "osm_way_449632054", "month": "2024-02", "n_chips": 4, "hab_mean": 0.3541739956503335, "hab_p95": 0.3674870643568212, "hab_max": 0.3687115299978536, "frac_ge_05": 0.0, "frac_ge_08": 0.0, "risk": "low", "time": "2024-02-01T00:00:00+00:00"}, "geometry": {"type": "Point", "coordinates": [59.4882009, 22.9936031]}}, {"type": "Feature", "properties": {"plant_id": "osm_way_449632054", "month": "2024-03", "n_chips": 4, "hab_mean": 0.3941569255984384, "hab_p95": 0.398863206478844, "hab_max": 0.3999318776033795, "frac_ge_05": 0.0, "frac_ge_08": 0.0, "risk": "medium", "time": "2024-03-01T00:00:00+00:00"}, "geometry": {"type": "Point", "coordinates": [59.4882009, 22.9936031]}}, {"type": "Feature", "properties": {"plant_id": "osm_way_449632054", "month": "2024-04", "n_chips": 4, "hab_mean": 0.3911016501623755, "hab_p95": 0.4064158740262675, "hab_max": 0.4077522085418251, "frac_ge_05": 0.0, "frac_ge_08": 0.0, "risk": "medium", "time": "2024-04-01T00:00:00+00:00"}, "geometry": {"type": "Point", "coordinates": [59.4882009, 22.9936031]}}, {"type": "Feature", "properties": {"plant_id": "osm_way_449632054", "month": "2024-05", "n_chips": 4, "hab_mean": 0.4634306559119406, "hab_p95": 0.5130334349525116, "hab_max": 0.5130334349525116, "frac_ge_05": 0.5, "frac_ge_08": 0.0, "risk": "medium", "time": "2024-05-01T00:00:00+00:00"}, "geometry": {"type": "Point", "coordinates": [59.4882009, 22.9936031]}}, {"type": "Feature", "properties": {"plant_id": "osm_way_449632054", "month": "2024-06", "n_chips": 8, "hab_mean": 0.4286072864325599, "hab_p95": 0.5465873068690417, "hab_max": 0.5490622783074953, "frac_ge_05": 0.25, "frac_ge_08": 0.0, "risk": "high", "time": "2024-06-01T00:00:00+00:00"}, "geometry": {"type": "Point", "coordinates": [59.4882009, 22.9936031]}}, {"type": "Feature", "properties": {"plant_id": "osm_way_449632054", "month": "2024-07", "n_chips": 2, "hab_mean": 0.625534273787622, "hab_p95": 0.625534273787622, "hab_max": 0.625534273787622, "frac_ge_05": 1.0, "frac_ge_08": 0.0, "risk": "high", "time": "2024-07-01T00:00:00+00:00"}, "geometry": {"type": "Point", "coordinates": [59.4882009, 22.9936031]}}, {"type": "Feature", "properties": {"plant_id": "osm_way_449632054", "month": "2024-08", "n_chips": 4, "hab_mean": 0.5066606043595069, "hab_p95": 0.6170751070617408, "hab_max": 0.6170751070617408, "frac_ge_05": 0.5, "frac_ge_08": 0.0, "risk": "high", "time": "2024-08-01T00:00:00+00:00"}, "geometry": {"type": "Point", "coordinates": [59.4882009, 22.9936031]}}, {"type": "Feature", "properties": {"plant_id": "osm_way_449632054", "month": "2024-09", "n_chips": 4, "hab_mean": 0.403722245148444, "hab_p95": 0.4261024177334631, "hab_max": 0.4287197367547585, "frac_ge_05": 0.0, "frac_ge_08": 0.0, "risk": "medium", "time": "2024-09-01T00:00:00+00:00"}, "geometry": {"type": "Point", "coordinates": [59.4882009, 22.9936031]}}, {"type": "Feature", "properties": {"plant_id": "osm_way_449632054", "month": "2024-10", "n_chips": 4, "hab_mean": 0.3729467282159566, "hab_p95": 0.4032343255134691, "hab_max": 0.4054083277569374, "frac_ge_05": 0.0, "frac_ge_08": 0.0, "risk": "medium", "time": "2024-10-01T00:00:00+00:00"}, "geometry": {"type": "Point", "coordinates": [59.4882009, 22.9936031]}}, {"type": "Feature", "properties": {"plant_id": "osm_way_449632054", "month": "2024-12", "n_chips": 6, "hab_mean": 0.3865534187273036, "hab_p95": 0.3992454879609188, "hab_max": 0.3992454879609188, "frac_ge_05": 0.0, "frac_ge_08": 0.0, "risk": "medium", "time": "2024-12-01T00:00:00+00:00"}, "geometry": {"type": "Point", "coordinates": [59.4882009, 22.9936031]}}]}