{"type": "FeatureCollection", "features": [{"type": "Feature", "geometry": {"type": "Point", "coordinates": [59.6321193, 21.9310725]}, "properties": {"type": "convex_hull"}}, {"type": "Feature", "geometry": {"type": "Polygon", "coordinates": [[[59.634858488809726, 21.917301667920462], [59.624318750236284, 21.91939815227167], [59.61834846792046, 21.928333311190272], [59.62044495227167, 21.93887304976371], [59.62938011119027, 21.944843332079536], [59.639919849763714, 21.94274684772833], [59.645890132079536, 21.933811688809726], [59.64379364772833, 21.923271950236288], [59.634858488809726, 21.917301667920462]]]}, "properties": {"type": "buffer_union_envelope", "buffer_m": 1500.0, "simplify_m": 300.0}}]}